{
  "date_updated": "1970-01-01T00:00:00Z",
  "data": [
    {
      "name": "ADELINE",
      "postcode": "6432",
      "SA2_Name": "Boulder"
    },
	{
      "name": "ANGELO ST",
      "postcode": "6151",
      "SA2_Name": "South Perth - Kensington"
    },
	{
      "name": "APPLECROSS NORTH",
      "postcode": "6153",
      "SA2_Name": "Applecross - Ardross"
    },
	{
      "name": "BEAGLE BAY",
      "postcode": "6725",
      "SA2_Name": "Roebuck"
    },
	{
      "name": "BURNS",
      "postcode": "6028",
      "SA2_Name": "Iluka - Burns Beach"
    },
	{
      "name": "CANNIGNTON",
      "postcode": "6107",
      "SA2_Name": "Cannington - Queens Park"
    },
	{
      "name": "ASCOT GARDENS",
      "postcode": "6104",
      "SA2_Name": "Belmont - Ascot - Redcliffe"
    },
	{
      "name": "BELMONT EAST",
      "postcode": "6104",
      "SA2_Name": "Belmont - Ascot - Redcliffe"
    },
	{
      "name": "GIRRAWHEN",
      "postcode": "6064",
      "SA2_Name": "Girrawheen"
    },
	{
      "name": "HAMERSLY",
      "postcode": "6022",
      "SA2_Name": "Balcatta - Hamersley"
    },
	{
      "name": "KELMSCOT",
      "postcode": "6111",
      "SA2_Name": "Kelmscott"
    },
	{
      "name": "CAIRNS",
      "postcode": "6701",
      "SA2_Name": "Carnarvon"
    },
	{
      "name": "PERTH WESTERN AUSTRALIA",
      "postcode": "6163",
      "SA2_Name": "Fremantle - South"
    },
	{
      "name": "COCKBURN",
      "postcode": "6164",
      "SA2_Name": "South Lake - Cockburn Central"
    },
	{
      "name": "CANING VALE",
      "postcode": "6155",
      "SA2_Name": "Canning Vale - East"
    },
	{
      "name": "OMAN PASS CANNINGVALE",
      "postcode": "6155",
      "SA2_Name": "Canning Vale - East"
    },
	{
      "name": "OSBORNEPARK",
      "postcode": "6017",
      "SA2_Name": "Stirling - Osborne Park"
    },
	{
      "name": "BELMONT PO",
      "postcode": "6984",
      "SA2_Name": "Belmont - Ascot - Redcliffe"
    },
	{
      "name": "BENTLEY DC",
      "postcode": "6102",
      "SA2_Name": "Bentley - Wilson - St James"
    },
	{
      "name": "BENTLEY DC PO BOX",
      "postcode": "6102",
      "SA2_Name": "Bentley - Wilson - St James"
    },
	{
      "name": "BENTLEY SOUTH",
      "postcode": "6102",
      "SA2_Name": "Bentley - Wilson - St James"
    },
	{
      "name": "BALGO",
      "postcode": "6770",
      "SA2_Name": "Halls Creek"
    },
	{
      "name": "BIBRA LAKE DC",
      "postcode": "6163",
      "SA2_Name": "South Lake - Cockburn Central"
    },
	{
      "name": "BIDYADANGA",
      "postcode": "6725",
      "SA2_Name": "Roebuck"
    },
	{
      "name": "BILLILUNA",
      "postcode": "6770",
      "SA2_Name": "Halls Creek"
    },
	{
      "name": "BROADWAY NEDLANDS",
      "postcode": "6009",
      "SA2_Name": "Nedlands - Dalkeith - Crawley"
    },
	{
      "name": "BROOMEHILL",
      "postcode": "6318",
      "SA2_Name": "Kojonup"
    },
	{
      "name": "BROOMEHILL VLG",
      "postcode": "6318",
      "SA2_Name": "Kojonup"
    },
	{
      "name": "BRUNSWICK JNCT",
      "postcode": "6224",
      "SA2_Name": "Harvey"
    },
	{
      "name": "BRUNSWICK JUNC",
      "postcode": "6224",
      "SA2_Name": "Harvey"
    },
	{
      "name": "BRUNSWICK JUNCTION",
      "postcode": "6224",
      "SA2_Name": "Harvey"
    },
	{
      "name": "BULLCREEK",
      "postcode": "6149",
      "SA2_Name": "Bull Creek"
    },
	{
      "name": "BURRENDAH",
      "postcode": "6155",
      "SA2_Name": "Willetton"
    },
	{
      "name": "CANNING BRG APPLE",
      "postcode": "6153",
      "SA2_Name": "Applecross - Ardross"
    },
	{
      "name": "CANNING BRIDGE",
      "postcode": "6153",
      "SA2_Name": "Applecross - Ardross"
    },
	{
      "name": "CANNING BRIDGE APPLECROS",
      "postcode": "6153",
      "SA2_Name": "Applecross - Ardross"
    },
	{
      "name": "CANNING VALE DC",
      "postcode": "6155",
      "SA2_Name": "Canning Vale - East"
    },
	{
      "name": "CANNING VALE EAST",
      "postcode": "6155",
      "SA2_Name": "Canning Vale - East"
    },
	{
      "name": "CANNING VALE S",
      "postcode": "6155",
      "SA2_Name": "Canning Vale - East"
    },
	{
      "name": "CANNING VALE SOUTH",
      "postcode": "6155",
      "SA2_Name": "Canning Vale - East"
    },
	{
      "name": "CARLISLE NORTH",
      "postcode": "6101",
      "SA2_Name": "East Victoria Park - Carlisle"
    },
	{
      "name": "CARLISLE SOUTH",
      "postcode": "6101",
      "SA2_Name": "East Victoria Park - Carlisle"
    },
	{
      "name": "CHAPMAN VALLEY",
      "postcode": "6532",
      "SA2_Name": "Northampton - Mullewa - Greenough"
    },
	{
      "name": "CHRISTMAN ISLAND",
      "postcode": "6798",
      "SA2_Name": "Christmas Island"
    },
	{
      "name": "CHRISTMAS ISLAND",
      "postcode": "6798",
      "SA2_Name": "Christmas Island"
    },
	{
      "name": "CITY DELIVERY CENTRE",
      "postcode": "6000",
      "SA2_Name": "Perth City"
    },
	{
      "name": "MULAN",
      "postcode": "6770",
      "SA2_Name": "Halls Creek"
    },
	{
      "name": "MAYLAND",
      "postcode": "6052",
      "SA2_Name": "Maylands"
    },
	{
      "name": "UPPER KALGAN",
      "postcode": "6330",
      "SA2_Name": "Albany Region"
    },
	{
      "name": "TUARTHILL",
      "postcode": "6060",
      "SA2_Name": "Tuart Hill - Joondanna"
    },
	{
      "name": "JOLLIMONT",
      "postcode": "6014",
      "SA2_Name": "Subiaco - Shenton Park"
    },
	{
      "name": "BUSSELTON WEST",
      "postcode": "6280",
      "SA2_Name": "Busselton"
    },
	{
      "name": "YOUNGS",
      "postcode": "6330",
      "SA2_Name": "Albany Region"
    },
	{
      "name": "BANKESIA GROVE",
      "postcode": "6031",
      "SA2_Name": "Carramar"
    },
	{
      "name": "WEMBLY",
      "postcode": "6014",
      "SA2_Name": "Wembley - West Leederville - Glendalough"
    },
	{
      "name": "LEEDERVILLE PO BOXES 1-1",
      "postcode": "6007",
      "SA2_Name": "Mount Hawthorn - Leederville"
    },
	{
      "name": "BRABHMAM",
      "postcode": "6055",
      "SA2_Name": "Ellenbrook"
    },
	{
      "name": "INNALOO CITY",
      "postcode": "6918",
      "SA2_Name": "Innaloo - Doubleview"
    },
	{
      "name": "PLACID WATERS",
      "postcode": "6210",
      "SA2_Name": "Mandurah - South"
    },
	{
      "name": "RINGER SOAK",
      "postcode": "6770",
      "SA2_Name": "Halls Creek"
    },
	{
      "name": "YIYILI",
      "postcode": "6770",
      "SA2_Name": "Halls Creek"
    },
    {
      "name": "ALBANY DC",
      "postcode": "6331",
      "SA2_Name": "Albany"
    },
	{
      "name": "ALBANY PO",
      "postcode": "6332",
      "SA2_Name": "Albany"
    },
	{
      "name": "BASSENDEAN DC",
      "postcode": "6942",
      "SA2_Name": "Bassendean - Eden Hill - Ashfield"
    },
	{
      "name": "BASSENDEAN DC PO",
      "postcode": "6942",
      "SA2_Name": "Bassendean - Eden Hill - Ashfield"
    },
	{
      "name": "BASSENDEAN DC PO BOXES",
      "postcode": "6942",
      "SA2_Name": "Bassendean - Eden Hill - Ashfield"
    },
	{
      "name": "CLAREMONT NORTH",
      "postcode": "6010",
      "SA2_Name": "Claremont (WA)"
    },
	{
      "name": "CLIFTON PARK",
      "postcode": "6233",
      "SA2_Name": "Australind - Leschenault"
    },
	{
      "name": "CLOISTERS SQUARE",
      "postcode": "6850",
      "SA2_Name": "Perth City"
    },
	{
      "name": "CLOISTERS SQUARE PO",
      "postcode": "6850",
      "SA2_Name": "Perth City"
    },
	{
      "name": "COCOS",
      "postcode": "6799",
      "SA2_Name": "Cocos (Keeling) Islands"
    },
	{
      "name": "COCOS ISLAND",
      "postcode": "6799",
      "SA2_Name": "Cocos (Keeling) Islands"
    },
	{
      "name": "COCOS ISLANDS",
      "postcode": "6799",
      "SA2_Name": "Cocos (Keeling) Islands"
    },
	{
      "name": "COLLINGWOD HTS",
      "postcode": "6330",
      "SA2_Name": "Albany"
    },
	{
      "name": "COLLINGWOOD HTS",
      "postcode": "6330",
      "SA2_Name": "Albany"
    },
	{
      "name": "COOGEE BEACH",
      "postcode": "6166",
      "SA2_Name": "Coogee"
    },
	{
      "name": "COSMO NEWBERRY",
      "postcode": "6440",
      "SA2_Name": "Leinster - Leonora"
    },
	{
      "name": "CRAIGE",
      "postcode": "6025",
      "SA2_Name": "Craigie - Beldon"
    },
	{
      "name": "DALKIETH",
      "postcode": "6009",
      "SA2_Name": "Nedlands - Dalkeith - Crawley"
    },
	{
      "name": "DAMPIER ARCHIP",
      "postcode": "6713",
      "SA2_Name": "Roebourne"
    },
	{
      "name": "DJARINDJIN",
      "postcode": "6725",
      "SA2_Name": "Roebuck"
    },
	{
      "name": "DOG SWAMP",
      "postcode": "6060",
      "SA2_Name": "Yokine - Coolbinia - Menora"
    },
	{
      "name": "EAST",
      "postcode": "6981",
      "SA2_Name": "East Victoria Park - Carlisle"
    },
	{
      "name": "EAST BELMONT",
      "postcode": "6104",
      "SA2_Name": "Belmont - Ascot - Redcliffe"
    },
	{
      "name": "EAST VIC PARK",
      "postcode": "6101",
      "SA2_Name": "East Victoria Park - Carlisle"
    },
	{
      "name": "EAST VICTORIA PAR",
      "postcode": "6101",
      "SA2_Name": "East Victoria Park - Carlisle"
    },
	{
      "name": "EAST VICTORIA PK",
      "postcode": "6101",
      "SA2_Name": "East Victoria Park - Carlisle"
    },
	{
      "name": "EAST VICTORIA PRK",
      "postcode": "6101",
      "SA2_Name": "East Victoria Park - Carlisle"
    },
	{
      "name": "EWINGTON",
      "postcode": "6225",
      "SA2_Name": "Collie"
    },
	{
      "name": "FLOREAT FORUM",
      "postcode": "6014",
      "SA2_Name": "Floreat"
    },
	{
      "name": "FLOREAT PARK",
      "postcode": "6014",
      "SA2_Name": "Floreat"
    },
	{
      "name": "FLORIDA",
      "postcode": "6210",
      "SA2_Name": "Falcon - Wannanup"
    },
	{
      "name": "FORREST LAKES",
      "postcode": "6108",
      "SA2_Name": "Thornlie"
    },
	{
      "name": "FORRESTER PARK",
      "postcode": "6532",
      "SA2_Name": "Geraldton - North"
    },
	{
      "name": "FRANKLAND",
      "postcode": "6396",
      "SA2_Name": "Kojonup"
    },
	{
      "name": "FREMANTLE EAST",
      "postcode": "6158",
      "SA2_Name": "East Fremantle"
    },
	{
      "name": "GERALDTON PO",
      "postcode": "6531",
      "SA2_Name": "Geraldton"
    },
	{
      "name": "GLENGARRY",
      "postcode": "6023",
      "SA2_Name": "Duncraig"
    },
	{
      "name": "GREENHEAD",
      "postcode": "6519",
      "SA2_Name": "Morawa"
    },
	{
      "name": "GUILDFORD SOUTH",
      "postcode": "6055",
      "SA2_Name": "Midland - Guildford"
    },
	{
      "name": "GWELUP DC",
      "postcode": "6018",
      "SA2_Name": "Karrinyup - Gwelup - Carine"
    },
	{
      "name": "HANNANS PO",
      "postcode": "6433",
      "SA2_Name": "Kalgoorlie - North"
    },
	{
      "name": "HOME ISLAND",
      "postcode": "6799",
      "SA2_Name": "Cocos (Keeling) Islands"
    },
	{
      "name": "INGLEWOOD DC",
      "postcode": "6932",
      "SA2_Name": "Mount Lawley - Inglewood"
    },
	{
      "name": "IS COCOS KEELING",
      "postcode": "6799",
      "SA2_Name": "Cocos (Keeling) Islands"
    },
	{
      "name": "ISL COCOS KEELING",
      "postcode": "6799",
      "SA2_Name": "Cocos (Keeling) Islands"
    },
	{
      "name": "JARLMADANGAH",
      "postcode": "6728",
      "SA2_Name": "Derby - West Kimberley"
    },
	{
      "name": "JOONDALUP DC",
      "postcode": "6027",
      "SA2_Name": "Joondalup - Edgewater"
    },
	{
      "name": "KALAMUNDA PB",
      "postcode": "6926",
      "SA2_Name": "Kalamunda - Maida Vale - Gooseberry Hill"
    },
	{
      "name": "KALGOORLIE DC",
      "postcode": "6433",
      "SA2_Name": "Kalgoorlie - North"
    },
	{
      "name": "KALGOORLIE PO",
      "postcode": "6433",
      "SA2_Name": "Kalgoorlie - North"
    },
	{
      "name": "KAMBALDA",
      "postcode": "6442",
      "SA2_Name": "Kambalda - Coolgardie - Norseman"
    },
	{
      "name": "KARRATHA IND EST",
      "postcode": "6714",
      "SA2_Name": "Karratha"
    },
	{
      "name": "KARRATHA INDUSTRI",
      "postcode": "6714",
      "SA2_Name": "Karratha"
    },
	{
      "name": "KARRATHA INDUSTRIAL ESTA",
      "postcode": "6714",
      "SA2_Name": "Karratha"
    },
	{
      "name": "KELMSCOTT DC",
      "postcode": "6997",
      "SA2_Name": "Kelmscott"
    },
	{
      "name": "KINGSWAY",
      "postcode": "6065",
      "SA2_Name": "Madeley - Darch - Landsdale"
    },
	{
      "name": "KWINANA",
      "postcode": "6966",
      "SA2_Name": "Parmelia - Orelia"
    },
	{
      "name": "KWINANA TOWN CTR",
      "postcode": "6167",
      "SA2_Name": "Parmelia - Orelia"
    },
	{
      "name": "LAKE COOGEE",
      "postcode": "6166",
      "SA2_Name": "Coogee"
    },
	{
      "name": "LEEDERVILLE WEST",
      "postcode": "6007",
      "SA2_Name": "Wembley - West Leederville - Glendalough"
    },
	{
      "name": "MADORA",
      "postcode": "6210",
      "SA2_Name": "Mandurah - North"
    },
	{
      "name": "MALAGA DC",
      "postcode": "6945",
      "SA2_Name": "Malaga"
    },
	{
      "name": "MANDURAH DC",
      "postcode": "6210",
      "SA2_Name": "Mandurah"
    },
	{
      "name": "MANDURAH EAST",
      "postcode": "6210",
      "SA2_Name": "Mandurah - East"
    },
	{
      "name": "MANDURAH NORTH",
      "postcode": "6210",
      "SA2_Name": "Mandurah - North"
    },
	{
      "name": "MARBELLUP",
      "postcode": "6330",
      "SA2_Name": "Albany Region"
    },
	{
      "name": "MELVILLE HEIGHTS",
      "postcode": "6156",
      "SA2_Name": "Melville"
    },
	{
      "name": "MIDLAND DC",
      "postcode": "6936",
      "SA2_Name": "Midland - Guildford"
    },
	{
      "name": "MOSMAN",
      "postcode": "6012",
      "SA2_Name": "Mosman Park - Peppermint Grove"
    },
	{
      "name": "MOSMAN PARK SOUTH",
      "postcode": "6012",
      "SA2_Name": "Mosman Park - Peppermint Grove"
    },
	{
      "name": "MOUNT HAWTHORN PB",
      "postcode": "6915",
      "SA2_Name": "Mount Hawthorn - Leederville"
    },
	{
      "name": "MOUNT LAWLEY PB",
      "postcode": "6929",
      "SA2_Name": "Mount Lawley - Inglewood"
    },
	{
      "name": "MOUNT YOKINE",
      "postcode": "6060",
      "SA2_Name": "Yokine - Coolbinia - Menora"
    },
	{
      "name": "MT BARKER",
      "postcode": "6324",
      "SA2_Name": "Plantagenet"
    },
	{
      "name": "MT CLAREMONT",
      "postcode": "6010",
      "SA2_Name": "Swanbourne - Mount Claremont"
    },
	{
      "name": "MT HAWTHORN",
      "postcode": "6016",
      "SA2_Name": "Mount Hawthorn - Leederville"
    },
	{
      "name": "MT HELENA",
      "postcode": "6082",
      "SA2_Name": "Mundaring"
    },
	{
      "name": "MT LAWLEY",
      "postcode": "6050",
      "SA2_Name": "Mount Lawley - Inglewood"
    },
	{
      "name": "MT PLEASANT",
      "postcode": "6153",
      "SA2_Name": "Booragoon"
    },
	{
      "name": "MT TARCOOLA",
      "postcode": "6530",
      "SA2_Name": "Geraldton - South"
    },
	{
      "name": "MUNDARING DC",
      "postcode": "6073",
      "SA2_Name": "Mundaring"
    },
	{
      "name": "MYAREE BC",
      "postcode": "6960",
      "SA2_Name": "Melville"
    },
	{
      "name": "NEDLANDS DC",
      "postcode": "6009",
      "SA2_Name": "Nedlands - Dalkeith - Crawley"
    },
	{
      "name": "NEDLANDS PB",
      "postcode": "6909",
      "SA2_Name": "Nedlands - Dalkeith - Crawley"
    },
	{
      "name": "NORTHLANDS",
      "postcode": "6905",
      "SA2_Name": "Leinster - Leonora"
    },
	{
      "name": "OSBORNE PARK DC",
      "postcode": "6916",
      "SA2_Name": "Stirling - Osborne Park"
    },
	{
      "name": "OSBORNE PARK PB",
      "postcode": "6916",
      "SA2_Name": "Stirling - Osborne Park"
    },
	{
      "name": "PALM BEACH",
      "postcode": "6168",
      "SA2_Name": "Rockingham"
    },
	{
      "name": "PALMYRA DC",
      "postcode": "6961",
      "SA2_Name": "Bicton - Palmyra"
    },
	{
      "name": "PEPERMINT GRV BCH",
      "postcode": "6271",
      "SA2_Name": "Capel"
    },
	{
      "name": "PERTH ADEL TCE",
      "postcode": "6832",
      "SA2_Name": "Perth City"
    },
	{
      "name": "PERTH BC",
      "postcode": "6849",
      "SA2_Name": "Perth City"
    },
	{
      "name": "PERTH BUS CENTRE",
      "postcode": "6849",
      "SA2_Name": "Perth City"
    },
	{
      "name": "PERTH BUSINESS CE",
      "postcode": "6849",
      "SA2_Name": "Perth City"
    },
	{
      "name": "PERTH BUSINESS CENTRE",
      "postcode": "6849",
      "SA2_Name": "Perth City"
    },
	{
      "name": "PERTH CITY",
      "postcode": "6000",
      "SA2_Name": "Perth City"
    },
	{
      "name": "PERTH EAST",
      "postcode": "6004",
      "SA2_Name": "Perth City"
    },
	{
      "name": "PERTH GPO",
      "postcode": "6000",
      "SA2_Name": "Perth City"
    },
	{
      "name": "PERTH GPO BOXES",
      "postcode": "6837",
      "SA2_Name": "Perth City"
    },
	{
      "name": "PERTH ST GEORGES",
      "postcode": "6831",
      "SA2_Name": "Perth City"
    },
	{
      "name": "PERTH ST GEORGES TCE",
      "postcode": "6831",
      "SA2_Name": "Perth City"
    },
	{
      "name": "POINT MOORE",
      "postcode": "6530",
      "SA2_Name": "Geraldton"
    },
	{
      "name": "PORONGORUP",
      "postcode": "6324",
      "SA2_Name": "Plantagenet"
    },
	{
      "name": "PRESTON STLMNT",
      "postcode": "6225",
      "SA2_Name": "Collie"
    },
	{
      "name": "QUININUP",
      "postcode": "6258",
      "SA2_Name": "Pemberton"
    },
	{
      "name": "RIVERSIDE GARDENS",
      "postcode": "6210",
      "SA2_Name": "Greenfields"
    },
	{
      "name": "ROCKINGHAM BEACH",
      "postcode": "6969",
      "SA2_Name": "Rockingham"
    },
	{
      "name": "ROCKINGHAM DC",
      "postcode": "6967",
      "SA2_Name": "Rockingham"
    },
	{
      "name": "RYANS BROOK",
      "postcode": "6395",
      "SA2_Name": "Kojonup"
    },
	{
      "name": "S PERTH ANGELO ST",
      "postcode": "6151",
      "SA2_Name": "South Perth - Kensington"
    },
	{
      "name": "SAINT JAMES",
      "postcode": "6102",
      "SA2_Name": "Bentley - Wilson - St James"
    },
	{
      "name": "SAINT RONANS",
      "postcode": "6302",
      "SA2_Name": "York - Beverley"
    },
	{
      "name": "SOMMERVILLE FORREST",
      "postcode": "6163",
      "SA2_Name": "Murdoch - Kardinya"
    },
	{
      "name": "SORENTO",
      "postcode": "6020",
      "SA2_Name": "Sorrento - Marmion"
    },
	{
      "name": "SOUTH",
      "postcode": "6912",
      "SA2_Name": "Mosman Park - Peppermint Grove"
    },
	{
      "name": "SOUTH PERTH ANGEL",
      "postcode": "6151",
      "SA2_Name": "South Perth - Kensington"
    },
	{
      "name": "SOUTH PERTH ANGELO ST",
      "postcode": "6151",
      "SA2_Name": "South Perth - Kensington"
    },
	{
      "name": "STIRLING STREET",
      "postcode": "6849",
      "SA2_Name": "Perth City"
    },
	{
      "name": "SUBIACO EAST",
      "postcode": "6008",
      "SA2_Name": "Subiaco - Shenton Park"
    },
	{
      "name": "SUBIACO PO",
      "postcode": "6904",
      "SA2_Name": "Subiaco - Shenton Park"
    },
	{
      "name": "TARCOOLA",
      "postcode": "6530",
      "SA2_Name": "Geraldton - South"
    },
	{
      "name": "TURKEY CREEK",
      "postcode": "6740",
      "SA2_Name": "Kununurra"
    },
	{
      "name": "UNIVERSITY OF WA",
      "postcode": "6009",
      "SA2_Name": "Nedlands - Dalkeith - Crawley"
    },
	{
      "name": "VANCOUVER PEN",
      "postcode": "6330",
      "SA2_Name": "Little Grove - Elleker"
    },
	{
      "name": "VIA BROOME",
      "postcode": "6725",
      "SA2_Name": "Roebuck"
    },
	{
      "name": "VIA MANYPEAKS",
      "postcode": "6328",
      "SA2_Name": "Albany Region"
    },
	{
      "name": "VIA TAMMIN",
      "postcode": "6409",
      "SA2_Name": "Cunderdin"
    },
	{
      "name": "VIC PARK",
      "postcode": "6101",
      "SA2_Name": "East Victoria Park - Carlisle"
    },
	{
      "name": "VICTORIA PARK E",
      "postcode": "6101",
      "SA2_Name": "East Victoria Park - Carlisle"
    },
	{
      "name": "VICTORIA PK EAST",
      "postcode": "6101",
      "SA2_Name": "East Victoria Park - Carlisle"
    },
	{
      "name": "VICTORIA PRK E PB",
      "postcode": "6981",
      "SA2_Name": "East Victoria Park - Carlisle"
    },
	{
      "name": "WALLISTON DC",
      "postcode": "6925",
      "SA2_Name": "Lesmurdie - Bickley - Carmel"
    },
	{
      "name": "WANGARA DC",
      "postcode": "6947",
      "SA2_Name": "Madeley - Darch - Landsdale"
    },
	{
      "name": "WARBURTON COMM",
      "postcode": "6431",
      "SA2_Name": "Leinster - Leonora"
    },
	{
      "name": "WARBURTON COMMUNITY",
      "postcode": "6431",
      "SA2_Name": "Leinster - Leonora"
    },
	{
      "name": "WARRAWARRUP",
      "postcode": "6220",
      "SA2_Name": "Harvey"
    },
	{
      "name": "WATERMAN",
      "postcode": "6020",
      "SA2_Name": "Trigg - North Beach - Watermans Bay"
    },
	{
      "name": "WELSHPOOL DC",
      "postcode": "6986",
      "SA2_Name": "Welshpool"
    },
	{
      "name": "WEST BUSSLETON",
      "postcode": "6280",
      "SA2_Name": "Busselton"
    },
	{
      "name": "WEST ISLAND",
      "postcode": "6799",
      "SA2_Name": "Cocos (Keeling) Islands"
    },
	{
      "name": "WESTFIELD",
      "postcode": "6112",
      "SA2_Name": "Mount Nasura - Mount Richon - Bedfordale"
    },
	{
      "name": "WILLAGEE CENTRAL",
      "postcode": "6156",
      "SA2_Name": "Willagee"
    },
	{
      "name": "WILLETON",
      "postcode": "6155",
      "SA2_Name": "Willetton"
    },
	{
      "name": "YOKINE SOUTH",
      "postcode": "6060",
      "SA2_Name": "Yokine - Coolbinia - Menora"
    },
	{
      "name": "YORKRAKINE",
      "postcode": "6409",
      "SA2_Name": "Cunderdin"
    },
	{
      "name": "YUNDERUP",
      "postcode": "6208",
      "SA2_Name": "Mandurah - East"
    },
	{
      "name": "X",
      "postcode": "",
      "SA2_Name": "No usual address (WA)"
    },
	{
      "name": "WARSHIP",
      "postcode": "",
      "SA2_Name": "No usual address (WA)"
    },
	{
      "name": "UNKNOWN",
      "postcode": "",
      "SA2_Name": "No usual address (WA)"
    },
	{
      "name": "-",
      "postcode": "-",
      "SA2_Name": "No usual address (WA)"
    }
  ]
}