{
  "date_updated": "1970-01-01T00:00:00Z",
  "data": [
    {
      "name": "ABBA RIVER",
      "postcode": "6280",
      "SA2_Name": "Busselton Region"
    },
    {
      "name": "ABBEY",
      "postcode": "6280",
      "SA2_Name": "Busselton"
    },
    {
      "name": "ACTON PARK",
      "postcode": "6280",
      "SA2_Name": "Busselton Region"
    },
    {
      "name": "ADAMSVALE",
      "postcode": "6375",
      "SA2_Name": "Brookton"
    },
    {
      "name": "AJANA",
      "postcode": "6532",
      "SA2_Name": "Northampton - Mullewa - Greenough"
    },
    {
      "name": "ALBANY",
      "postcode": "6330",
      "SA2_Name": "Albany"
    },
    {
      "name": "ALDERSYDE",
      "postcode": "6306",
      "SA2_Name": "Brookton"
    },
    {
      "name": "ALEXANDER HEIGHTS",
      "postcode": "6064",
      "SA2_Name": "Alexander Heights - Koondoola"
    },
    {
      "name": "ALEXANDRA BRIDGE",
      "postcode": "6288",
      "SA2_Name": "Augusta"
    },
    {
      "name": "ALFRED COVE",
      "postcode": "6154",
      "SA2_Name": "Melville"
    },
    {
      "name": "ALKIMOS",
      "postcode": "6038",
      "SA2_Name": "Alkimos - Eglinton"
    },
    {
      "name": "ALLANOOKA",
      "postcode": "6525",
      "SA2_Name": "Irwin"
    },
    {
      "name": "ALLANSON",
      "postcode": "6225",
      "SA2_Name": "Collie"
    },
    {
      "name": "ALMA",
      "postcode": "6535",
      "SA2_Name": "Northampton - Mullewa - Greenough"
    },
    {
      "name": "AMBANIA",
      "postcode": "6632",
      "SA2_Name": "Northampton - Mullewa - Greenough"
    },
    {
      "name": "AMBERGATE",
      "postcode": "6280",
      "SA2_Name": "Busselton"
    },
    {
      "name": "AMELUP",
      "postcode": "6338",
      "SA2_Name": "Gnowangerup"
    },
    {
      "name": "ANGELO RIVER",
      "postcode": "6642",
      "SA2_Name": "Meekatharra"
    },
    {
      "name": "ANKETELL",
      "postcode": "6167",
      "SA2_Name": "Casuarina - Wandi"
    },
    {
      "name": "ANNIEBROOK",
      "postcode": "6280",
      "SA2_Name": "Busselton Region"
    },
    {
      "name": "ANTONYMYRE",
      "postcode": "6714",
      "SA2_Name": "Roebourne"
    },
    {
      "name": "APPLECROSS",
      "postcode": "6153",
      "SA2_Name": "Applecross - Ardross"
    },
    {
      "name": "ARDATH",
      "postcode": "6419",
      "SA2_Name": "Merredin"
    },
    {
      "name": "ARDROSS",
      "postcode": "6153",
      "SA2_Name": "Applecross - Ardross"
    },
    {
      "name": "ARGYLE",
      "postcode": "6239",
      "SA2_Name": "Donnybrook - Balingup"
    },
    {
      "name": "ARMADALE",
      "postcode": "6112",
      "SA2_Name": "Armadale - Wungong - Brookdale"
    },
    {
      "name": "ARRINO",
      "postcode": "6519",
      "SA2_Name": "Morawa"
    },
    {
      "name": "ARROWSMITH",
      "postcode": "6525",
      "SA2_Name": "Irwin"
    },
    {
      "name": "ARROWSMITH EAST",
      "postcode": "6519",
      "SA2_Name": "Morawa"
    },
    {
      "name": "ARTHUR RIVER",
      "postcode": "6315",
      "SA2_Name": "Wagin"
    },
    {
      "name": "ASCOT",
      "postcode": "6104",
      "SA2_Name": "Belmont - Ascot - Redcliffe"
    },
    {
      "name": "ASHBY",
      "postcode": "6065",
      "SA2_Name": "Tapping - Ashby - Sinagra"
    },
    {
      "name": "ASHENDON",
      "postcode": "6111",
      "SA2_Name": "Ashendon - Lesley"
    },
    {
      "name": "ASHFIELD",
      "postcode": "6054",
      "SA2_Name": "Bassendean - Eden Hill - Ashfield"
    },
    {
      "name": "ATTADALE",
      "postcode": "6156",
      "SA2_Name": "Melville"
    },
    {
      "name": "ATWELL",
      "postcode": "6164",
      "SA2_Name": "Banjup"
    },
    {
      "name": "AUBIN GROVE",
      "postcode": "6164",
      "SA2_Name": "Banjup"
    },
    {
      "name": "AUGUSTA",
      "postcode": "6290",
      "SA2_Name": "Augusta"
    },
    {
      "name": "AUSTRALIND",
      "postcode": "6233",
      "SA2_Name": "Australind - Leschenault"
    },
    {
      "name": "AVELEY",
      "postcode": "6069",
      "SA2_Name": "Ellenbrook"
    },
    {
      "name": "AVON VALLEY NATIONAL PARK",
      "postcode": "6084",
      "SA2_Name": "Avon Valley National Park"
    },
    {
      "name": "BAANDEE",
      "postcode": "6412",
      "SA2_Name": "Cunderdin"
    },
    {
      "name": "BABAKIN",
      "postcode": "6428",
      "SA2_Name": "Merredin"
    },
    {
      "name": "BABBAGE ISLAND",
      "postcode": "6701",
      "SA2_Name": "Carnarvon"
    },
    {
      "name": "BADGEBUP",
      "postcode": "6317",
      "SA2_Name": "Katanning"
    },
    {
      "name": "BADGERIN ROCK",
      "postcode": "6475",
      "SA2_Name": "Dowerin"
    },
    {
      "name": "BADGIN",
      "postcode": "6302",
      "SA2_Name": "York - Beverley"
    },
    {
      "name": "BADGINGARRA",
      "postcode": "6521",
      "SA2_Name": "Gingin - Dandaragan"
    },
    {
      "name": "BADJALING",
      "postcode": "6383",
      "SA2_Name": "Cunderdin"
    },
    {
      "name": "BAILUP",
      "postcode": "6082",
      "SA2_Name": "Chidlow"
    },
    {
      "name": "BAKERS HILL",
      "postcode": "6562",
      "SA2_Name": "Northam"
    },
    {
      "name": "BALBARRUP",
      "postcode": "6258",
      "SA2_Name": "Manjimup"
    },
    {
      "name": "BALCATTA",
      "postcode": "6021",
      "SA2_Name": "Balcatta - Hamersley"
    },
    {
      "name": "BALDIVIS",
      "postcode": "6171",
      "SA2_Name": "Baldivis"
    },
    {
      "name": "BALGA",
      "postcode": "6061",
      "SA2_Name": "Balga - Mirrabooka"
    },
    {
      "name": "BALINGUP",
      "postcode": "6253",
      "SA2_Name": "Donnybrook - Balingup"
    },
    {
      "name": "BALKULING",
      "postcode": "6383",
      "SA2_Name": "Cunderdin"
    },
    {
      "name": "BALLA BALLA",
      "postcode": "6714",
      "SA2_Name": "Roebourne"
    },
    {
      "name": "BALLADONG",
      "postcode": "6302",
      "SA2_Name": "York - Beverley"
    },
    {
      "name": "BALLADONIA",
      "postcode": "6443",
      "SA2_Name": "Kambalda - Coolgardie - Norseman"
    },
    {
      "name": "BALLAJURA",
      "postcode": "6066",
      "SA2_Name": "Ballajura"
    },
    {
      "name": "BALLAYING",
      "postcode": "6315",
      "SA2_Name": "Wagin"
    },
    {
      "name": "BALLIDU",
      "postcode": "6606",
      "SA2_Name": "Dowerin"
    },
    {
      "name": "BALLY BALLY",
      "postcode": "6304",
      "SA2_Name": "York - Beverley"
    },
    {
      "name": "BAMBUN",
      "postcode": "6503",
      "SA2_Name": "Gingin - Dandaragan"
    },
    {
      "name": "BANDY CREEK",
      "postcode": "6450",
      "SA2_Name": "Esperance"
    },
    {
      "name": "BANDYA",
      "postcode": "6440",
      "SA2_Name": "Leinster - Leonora"
    },
    {
      "name": "BANJUP",
      "postcode": "6164",
      "SA2_Name": "Banjup"
    },
    {
      "name": "BANKSIA GROVE",
      "postcode": "6031",
      "SA2_Name": "Carramar"
    },
    {
      "name": "BANKSIADALE",
      "postcode": "6213",
      "SA2_Name": "Murray"
    },
    {
      "name": "BANNISTER",
      "postcode": "6390",
      "SA2_Name": "Murray"
    },
    {
      "name": "BARBALIN",
      "postcode": "6479",
      "SA2_Name": "Mukinbudin"
    },
    {
      "name": "BARBERTON",
      "postcode": "6510",
      "SA2_Name": "Moora"
    },
    {
      "name": "BARRABUP",
      "postcode": "6275",
      "SA2_Name": "Pemberton"
    },
    {
      "name": "BARRAGUP",
      "postcode": "6209",
      "SA2_Name": "Mandurah - East"
    },
    {
      "name": "BARROW ISLAND",
      "postcode": "6712",
      "SA2_Name": "Ashburton (WA)"
    },
    {
      "name": "BASKERVILLE",
      "postcode": "6056",
      "SA2_Name": "The Vines"
    },
    {
      "name": "BASSENDEAN",
      "postcode": "6054",
      "SA2_Name": "Bassendean - Eden Hill - Ashfield"
    },
    {
      "name": "BATEMAN",
      "postcode": "6150",
      "SA2_Name": "Bateman"
    },
    {
      "name": "BAUDIN",
      "postcode": "6284",
      "SA2_Name": "Augusta"
    },
    {
      "name": "BAYNTON",
      "postcode": "6714",
      "SA2_Name": "Karratha"
    },
    {
      "name": "BAYONET HEAD",
      "postcode": "6330",
      "SA2_Name": "Bayonet Head - Lower King"
    },
    {
      "name": "BAYSWATER",
      "postcode": "6053",
      "SA2_Name": "Bayswater - Embleton - Bedford"
    },
    {
      "name": "BEACHLANDS",
      "postcode": "6530",
      "SA2_Name": "Geraldton"
    },
    {
      "name": "BEACON",
      "postcode": "6472",
      "SA2_Name": "Mukinbudin"
    },
    {
      "name": "BEACONSFIELD",
      "postcode": "6162",
      "SA2_Name": "Fremantle - South"
    },
    {
      "name": "BEADELL",
      "postcode": "6440",
      "SA2_Name": "Leinster - Leonora"
    },
    {
      "name": "BEAUFORT RIVER",
      "postcode": "6394",
      "SA2_Name": "Katanning"
    },
    {
      "name": "BEAUMONT",
      "postcode": "6450",
      "SA2_Name": "Esperance Region"
    },
    {
      "name": "BECKENHAM",
      "postcode": "6107",
      "SA2_Name": "Beckenham - Kenwick - Langford"
    },
    {
      "name": "BEDFORD",
      "postcode": "6052",
      "SA2_Name": "Bayswater - Embleton - Bedford"
    },
    {
      "name": "BEDFORDALE",
      "postcode": "6112",
      "SA2_Name": "Mount Nasura - Mount Richon - Bedfordale"
    },
    {
      "name": "BEECHBORO",
      "postcode": "6063",
      "SA2_Name": "Beechboro"
    },
    {
      "name": "BEECHINA",
      "postcode": "6556",
      "SA2_Name": "Chidlow"
    },
    {
      "name": "BEEDELUP",
      "postcode": "6260",
      "SA2_Name": "Pemberton"
    },
    {
      "name": "BEELA",
      "postcode": "6224",
      "SA2_Name": "Harvey"
    },
    {
      "name": "BEELERUP",
      "postcode": "6239",
      "SA2_Name": "Donnybrook - Balingup"
    },
    {
      "name": "BEELIAR",
      "postcode": "6164",
      "SA2_Name": "Beeliar - Wattleup"
    },
    {
      "name": "BEENONG",
      "postcode": "6353",
      "SA2_Name": "Kulin"
    },
    {
      "name": "BEERMULLAH",
      "postcode": "6503",
      "SA2_Name": "Gingin - Dandaragan"
    },
    {
      "name": "BEJOORDING",
      "postcode": "6566",
      "SA2_Name": "Toodyay"
    },
    {
      "name": "BELDON",
      "postcode": "6027",
      "SA2_Name": "Craigie - Beldon"
    },
    {
      "name": "BELHUS",
      "postcode": "6069",
      "SA2_Name": "The Vines"
    },
    {
      "name": "BELLEVUE",
      "postcode": "6056",
      "SA2_Name": "Midland - Guildford"
    },
    {
      "name": "BELMONT",
      "postcode": "6104",
      "SA2_Name": "Belmont - Ascot - Redcliffe"
    },
    {
      "name": "BENCUBBIN",
      "postcode": "6477",
      "SA2_Name": "Mukinbudin"
    },
    {
      "name": "BENGER",
      "postcode": "6223",
      "SA2_Name": "Harvey"
    },
    {
      "name": "BENJABERRING",
      "postcode": "6463",
      "SA2_Name": "Dowerin"
    },
    {
      "name": "BENJINUP",
      "postcode": "6255",
      "SA2_Name": "Bridgetown - Boyup Brook"
    },
    {
      "name": "BENNETT SPRINGS",
      "postcode": "6063",
      "SA2_Name": "Beechboro"
    },
    {
      "name": "BENTLEY",
      "postcode": "6102",
      "SA2_Name": "Bentley - Wilson - St James"
    },
    {
      "name": "BERESFORD",
      "postcode": "6530",
      "SA2_Name": "Geraldton"
    },
    {
      "name": "BERKSHIRE VALLEY",
      "postcode": "6510",
      "SA2_Name": "Moora"
    },
    {
      "name": "BERNIER ISLAND",
      "postcode": "6701",
      "SA2_Name": "Exmouth"
    },
    {
      "name": "BERTRAM",
      "postcode": "6167",
      "SA2_Name": "Bertram - Wellard (West)"
    },
    {
      "name": "BEVERLEY",
      "postcode": "6304",
      "SA2_Name": "York - Beverley"
    },
    {
      "name": "BIBRA LAKE",
      "postcode": "6163",
      "SA2_Name": "South Lake - Cockburn Central"
    },
    {
      "name": "BICKLEY",
      "postcode": "6076",
      "SA2_Name": "Lesmurdie - Bickley - Carmel"
    },
    {
      "name": "BICTON",
      "postcode": "6157",
      "SA2_Name": "Bicton - Palmyra"
    },
    {
      "name": "BIDDELIA",
      "postcode": "6260",
      "SA2_Name": "Pemberton"
    },
    {
      "name": "BIG GROVE",
      "postcode": "6330",
      "SA2_Name": "Little Grove - Elleker"
    },
    {
      "name": "BILBARIN",
      "postcode": "6375",
      "SA2_Name": "Brookton"
    },
    {
      "name": "BILINGURR",
      "postcode": "6725",
      "SA2_Name": "Broome"
    },
    {
      "name": "BIMBIJY",
      "postcode": "6472",
      "SA2_Name": "Mukinbudin"
    },
    {
      "name": "BINDI BINDI",
      "postcode": "6574",
      "SA2_Name": "Moora"
    },
    {
      "name": "BINDOON",
      "postcode": "6502",
      "SA2_Name": "Chittering"
    },
    {
      "name": "BINDOON TRAINING AREA",
      "postcode": "6502",
      "SA2_Name": "Toodyay"
    },
    {
      "name": "BINDULI",
      "postcode": "6430",
      "SA2_Name": "Kambalda - Coolgardie - Norseman"
    },
    {
      "name": "BINNINGUP",
      "postcode": "6233",
      "SA2_Name": "Harvey"
    },
    {
      "name": "BINNU",
      "postcode": "6532",
      "SA2_Name": "Northampton - Mullewa - Greenough"
    },
    {
      "name": "BIRCHMONT",
      "postcode": "6214",
      "SA2_Name": "Pinjarra"
    },
    {
      "name": "BLUFF POINT",
      "postcode": "6530",
      "SA2_Name": "Geraldton"
    },
    {
      "name": "BLYTHEWOOD",
      "postcode": "6208",
      "SA2_Name": "Pinjarra"
    },
    {
      "name": "BOALLIA",
      "postcode": "6280",
      "SA2_Name": "Busselton Region"
    },
    {
      "name": "BOBALONG",
      "postcode": "6320",
      "SA2_Name": "Kojonup"
    },
    {
      "name": "BODALLIN",
      "postcode": "6424",
      "SA2_Name": "Mukinbudin"
    },
    {
      "name": "BODDINGTON",
      "postcode": "6390",
      "SA2_Name": "Murray"
    },
    {
      "name": "BOILUP",
      "postcode": "6394",
      "SA2_Name": "Kojonup"
    },
    {
      "name": "BOKAL",
      "postcode": "6392",
      "SA2_Name": "Wagin"
    },
    {
      "name": "BOLGART",
      "postcode": "6568",
      "SA2_Name": "Moora"
    },
    {
      "name": "BONNIE ROCK",
      "postcode": "6479",
      "SA2_Name": "Mukinbudin"
    },
    {
      "name": "BONNIEFIELD",
      "postcode": "6525",
      "SA2_Name": "Irwin"
    },
    {
      "name": "BOODARIE",
      "postcode": "6722",
      "SA2_Name": "East Pilbara"
    },
    {
      "name": "BOODAROCKIN",
      "postcode": "6423",
      "SA2_Name": "Mukinbudin"
    },
    {
      "name": "BOOKARA",
      "postcode": "6525",
      "SA2_Name": "Irwin"
    },
    {
      "name": "BOONANARRING",
      "postcode": "6503",
      "SA2_Name": "Gingin - Dandaragan"
    },
    {
      "name": "BOORABBIN",
      "postcode": "6429",
      "SA2_Name": "Kambalda - Coolgardie - Norseman"
    },
    {
      "name": "BOORAGOON",
      "postcode": "6154",
      "SA2_Name": "Booragoon"
    },
    {
      "name": "BOORALAMING",
      "postcode": "6475",
      "SA2_Name": "Dowerin"
    },
    {
      "name": "BOORARA",
      "postcode": "6431",
      "SA2_Name": "Kambalda - Coolgardie - Norseman"
    },
    {
      "name": "BOORARA BROOK",
      "postcode": "6262",
      "SA2_Name": "Pemberton"
    },
    {
      "name": "BOOTENAL",
      "postcode": "6532",
      "SA2_Name": "Northampton - Mullewa - Greenough"
    },
    {
      "name": "BOOTHENDARRA",
      "postcode": "6521",
      "SA2_Name": "Gingin - Dandaragan"
    },
    {
      "name": "BORANUP",
      "postcode": "6286",
      "SA2_Name": "Augusta"
    },
    {
      "name": "BORDEN",
      "postcode": "6338",
      "SA2_Name": "Gnowangerup"
    },
    {
      "name": "BORDERDALE",
      "postcode": "6320",
      "SA2_Name": "Kojonup"
    },
    {
      "name": "BORNHOLM",
      "postcode": "6330",
      "SA2_Name": "Albany Region"
    },
    {
      "name": "BOSCABEL",
      "postcode": "6394",
      "SA2_Name": "Kojonup"
    },
    {
      "name": "BOULDER",
      "postcode": "6432",
      "SA2_Name": "Boulder"
    },
    {
      "name": "BOUNDAIN",
      "postcode": "6312",
      "SA2_Name": "Wagin"
    },
    {
      "name": "BOUVARD",
      "postcode": "6211",
      "SA2_Name": "Dawesville - Bouvard"
    },
    {
      "name": "BOVELL",
      "postcode": "6280",
      "SA2_Name": "Busselton"
    },
    {
      "name": "BOW BRIDGE",
      "postcode": "6333",
      "SA2_Name": "Denmark"
    },
    {
      "name": "BOWELLING",
      "postcode": "6225",
      "SA2_Name": "Wagin"
    },
    {
      "name": "BOWES",
      "postcode": "6535",
      "SA2_Name": "Northampton - Mullewa - Greenough"
    },
    {
      "name": "BOWGADA",
      "postcode": "6623",
      "SA2_Name": "Morawa"
    },
    {
      "name": "BOXWOOD HILL",
      "postcode": "6338",
      "SA2_Name": "Gnowangerup"
    },
    {
      "name": "BOYA",
      "postcode": "6056",
      "SA2_Name": "Helena Valley - Koongamia"
    },
    {
      "name": "BOYANUP",
      "postcode": "6237",
      "SA2_Name": "Capel"
    },
    {
      "name": "BOYATUP",
      "postcode": "6450",
      "SA2_Name": "Esperance Region"
    },
    {
      "name": "BOYERINE",
      "postcode": "6316",
      "SA2_Name": "Katanning"
    },
    {
      "name": "BOYUP BROOK",
      "postcode": "6244",
      "SA2_Name": "Bridgetown - Boyup Brook"
    },
    {
      "name": "BRABHAM",
      "postcode": "6055",
      "SA2_Name": "Ellenbrook"
    },
    {
      "name": "BRAMLEY",
      "postcode": "6285",
      "SA2_Name": "Augusta"
    },
    {
      "name": "BRAZIER",
      "postcode": "6251",
      "SA2_Name": "Donnybrook - Balingup"
    },
    {
      "name": "BREERA",
      "postcode": "6503",
      "SA2_Name": "Gingin - Dandaragan"
    },
    {
      "name": "BREMER BAY",
      "postcode": "6338",
      "SA2_Name": "Gnowangerup"
    },
    {
      "name": "BRENTWOOD",
      "postcode": "6153",
      "SA2_Name": "Booragoon"
    },
    {
      "name": "BRETON BAY",
      "postcode": "6043",
      "SA2_Name": "Gingin - Dandaragan"
    },
    {
      "name": "BRIDGETOWN",
      "postcode": "6255",
      "SA2_Name": "Bridgetown - Boyup Brook"
    },
    {
      "name": "BRIGADOON",
      "postcode": "6069",
      "SA2_Name": "The Vines"
    },
    {
      "name": "BRINGO",
      "postcode": "6532",
      "SA2_Name": "Northampton - Mullewa - Greenough"
    },
    {
      "name": "BROADWATER",
      "postcode": "6280",
      "SA2_Name": "Busselton"
    },
    {
      "name": "BROADWOOD",
      "postcode": "6430",
      "SA2_Name": "Kalgoorlie"
    },
    {
      "name": "BROCKMAN",
      "postcode": "6701",
      "SA2_Name": "Carnarvon"
    },
    {
      "name": "BROKE",
      "postcode": "6398",
      "SA2_Name": "Pemberton"
    },
    {
      "name": "BROOKDALE",
      "postcode": "6112",
      "SA2_Name": "Armadale - Wungong - Brookdale"
    },
    {
      "name": "BROOKHAMPTON",
      "postcode": "6239",
      "SA2_Name": "Donnybrook - Balingup"
    },
    {
      "name": "BROOKTON",
      "postcode": "6306",
      "SA2_Name": "Brookton"
    },
    {
      "name": "BROOME",
      "postcode": "6725",
      "SA2_Name": "Broome"
    },
    {
      "name": "BROOMEHILL EAST",
      "postcode": "6318",
      "SA2_Name": "Kojonup"
    },
    {
      "name": "BROOMEHILL VILLAGE",
      "postcode": "6318",
      "SA2_Name": "Kojonup"
    },
    {
      "name": "BROOMEHILL WEST",
      "postcode": "6318",
      "SA2_Name": "Kojonup"
    },
    {
      "name": "BROWN HILL",
      "postcode": "6431",
      "SA2_Name": "Trafalgar (WA)"
    },
    {
      "name": "BROWN RANGE",
      "postcode": "6701",
      "SA2_Name": "Carnarvon"
    },
    {
      "name": "BRUCE ROCK",
      "postcode": "6418",
      "SA2_Name": "Merredin"
    },
    {
      "name": "BRUNSWICK",
      "postcode": "6224",
      "SA2_Name": "Harvey"
    },
    {
      "name": "BUCKINGHAM",
      "postcode": "6225",
      "SA2_Name": "Collie"
    },
    {
      "name": "BUCKLAND",
      "postcode": "6401",
      "SA2_Name": "Northam"
    },
    {
      "name": "BULGARRA",
      "postcode": "6714",
      "SA2_Name": "Karratha"
    },
    {
      "name": "BULL CREEK",
      "postcode": "6149",
      "SA2_Name": "Bull Creek"
    },
    {
      "name": "BULLABULLING",
      "postcode": "6429",
      "SA2_Name": "Kambalda - Coolgardie - Norseman"
    },
    {
      "name": "BULLARING",
      "postcode": "6373",
      "SA2_Name": "Brookton"
    },
    {
      "name": "BULLER",
      "postcode": "6532",
      "SA2_Name": "Geraldton - North"
    },
    {
      "name": "BULLFINCH",
      "postcode": "6484",
      "SA2_Name": "Mukinbudin"
    },
    {
      "name": "BULLOCK HILLS",
      "postcode": "6317",
      "SA2_Name": "Kulin"
    },
    {
      "name": "BULLSBROOK",
      "postcode": "6084",
      "SA2_Name": "Bullsbrook"
    },
    {
      "name": "BULONG",
      "postcode": "6431",
      "SA2_Name": "Kambalda - Coolgardie - Norseman"
    },
    {
      "name": "BULYEE",
      "postcode": "6306",
      "SA2_Name": "Brookton"
    },
    {
      "name": "BUNBURY",
      "postcode": "6230",
      "SA2_Name": "South Bunbury - Bunbury"
    },
    {
      "name": "BUNDANOON",
      "postcode": "6522",
      "SA2_Name": "Morawa"
    },
    {
      "name": "BUNICHE",
      "postcode": "6353",
      "SA2_Name": "Kulin"
    },
    {
      "name": "BUNJIL",
      "postcode": "6623",
      "SA2_Name": "Morawa"
    },
    {
      "name": "BUNTINE",
      "postcode": "6613",
      "SA2_Name": "Moora"
    },
    {
      "name": "BURAKIN",
      "postcode": "6467",
      "SA2_Name": "Dowerin"
    },
    {
      "name": "BURAMINYA",
      "postcode": "6452",
      "SA2_Name": "Esperance Region"
    },
    {
      "name": "BUREKUP",
      "postcode": "6227",
      "SA2_Name": "Dardanup"
    },
    {
      "name": "BURGES",
      "postcode": "6302",
      "SA2_Name": "York - Beverley"
    },
    {
      "name": "BURLONG",
      "postcode": "6401",
      "SA2_Name": "Northam"
    },
    {
      "name": "BURMA ROAD",
      "postcode": "6532",
      "SA2_Name": "Northampton - Mullewa - Greenough"
    },
    {
      "name": "BURNS BEACH",
      "postcode": "6028",
      "SA2_Name": "Iluka - Burns Beach"
    },
    {
      "name": "BURNSIDE",
      "postcode": "6285",
      "SA2_Name": "Margaret River"
    },
    {
      "name": "BURRACOPPIN",
      "postcode": "6421",
      "SA2_Name": "Merredin"
    },
    {
      "name": "BURRAN ROCK",
      "postcode": "6490",
      "SA2_Name": "Mukinbudin"
    },
    {
      "name": "BURRUP",
      "postcode": "6714",
      "SA2_Name": "Roebourne"
    },
    {
      "name": "BURSWOOD",
      "postcode": "6100",
      "SA2_Name": "Victoria Park - Lathlain - Burswood"
    },
    {
      "name": "BUSHMEAD",
      "postcode": "6055",
      "SA2_Name": "Hazelmere - Guildford"
    },
    {
      "name": "BUSSELTON",
      "postcode": "6280",
      "SA2_Name": "Busselton"
    },
    {
      "name": "BUTLER",
      "postcode": "6036",
      "SA2_Name": "Butler - Merriwa - Ridgewood"
    },
    {
      "name": "BYFORD",
      "postcode": "6122",
      "SA2_Name": "Byford"
    },
    {
      "name": "CABLE BEACH",
      "postcode": "6726",
      "SA2_Name": "Broome"
    },
    {
      "name": "CADOUX",
      "postcode": "6466",
      "SA2_Name": "Dowerin"
    },
    {
      "name": "CAIGUNA",
      "postcode": "6443",
      "SA2_Name": "Kambalda - Coolgardie - Norseman"
    },
    {
      "name": "CALINGIRI",
      "postcode": "6569",
      "SA2_Name": "Moora"
    },
    {
      "name": "CALISTA",
      "postcode": "6167",
      "SA2_Name": "Calista"
    },
    {
      "name": "CALJIE",
      "postcode": "6302",
      "SA2_Name": "York - Beverley"
    },
    {
      "name": "CALLCUP",
      "postcode": "6260",
      "SA2_Name": "Pemberton"
    },
    {
      "name": "CAMBALLIN",
      "postcode": "6728",
      "SA2_Name": "Derby - West Kimberley"
    },
    {
      "name": "CAMBRIDGE GULF",
      "postcode": "6743",
      "SA2_Name": "Kununurra"
    },
    {
      "name": "CAMILLO",
      "postcode": "6111",
      "SA2_Name": "Camillo - Champion Lakes"
    },
    {
      "name": "CANCANNING",
      "postcode": "6315",
      "SA2_Name": "Wagin"
    },
    {
      "name": "CANE",
      "postcode": "6710",
      "SA2_Name": "Ashburton (WA)"
    },
    {
      "name": "CANNA",
      "postcode": "6627",
      "SA2_Name": "Morawa"
    },
    {
      "name": "CANNING MILLS",
      "postcode": "6111",
      "SA2_Name": "Lesmurdie - Bickley - Carmel"
    },
    {
      "name": "CANNING VALE",
      "postcode": "6155",
      "SA2_Name": "Canning Vale - East"
    },
    {
      "name": "CANNINGTON",
      "postcode": "6107",
      "SA2_Name": "Cannington - Queens Park"
    },
    {
      "name": "CAPE ARID",
      "postcode": "6452",
      "SA2_Name": "Esperance Region"
    },
    {
      "name": "CAPE BURNEY",
      "postcode": "6532",
      "SA2_Name": "Geraldton - South"
    },
    {
      "name": "CAPE LE GRAND",
      "postcode": "6450",
      "SA2_Name": "Esperance Region"
    },
    {
      "name": "CAPE RANGE NATIONAL PARK",
      "postcode": "6707",
      "SA2_Name": "Exmouth"
    },
    {
      "name": "CAPEL",
      "postcode": "6271",
      "SA2_Name": "Capel"
    },
    {
      "name": "CAPEL RIVER",
      "postcode": "6271",
      "SA2_Name": "Capel"
    },
    {
      "name": "CAPRICORN",
      "postcode": "6642",
      "SA2_Name": "Meekatharra"
    },
    {
      "name": "CARABAN",
      "postcode": "6041",
      "SA2_Name": "Gingin - Dandaragan"
    },
    {
      "name": "CARABOODA",
      "postcode": "6033",
      "SA2_Name": "Carabooda - Pinjar"
    },
    {
      "name": "CARANI",
      "postcode": "6566",
      "SA2_Name": "Moora"
    },
    {
      "name": "CARBLA",
      "postcode": "6701",
      "SA2_Name": "Exmouth"
    },
    {
      "name": "CARBUNUP RIVER",
      "postcode": "6280",
      "SA2_Name": "Busselton Region"
    },
    {
      "name": "CARDIFF",
      "postcode": "6225",
      "SA2_Name": "Collie"
    },
    {
      "name": "CARDUP",
      "postcode": "6122",
      "SA2_Name": "Mundijong"
    },
    {
      "name": "CAREY PARK",
      "postcode": "6230",
      "SA2_Name": "College Grove - Carey Park"
    },
    {
      "name": "CARINE",
      "postcode": "6020",
      "SA2_Name": "Karrinyup - Gwelup - Carine"
    },
    {
      "name": "CARLISLE",
      "postcode": "6101",
      "SA2_Name": "East Victoria Park - Carlisle"
    },
    {
      "name": "CARLOTTA",
      "postcode": "6275",
      "SA2_Name": "Pemberton"
    },
    {
      "name": "CARMEL",
      "postcode": "6076",
      "SA2_Name": "Lesmurdie - Bickley - Carmel"
    },
    {
      "name": "CARNAMAH",
      "postcode": "6517",
      "SA2_Name": "Morawa"
    },
    {
      "name": "CARNARVON",
      "postcode": "6701",
      "SA2_Name": "Carnarvon"
    },
    {
      "name": "CARRABIN",
      "postcode": "6423",
      "SA2_Name": "Mukinbudin"
    },
    {
      "name": "CARRAMAR",
      "postcode": "6031",
      "SA2_Name": "Carramar"
    },
    {
      "name": "CARRARANG",
      "postcode": "6532",
      "SA2_Name": "Exmouth"
    },
    {
      "name": "CARROLUP",
      "postcode": "6317",
      "SA2_Name": "Katanning"
    },
    {
      "name": "CARTMETICUP",
      "postcode": "6316",
      "SA2_Name": "Katanning"
    },
    {
      "name": "CASCADE",
      "postcode": "6450",
      "SA2_Name": "Esperance Region"
    },
    {
      "name": "CASTLETOWN",
      "postcode": "6450",
      "SA2_Name": "Esperance"
    },
    {
      "name": "CASUARINA",
      "postcode": "6167",
      "SA2_Name": "Casuarina - Wandi"
    },
    {
      "name": "CATABY",
      "postcode": "6507",
      "SA2_Name": "Gingin - Dandaragan"
    },
    {
      "name": "CATTERICK",
      "postcode": "6255",
      "SA2_Name": "Bridgetown - Boyup Brook"
    },
    {
      "name": "CAVERSHAM",
      "postcode": "6055",
      "SA2_Name": "Lockridge - Kiara"
    },
    {
      "name": "CENTENNIAL PARK",
      "postcode": "6330",
      "SA2_Name": "Albany"
    },
    {
      "name": "CERVANTES",
      "postcode": "6511",
      "SA2_Name": "Gingin - Dandaragan"
    },
    {
      "name": "CHADWICK",
      "postcode": "6450",
      "SA2_Name": "Esperance"
    },
    {
      "name": "CHAMPION LAKES",
      "postcode": "6111",
      "SA2_Name": "Camillo - Champion Lakes"
    },
    {
      "name": "CHANDLER",
      "postcode": "6490",
      "SA2_Name": "Mukinbudin"
    },
    {
      "name": "CHANGERUP",
      "postcode": "6394",
      "SA2_Name": "Kojonup"
    },
    {
      "name": "CHANNYBEARUP",
      "postcode": "6260",
      "SA2_Name": "Pemberton"
    },
    {
      "name": "CHAPMAN HILL",
      "postcode": "6280",
      "SA2_Name": "Busselton Region"
    },
    {
      "name": "CHARLEY CREEK",
      "postcode": "6239",
      "SA2_Name": "Donnybrook - Balingup"
    },
    {
      "name": "CHERRY TREE POOL",
      "postcode": "6395",
      "SA2_Name": "Kojonup"
    },
    {
      "name": "CHEYNES",
      "postcode": "6328",
      "SA2_Name": "Albany Region"
    },
    {
      "name": "CHICHESTER",
      "postcode": "6751",
      "SA2_Name": "Ashburton (WA)"
    },
    {
      "name": "CHIDLOW",
      "postcode": "6556",
      "SA2_Name": "Chidlow"
    },
    {
      "name": "CHITTERING",
      "postcode": "6084",
      "SA2_Name": "Chittering"
    },
    {
      "name": "CHOWERUP",
      "postcode": "6244",
      "SA2_Name": "Bridgetown - Boyup Brook"
    },
    {
      "name": "CHURCHLANDS",
      "postcode": "6018",
      "SA2_Name": "Wembley Downs - Churchlands - Woodlands"
    },
    {
      "name": "CITY BEACH",
      "postcode": "6015",
      "SA2_Name": "City Beach"
    },
    {
      "name": "CLACKLINE",
      "postcode": "6564",
      "SA2_Name": "Northam"
    },
    {
      "name": "CLAREMONT",
      "postcode": "6010",
      "SA2_Name": "Claremont (WA)"
    },
    {
      "name": "CLARKSON",
      "postcode": "6030",
      "SA2_Name": "Clarkson"
    },
    {
      "name": "CLEARY",
      "postcode": "6472",
      "SA2_Name": "Mukinbudin"
    },
    {
      "name": "CLEAVERVILLE",
      "postcode": "6714",
      "SA2_Name": "Roebourne"
    },
    {
      "name": "CLIFTON",
      "postcode": "6211",
      "SA2_Name": "Dawesville - Bouvard"
    },
    {
      "name": "CLOVERDALE",
      "postcode": "6105",
      "SA2_Name": "Rivervale - Kewdale - Cloverdale"
    },
    {
      "name": "COBLININE",
      "postcode": "6317",
      "SA2_Name": "Katanning"
    },
    {
      "name": "COBURN",
      "postcode": "6532",
      "SA2_Name": "Exmouth"
    },
    {
      "name": "COCKBURN CENTRAL",
      "postcode": "6164",
      "SA2_Name": "South Lake - Cockburn Central"
    },
    {
      "name": "COCKLEBIDDY",
      "postcode": "6443",
      "SA2_Name": "Kambalda - Coolgardie - Norseman"
    },
    {
      "name": "CODJATOTINE",
      "postcode": "6308",
      "SA2_Name": "Brookton"
    },
    {
      "name": "COLD HARBOUR",
      "postcode": "6302",
      "SA2_Name": "York - Beverley"
    },
    {
      "name": "COLLANILLING",
      "postcode": "6315",
      "SA2_Name": "Wagin"
    },
    {
      "name": "COLLEGE GROVE",
      "postcode": "6230",
      "SA2_Name": "College Grove - Carey Park"
    },
    {
      "name": "COLLIE",
      "postcode": "6225",
      "SA2_Name": "Collie"
    },
    {
      "name": "COLLIE BURN",
      "postcode": "6225",
      "SA2_Name": "Collie"
    },
    {
      "name": "COLLINGWOOD HEIGHTS",
      "postcode": "6330",
      "SA2_Name": "Albany"
    },
    {
      "name": "COLLINGWOOD PARK",
      "postcode": "6330",
      "SA2_Name": "Albany"
    },
    {
      "name": "COLLINS",
      "postcode": "6260",
      "SA2_Name": "Pemberton"
    },
    {
      "name": "COMMODINE",
      "postcode": "6311",
      "SA2_Name": "Wagin"
    },
    {
      "name": "COMO",
      "postcode": "6152",
      "SA2_Name": "Como"
    },
    {
      "name": "CONDINGUP",
      "postcode": "6450",
      "SA2_Name": "Esperance Region"
    },
    {
      "name": "CONNOLLY",
      "postcode": "6027",
      "SA2_Name": "Heathridge - Connolly"
    },
    {
      "name": "CONTINE",
      "postcode": "6311",
      "SA2_Name": "Wagin"
    },
    {
      "name": "COODANUP",
      "postcode": "6210",
      "SA2_Name": "Mandurah - South"
    },
    {
      "name": "COOGEE",
      "postcode": "6166",
      "SA2_Name": "Coogee"
    },
    {
      "name": "COOKERNUP",
      "postcode": "6220",
      "SA2_Name": "Harvey"
    },
    {
      "name": "COOLADAR HILL",
      "postcode": "6638",
      "SA2_Name": "Meekatharra"
    },
    {
      "name": "COOLBELLUP",
      "postcode": "6163",
      "SA2_Name": "Coolbellup"
    },
    {
      "name": "COOLBINIA",
      "postcode": "6050",
      "SA2_Name": "Yokine - Coolbinia - Menora"
    },
    {
      "name": "COOLCALALAYA",
      "postcode": "6532",
      "SA2_Name": "Northampton - Mullewa - Greenough"
    },
    {
      "name": "COOLGARDIE",
      "postcode": "6429",
      "SA2_Name": "Kambalda - Coolgardie - Norseman"
    },
    {
      "name": "COOLJARLOO",
      "postcode": "6507",
      "SA2_Name": "Gingin - Dandaragan"
    },
    {
      "name": "COOLOONGUP",
      "postcode": "6168",
      "SA2_Name": "Cooloongup"
    },
    {
      "name": "COOLUP",
      "postcode": "6214",
      "SA2_Name": "Pinjarra"
    },
    {
      "name": "COOMALBIDGUP",
      "postcode": "6450",
      "SA2_Name": "Esperance Region"
    },
    {
      "name": "COOMBERDALE",
      "postcode": "6512",
      "SA2_Name": "Moora"
    },
    {
      "name": "COONABIDGEE",
      "postcode": "6503",
      "SA2_Name": "Gingin - Dandaragan"
    },
    {
      "name": "COONDLE",
      "postcode": "6566",
      "SA2_Name": "Toodyay"
    },
    {
      "name": "COOROW",
      "postcode": "6515",
      "SA2_Name": "Morawa"
    },
    {
      "name": "COOYA POOYA",
      "postcode": "6714",
      "SA2_Name": "Roebourne"
    },
    {
      "name": "COPLEY",
      "postcode": "6562",
      "SA2_Name": "Northam"
    },
    {
      "name": "CORAL BAY",
      "postcode": "6701",
      "SA2_Name": "Exmouth"
    },
    {
      "name": "CORINTHIA",
      "postcode": "6426",
      "SA2_Name": "Mukinbudin"
    },
    {
      "name": "CORRIGIN",
      "postcode": "6375",
      "SA2_Name": "Brookton"
    },
    {
      "name": "COSMO NEWBERY",
      "postcode": "6440",
      "SA2_Name": "Leinster - Leonora"
    },
    {
      "name": "COSSACK",
      "postcode": "6720",
      "SA2_Name": "Roebourne"
    },
    {
      "name": "COTTESLOE",
      "postcode": "6011",
      "SA2_Name": "Cottesloe"
    },
    {
      "name": "COURTENAY",
      "postcode": "6288",
      "SA2_Name": "Augusta"
    },
    {
      "name": "COWALELLUP",
      "postcode": "6336",
      "SA2_Name": "Gnowangerup"
    },
    {
      "name": "COWALLA",
      "postcode": "6503",
      "SA2_Name": "Gingin - Dandaragan"
    },
    {
      "name": "COWARAMUP",
      "postcode": "6284",
      "SA2_Name": "Augusta"
    },
    {
      "name": "COWCOWING",
      "postcode": "6485",
      "SA2_Name": "Dowerin"
    },
    {
      "name": "COYRECUP",
      "postcode": "6317",
      "SA2_Name": "Katanning"
    },
    {
      "name": "CRAIGIE",
      "postcode": "6025",
      "SA2_Name": "Craigie - Beldon"
    },
    {
      "name": "CRAMPHORNE",
      "postcode": "6420",
      "SA2_Name": "Merredin"
    },
    {
      "name": "CRANBROOK",
      "postcode": "6321",
      "SA2_Name": "Kojonup"
    },
    {
      "name": "CRAWLEY",
      "postcode": "6009",
      "SA2_Name": "Nedlands - Dalkeith - Crawley"
    },
    {
      "name": "CROOKED BROOK",
      "postcode": "6236",
      "SA2_Name": "Dardanup"
    },
    {
      "name": "CROSSMAN",
      "postcode": "6390",
      "SA2_Name": "Murray"
    },
    {
      "name": "CROWEA",
      "postcode": "6262",
      "SA2_Name": "Pemberton"
    },
    {
      "name": "CUBALLING",
      "postcode": "6311",
      "SA2_Name": "Wagin"
    },
    {
      "name": "CUBBINE",
      "postcode": "6383",
      "SA2_Name": "Cunderdin"
    },
    {
      "name": "CUE",
      "postcode": "6640",
      "SA2_Name": "Meekatharra"
    },
    {
      "name": "CULHAM",
      "postcode": "6566",
      "SA2_Name": "Toodyay"
    },
    {
      "name": "CULLACABARDEE",
      "postcode": "6067",
      "SA2_Name": "Ballajura"
    },
    {
      "name": "CULLALLA",
      "postcode": "6503",
      "SA2_Name": "Gingin - Dandaragan"
    },
    {
      "name": "CUNDEELEE",
      "postcode": "6434",
      "SA2_Name": "Kambalda - Coolgardie - Norseman"
    },
    {
      "name": "CUNDERDIN",
      "postcode": "6407",
      "SA2_Name": "Cunderdin"
    },
    {
      "name": "CUNDINUP",
      "postcode": "6275",
      "SA2_Name": "Pemberton"
    },
    {
      "name": "CUNJARDINE",
      "postcode": "6401",
      "SA2_Name": "Dowerin"
    },
    {
      "name": "CURRAMBINE",
      "postcode": "6028",
      "SA2_Name": "Currambine - Kinross"
    },
    {
      "name": "CUTHBERT",
      "postcode": "6330",
      "SA2_Name": "Little Grove - Elleker"
    },
    {
      "name": "DAADENNING CREEK",
      "postcode": "6410",
      "SA2_Name": "Cunderdin"
    },
    {
      "name": "DAGGAR HILLS",
      "postcode": "6638",
      "SA2_Name": "Meekatharra"
    },
    {
      "name": "DAGLISH",
      "postcode": "6008",
      "SA2_Name": "Subiaco - Shenton Park"
    },
    {
      "name": "DALE",
      "postcode": "6304",
      "SA2_Name": "York - Beverley"
    },
    {
      "name": "DALIAK",
      "postcode": "6302",
      "SA2_Name": "York - Beverley"
    },
    {
      "name": "DALKEITH",
      "postcode": "6009",
      "SA2_Name": "Nedlands - Dalkeith - Crawley"
    },
    {
      "name": "DALWALLINU",
      "postcode": "6609",
      "SA2_Name": "Moora"
    },
    {
      "name": "DALYELLUP",
      "postcode": "6230",
      "SA2_Name": "Dalyellup"
    },
    {
      "name": "DALYUP",
      "postcode": "6450",
      "SA2_Name": "Esperance Region"
    },
    {
      "name": "DAMPIER",
      "postcode": "6713",
      "SA2_Name": "Roebourne"
    },
    {
      "name": "DAMPIER ARCHIPELAGO",
      "postcode": "6713",
      "SA2_Name": "Roebourne"
    },
    {
      "name": "DAMPIER PENINSULA",
      "postcode": "6725",
      "SA2_Name": "Roebuck"
    },
    {
      "name": "DANDANNING",
      "postcode": "6479",
      "SA2_Name": "Mukinbudin"
    },
    {
      "name": "DANDARAGAN",
      "postcode": "6507",
      "SA2_Name": "Gingin - Dandaragan"
    },
    {
      "name": "DANGIN",
      "postcode": "6383",
      "SA2_Name": "Cunderdin"
    },
    {
      "name": "DARCH",
      "postcode": "6065",
      "SA2_Name": "Madeley - Darch - Landsdale"
    },
    {
      "name": "DARDADINE",
      "postcode": "6392",
      "SA2_Name": "Wagin"
    },
    {
      "name": "DARDANUP",
      "postcode": "6236",
      "SA2_Name": "Dardanup"
    },
    {
      "name": "DARDANUP WEST",
      "postcode": "6236",
      "SA2_Name": "Dardanup"
    },
    {
      "name": "DARKAN",
      "postcode": "6392",
      "SA2_Name": "Wagin"
    },
    {
      "name": "DARLING DOWNS",
      "postcode": "6122",
      "SA2_Name": "Byford"
    },
    {
      "name": "DARLINGTON",
      "postcode": "6070",
      "SA2_Name": "Glen Forrest - Darlington"
    },
    {
      "name": "DARRADUP",
      "postcode": "6275",
      "SA2_Name": "Pemberton"
    },
    {
      "name": "DARTMOOR",
      "postcode": "6532",
      "SA2_Name": "Northampton - Mullewa - Greenough"
    },
    {
      "name": "DARTNALL",
      "postcode": "6320",
      "SA2_Name": "Kojonup"
    },
    {
      "name": "DATATINE",
      "postcode": "6317",
      "SA2_Name": "Kulin"
    },
    {
      "name": "DAVENPORT",
      "postcode": "6230",
      "SA2_Name": "Davenport"
    },
    {
      "name": "DAWESVILLE",
      "postcode": "6211",
      "SA2_Name": "Dawesville - Bouvard"
    },
    {
      "name": "DAYTON",
      "postcode": "6055",
      "SA2_Name": "Beechboro"
    },
    {
      "name": "DE GREY",
      "postcode": "6722",
      "SA2_Name": "East Pilbara"
    },
    {
      "name": "DEANMILL",
      "postcode": "6258",
      "SA2_Name": "Manjimup"
    },
    {
      "name": "DEEPDALE",
      "postcode": "6532",
      "SA2_Name": "Geraldton - East"
    },
    {
      "name": "DEEPDENE",
      "postcode": "6290",
      "SA2_Name": "Augusta"
    },
    {
      "name": "DENBARKER",
      "postcode": "6324",
      "SA2_Name": "Plantagenet"
    },
    {
      "name": "DENHAM",
      "postcode": "6537",
      "SA2_Name": "Exmouth"
    },
    {
      "name": "DENMARK",
      "postcode": "6333",
      "SA2_Name": "Denmark"
    },
    {
      "name": "DERBY",
      "postcode": "6728",
      "SA2_Name": "Derby - West Kimberley"
    },
    {
      "name": "DEVILS CREEK",
      "postcode": "6630",
      "SA2_Name": "Northampton - Mullewa - Greenough"
    },
    {
      "name": "DEWARS POOL",
      "postcode": "6567",
      "SA2_Name": "Toodyay"
    },
    {
      "name": "DIAMOND TREE",
      "postcode": "6258",
      "SA2_Name": "Pemberton"
    },
    {
      "name": "DIANELLA",
      "postcode": "6059",
      "SA2_Name": "Dianella"
    },
    {
      "name": "DINDILOA",
      "postcode": "6532",
      "SA2_Name": "Northampton - Mullewa - Greenough"
    },
    {
      "name": "DINGUP",
      "postcode": "6258",
      "SA2_Name": "Manjimup"
    },
    {
      "name": "DINNINUP",
      "postcode": "6244",
      "SA2_Name": "Bridgetown - Boyup Brook"
    },
    {
      "name": "DIRK HARTOG ISLAND",
      "postcode": "6537",
      "SA2_Name": "Exmouth"
    },
    {
      "name": "DIXVALE",
      "postcode": "6258",
      "SA2_Name": "Pemberton"
    },
    {
      "name": "DJUGUN",
      "postcode": "6725",
      "SA2_Name": "Broome"
    },
    {
      "name": "DONGARA",
      "postcode": "6525",
      "SA2_Name": "Irwin"
    },
    {
      "name": "DONGOLOCKING",
      "postcode": "6315",
      "SA2_Name": "Kulin"
    },
    {
      "name": "DONNELLY RIVER",
      "postcode": "6258",
      "SA2_Name": "Pemberton"
    },
    {
      "name": "DONNYBROOK",
      "postcode": "6239",
      "SA2_Name": "Donnybrook - Balingup"
    },
    {
      "name": "DOODENANNING",
      "postcode": "6383",
      "SA2_Name": "Cunderdin"
    },
    {
      "name": "DOODLAKINE",
      "postcode": "6411",
      "SA2_Name": "Cunderdin"
    },
    {
      "name": "DORRE ISLAND",
      "postcode": "6701",
      "SA2_Name": "Exmouth"
    },
    {
      "name": "DOUBLEVIEW",
      "postcode": "6018",
      "SA2_Name": "Innaloo - Doubleview"
    },
    {
      "name": "DOWERIN",
      "postcode": "6461",
      "SA2_Name": "Dowerin"
    },
    {
      "name": "DROME",
      "postcode": "6330",
      "SA2_Name": "Albany Region"
    },
    {
      "name": "DRUMMOND COVE",
      "postcode": "6532",
      "SA2_Name": "Geraldton - North"
    },
    {
      "name": "DRYANDRA",
      "postcode": "6311",
      "SA2_Name": "Wagin"
    },
    {
      "name": "DRYSDALE RIVER",
      "postcode": "6740",
      "SA2_Name": "Kununurra"
    },
    {
      "name": "DUDAWA",
      "postcode": "6519",
      "SA2_Name": "Morawa"
    },
    {
      "name": "DUDININ",
      "postcode": "6363",
      "SA2_Name": "Kulin"
    },
    {
      "name": "DUDLEY PARK",
      "postcode": "6210",
      "SA2_Name": "Mandurah - South"
    },
    {
      "name": "DUKIN",
      "postcode": "6475",
      "SA2_Name": "Dowerin"
    },
    {
      "name": "DULBELLING",
      "postcode": "6383",
      "SA2_Name": "Cunderdin"
    },
    {
      "name": "DULYALBIN",
      "postcode": "6425",
      "SA2_Name": "Mukinbudin"
    },
    {
      "name": "DUMBARTON",
      "postcode": "6566",
      "SA2_Name": "Toodyay"
    },
    {
      "name": "DUMBERNING",
      "postcode": "6312",
      "SA2_Name": "Narrogin"
    },
    {
      "name": "DUMBLEYUNG",
      "postcode": "6350",
      "SA2_Name": "Kulin"
    },
    {
      "name": "DUNCRAIG",
      "postcode": "6023",
      "SA2_Name": "Duncraig"
    },
    {
      "name": "DUNDAS",
      "postcode": "6443",
      "SA2_Name": "Kambalda - Coolgardie - Norseman"
    },
    {
      "name": "DUNN ROCK",
      "postcode": "6355",
      "SA2_Name": "Kulin"
    },
    {
      "name": "DUNSBOROUGH",
      "postcode": "6281",
      "SA2_Name": "Busselton Region"
    },
    {
      "name": "DURACK",
      "postcode": "6743",
      "SA2_Name": "Kununurra"
    },
    {
      "name": "DURANILLIN",
      "postcode": "6393",
      "SA2_Name": "Wagin"
    },
    {
      "name": "DURAWAH",
      "postcode": "6532",
      "SA2_Name": "Northampton - Mullewa - Greenough"
    },
    {
      "name": "DWARDA",
      "postcode": "6308",
      "SA2_Name": "Brookton"
    },
    {
      "name": "DWELLINGUP",
      "postcode": "6213",
      "SA2_Name": "Murray"
    },
    {
      "name": "EAGLE BAY",
      "postcode": "6281",
      "SA2_Name": "Busselton Region"
    },
    {
      "name": "EAST AUGUSTA",
      "postcode": "6290",
      "SA2_Name": "Augusta"
    },
    {
      "name": "EAST BALLIDU",
      "postcode": "6606",
      "SA2_Name": "Dowerin"
    },
    {
      "name": "EAST BEVERLEY",
      "postcode": "6304",
      "SA2_Name": "York - Beverley"
    },
    {
      "name": "EAST BOWES",
      "postcode": "6535",
      "SA2_Name": "Northampton - Mullewa - Greenough"
    },
    {
      "name": "EAST BUNBURY",
      "postcode": "6230",
      "SA2_Name": "East Bunbury - Glen Iris"
    },
    {
      "name": "EAST CANNINGTON",
      "postcode": "6107",
      "SA2_Name": "Cannington - Queens Park"
    },
    {
      "name": "EAST CARNARVON",
      "postcode": "6701",
      "SA2_Name": "Carnarvon"
    },
    {
      "name": "EAST CHAPMAN",
      "postcode": "6532",
      "SA2_Name": "Northampton - Mullewa - Greenough"
    },
    {
      "name": "EAST DAMBORING",
      "postcode": "6608",
      "SA2_Name": "Moora"
    },
    {
      "name": "EAST FREMANTLE",
      "postcode": "6158",
      "SA2_Name": "East Fremantle"
    },
    {
      "name": "EAST LYONS RIVER",
      "postcode": "6705",
      "SA2_Name": "Exmouth"
    },
    {
      "name": "EAST MUNGLINUP",
      "postcode": "6450",
      "SA2_Name": "Esperance Region"
    },
    {
      "name": "EAST MURCHISON",
      "postcode": "6640",
      "SA2_Name": "Meekatharra"
    },
    {
      "name": "EAST NABAWA",
      "postcode": "6532",
      "SA2_Name": "Northampton - Mullewa - Greenough"
    },
    {
      "name": "EAST NANNUP",
      "postcode": "6275",
      "SA2_Name": "Pemberton"
    },
    {
      "name": "EAST NEWDEGATE",
      "postcode": "6355",
      "SA2_Name": "Kulin"
    },
    {
      "name": "EAST PERTH",
      "postcode": "6004",
      "SA2_Name": "Perth City"
    },
    {
      "name": "EAST PINGELLY",
      "postcode": "6308",
      "SA2_Name": "Brookton"
    },
    {
      "name": "EAST POPANYINNING",
      "postcode": "6309",
      "SA2_Name": "Wagin"
    },
    {
      "name": "EAST ROCKINGHAM",
      "postcode": "6168",
      "SA2_Name": "Rockingham"
    },
    {
      "name": "EAST VICTORIA PARK",
      "postcode": "6101",
      "SA2_Name": "East Victoria Park - Carlisle"
    },
    {
      "name": "EAST WICKEPIN",
      "postcode": "6370",
      "SA2_Name": "Kulin"
    },
    {
      "name": "EAST YUNA",
      "postcode": "6532",
      "SA2_Name": "Northampton - Mullewa - Greenough"
    },
    {
      "name": "EASTBROOK",
      "postcode": "6260",
      "SA2_Name": "Pemberton"
    },
    {
      "name": "EATON",
      "postcode": "6232",
      "SA2_Name": "Eaton - Pelican Point"
    },
    {
      "name": "EDEN HILL",
      "postcode": "6054",
      "SA2_Name": "Bassendean - Eden Hill - Ashfield"
    },
    {
      "name": "EDGEWATER",
      "postcode": "6027",
      "SA2_Name": "Joondalup - Edgewater"
    },
    {
      "name": "EGANU",
      "postcode": "6515",
      "SA2_Name": "Morawa"
    },
    {
      "name": "EGLINTON",
      "postcode": "6034",
      "SA2_Name": "Alkimos - Eglinton"
    },
    {
      "name": "EIGHTY MILE BEACH",
      "postcode": "6725",
      "SA2_Name": "Roebuck"
    },
    {
      "name": "ELABBIN",
      "postcode": "6490",
      "SA2_Name": "Mukinbudin"
    },
    {
      "name": "ELACHBUTTING",
      "postcode": "6479",
      "SA2_Name": "Mukinbudin"
    },
    {
      "name": "ELGIN",
      "postcode": "6237",
      "SA2_Name": "Capel"
    },
    {
      "name": "ELLEKER",
      "postcode": "6330",
      "SA2_Name": "Little Grove - Elleker"
    },
    {
      "name": "ELLENBROOK",
      "postcode": "6069",
      "SA2_Name": "Ellenbrook"
    },
    {
      "name": "ELLENDALE",
      "postcode": "6532",
      "SA2_Name": "Northampton - Mullewa - Greenough"
    },
    {
      "name": "EMBLETON",
      "postcode": "6062",
      "SA2_Name": "Bayswater - Embleton - Bedford"
    },
    {
      "name": "EMU FLAT",
      "postcode": "6431",
      "SA2_Name": "Kambalda - Coolgardie - Norseman"
    },
    {
      "name": "EMU POINT",
      "postcode": "6330",
      "SA2_Name": "Albany"
    },
    {
      "name": "ENEABBA",
      "postcode": "6518",
      "SA2_Name": "Morawa"
    },
    {
      "name": "ENNUIN",
      "postcode": "6484",
      "SA2_Name": "Mukinbudin"
    },
    {
      "name": "ERADU",
      "postcode": "6532",
      "SA2_Name": "Northampton - Mullewa - Greenough"
    },
    {
      "name": "ERADU SOUTH",
      "postcode": "6532",
      "SA2_Name": "Northampton - Mullewa - Greenough"
    },
    {
      "name": "ERSKINE",
      "postcode": "6210",
      "SA2_Name": "Halls Head - Erskine"
    },
    {
      "name": "ESPERANCE",
      "postcode": "6450",
      "SA2_Name": "Esperance"
    },
    {
      "name": "ETMILYN",
      "postcode": "6213",
      "SA2_Name": "Murray"
    },
    {
      "name": "EUCLA",
      "postcode": "6443",
      "SA2_Name": "Kambalda - Coolgardie - Norseman"
    },
    {
      "name": "EURARDY",
      "postcode": "6532",
      "SA2_Name": "Northampton - Mullewa - Greenough"
    },
    {
      "name": "EWLYAMARTUP",
      "postcode": "6317",
      "SA2_Name": "Katanning"
    },
    {
      "name": "EXMOUTH",
      "postcode": "6707",
      "SA2_Name": "Exmouth"
    },
    {
      "name": "EXMOUTH GULF",
      "postcode": "6707",
      "SA2_Name": "Exmouth"
    },
    {
      "name": "FAIRBRIDGE",
      "postcode": "6208",
      "SA2_Name": "Pinjarra"
    },
    {
      "name": "FALCON",
      "postcode": "6210",
      "SA2_Name": "Falcon - Wannanup"
    },
    {
      "name": "FERGUSON",
      "postcode": "6236",
      "SA2_Name": "Dardanup"
    },
    {
      "name": "FERNDALE",
      "postcode": "6148",
      "SA2_Name": "Parkwood - Ferndale - Lynwood"
    },
    {
      "name": "FEYSVILLE",
      "postcode": "6431",
      "SA2_Name": "Kambalda - Coolgardie - Norseman"
    },
    {
      "name": "FIMISTON",
      "postcode": "6432",
      "SA2_Name": "Trafalgar (WA)"
    },
    {
      "name": "FINUCANE",
      "postcode": "6722",
      "SA2_Name": "Port Hedland"
    },
    {
      "name": "FITZGERALD",
      "postcode": "6337",
      "SA2_Name": "Esperance Region"
    },
    {
      "name": "FITZGERALD RIVER NATIONAL PARK",
      "postcode": "6346",
      "SA2_Name": "Esperance Region"
    },
    {
      "name": "FITZROY CROSSING",
      "postcode": "6765",
      "SA2_Name": "Derby - West Kimberley"
    },
    {
      "name": "FLINT",
      "postcode": "6302",
      "SA2_Name": "York - Beverley"
    },
    {
      "name": "FLOREAT",
      "postcode": "6014",
      "SA2_Name": "Floreat"
    },
    {
      "name": "FLYNN",
      "postcode": "6302",
      "SA2_Name": "York - Beverley"
    },
    {
      "name": "FOREST GROVE",
      "postcode": "6286",
      "SA2_Name": "Augusta"
    },
    {
      "name": "FOREST HILL",
      "postcode": "6324",
      "SA2_Name": "Plantagenet"
    },
    {
      "name": "FORREST",
      "postcode": "6434",
      "SA2_Name": "Kambalda - Coolgardie - Norseman"
    },
    {
      "name": "FORREST BEACH",
      "postcode": "6271",
      "SA2_Name": "Capel"
    },
    {
      "name": "FORRESTANIA",
      "postcode": "6359",
      "SA2_Name": "Kulin"
    },
    {
      "name": "FORRESTDALE",
      "postcode": "6112",
      "SA2_Name": "Forrestdale - Harrisdale - Piara Waters"
    },
    {
      "name": "FORRESTFIELD",
      "postcode": "6058",
      "SA2_Name": "Forrestfield - Wattle Grove"
    },
    {
      "name": "FORTESCUE",
      "postcode": "6716",
      "SA2_Name": "Ashburton (WA)"
    },
    {
      "name": "FRANCOIS PERON NATIONAL PARK",
      "postcode": "6537",
      "SA2_Name": "Exmouth"
    },
    {
      "name": "FRANKLAND RIVER",
      "postcode": "6396",
      "SA2_Name": "Kojonup"
    },
    {
      "name": "FRASER RANGE",
      "postcode": "6443",
      "SA2_Name": "Kambalda - Coolgardie - Norseman"
    },
    {
      "name": "FREMANTLE",
      "postcode": "6160",
      "SA2_Name": "Fremantle"
    },
    {
      "name": "FRENCHMAN BAY",
      "postcode": "6330",
      "SA2_Name": "Little Grove - Elleker"
    },
    {
      "name": "FURNISSDALE",
      "postcode": "6209",
      "SA2_Name": "Mandurah - East"
    },
    {
      "name": "GABALONG",
      "postcode": "6574",
      "SA2_Name": "Moora"
    },
    {
      "name": "GABBADAH",
      "postcode": "6041",
      "SA2_Name": "Gingin - Dandaragan"
    },
    {
      "name": "GABBIN",
      "postcode": "6476",
      "SA2_Name": "Mukinbudin"
    },
    {
      "name": "GAIRDNER",
      "postcode": "6337",
      "SA2_Name": "Gnowangerup"
    },
    {
      "name": "GAP RIDGE",
      "postcode": "6714",
      "SA2_Name": "Karratha"
    },
    {
      "name": "GARDEN ISLAND",
      "postcode": "6168",
      "SA2_Name": "Rockingham"
    },
    {
      "name": "GASCOYNE JUNCTION",
      "postcode": "6705",
      "SA2_Name": "Exmouth"
    },
    {
      "name": "GASCOYNE RIVER",
      "postcode": "6705",
      "SA2_Name": "Exmouth"
    },
    {
      "name": "GEEGULLY CREEK",
      "postcode": "6728",
      "SA2_Name": "Derby - West Kimberley"
    },
    {
      "name": "GELORUP",
      "postcode": "6230",
      "SA2_Name": "Gelorup - Stratham"
    },
    {
      "name": "GEOGRAPHE",
      "postcode": "6280",
      "SA2_Name": "Busselton"
    },
    {
      "name": "GEORGINA",
      "postcode": "6532",
      "SA2_Name": "Northampton - Mullewa - Greenough"
    },
    {
      "name": "GERALDTON",
      "postcode": "6530",
      "SA2_Name": "Geraldton"
    },
    {
      "name": "GHOOLI",
      "postcode": "6426",
      "SA2_Name": "Mukinbudin"
    },
    {
      "name": "GIBB",
      "postcode": "6743",
      "SA2_Name": "Kununurra"
    },
    {
      "name": "GIBSON",
      "postcode": "6448",
      "SA2_Name": "Esperance Region"
    },
    {
      "name": "GIBSON DESERT NORTH",
      "postcode": "872",
      "SA2_Name": "East Pilbara"
    },
    {
      "name": "GIBSON DESERT SOUTH",
      "postcode": "872",
      "SA2_Name": "Leinster - Leonora"
    },
    {
      "name": "GIDGEGANNUP",
      "postcode": "6083",
      "SA2_Name": "Gidgegannup"
    },
    {
      "name": "GILGERING",
      "postcode": "6302",
      "SA2_Name": "York - Beverley"
    },
    {
      "name": "GILLIMANNING",
      "postcode": "6308",
      "SA2_Name": "Kulin"
    },
    {
      "name": "GILLINGARRA",
      "postcode": "6510",
      "SA2_Name": "Moora"
    },
    {
      "name": "GILROYD",
      "postcode": "6701",
      "SA2_Name": "Exmouth"
    },
    {
      "name": "GINGERAH",
      "postcode": "6725",
      "SA2_Name": "Roebuck"
    },
    {
      "name": "GINGIN",
      "postcode": "6503",
      "SA2_Name": "Gingin - Dandaragan"
    },
    {
      "name": "GINGINUP",
      "postcode": "6503",
      "SA2_Name": "Gingin - Dandaragan"
    },
    {
      "name": "GIRRAWHEEN",
      "postcode": "6064",
      "SA2_Name": "Girrawheen"
    },
    {
      "name": "GLEDHOW",
      "postcode": "6330",
      "SA2_Name": "McKail - Willyung"
    },
    {
      "name": "GLEN FORREST",
      "postcode": "6071",
      "SA2_Name": "Glen Forrest - Darlington"
    },
    {
      "name": "GLEN IRIS",
      "postcode": "6230",
      "SA2_Name": "East Bunbury - Glen Iris"
    },
    {
      "name": "GLEN MERVYN",
      "postcode": "6239",
      "SA2_Name": "Donnybrook - Balingup"
    },
    {
      "name": "GLENCOE",
      "postcode": "6316",
      "SA2_Name": "Katanning"
    },
    {
      "name": "GLENDALOUGH",
      "postcode": "6016",
      "SA2_Name": "Wembley - West Leederville - Glendalough"
    },
    {
      "name": "GLENFIELD",
      "postcode": "6532",
      "SA2_Name": "Geraldton - North"
    },
    {
      "name": "GLENLYNN",
      "postcode": "6256",
      "SA2_Name": "Bridgetown - Boyup Brook"
    },
    {
      "name": "GLENORAN",
      "postcode": "6258",
      "SA2_Name": "Pemberton"
    },
    {
      "name": "GLENTROMIE",
      "postcode": "6509",
      "SA2_Name": "Moora"
    },
    {
      "name": "GNANGARA",
      "postcode": "6077",
      "SA2_Name": "Wanneroo"
    },
    {
      "name": "GNARABUP",
      "postcode": "6285",
      "SA2_Name": "Margaret River"
    },
    {
      "name": "GNOOREA",
      "postcode": "6714",
      "SA2_Name": "Roebourne"
    },
    {
      "name": "GNOWANGERUP",
      "postcode": "6335",
      "SA2_Name": "Gnowangerup"
    },
    {
      "name": "GNOWELLEN",
      "postcode": "6328",
      "SA2_Name": "Albany Region"
    },
    {
      "name": "GOLDEN BAY",
      "postcode": "6174",
      "SA2_Name": "Singleton - Golden Bay - Secret Harbour"
    },
    {
      "name": "GOODE BEACH",
      "postcode": "6330",
      "SA2_Name": "Little Grove - Elleker"
    },
    {
      "name": "GOODLANDS",
      "postcode": "6468",
      "SA2_Name": "Moora"
    },
    {
      "name": "GOOMALLING",
      "postcode": "6460",
      "SA2_Name": "Dowerin"
    },
    {
      "name": "GOOMARIN",
      "postcode": "6415",
      "SA2_Name": "Merredin"
    },
    {
      "name": "GOOSEBERRY HILL",
      "postcode": "6076",
      "SA2_Name": "Kalamunda - Maida Vale - Gooseberry Hill"
    },
    {
      "name": "GORGE ROCK",
      "postcode": "6375",
      "SA2_Name": "Brookton"
    },
    {
      "name": "GORRIE",
      "postcode": "6556",
      "SA2_Name": "Malmalling - Reservoir"
    },
    {
      "name": "GOSNELLS",
      "postcode": "6110",
      "SA2_Name": "Gosnells"
    },
    {
      "name": "GRACETOWN",
      "postcode": "6284",
      "SA2_Name": "Margaret River"
    },
    {
      "name": "GRANVILLE",
      "postcode": "6503",
      "SA2_Name": "Gingin - Dandaragan"
    },
    {
      "name": "GRASS PATCH",
      "postcode": "6446",
      "SA2_Name": "Esperance Region"
    },
    {
      "name": "GRASS VALLEY",
      "postcode": "6403",
      "SA2_Name": "Northam"
    },
    {
      "name": "GREEN HEAD",
      "postcode": "6514",
      "SA2_Name": "Morawa"
    },
    {
      "name": "GREEN RANGE",
      "postcode": "6328",
      "SA2_Name": "Albany Region"
    },
    {
      "name": "GREEN VALLEY",
      "postcode": "6330",
      "SA2_Name": "Albany Region"
    },
    {
      "name": "GREENBUSHES",
      "postcode": "6254",
      "SA2_Name": "Bridgetown - Boyup Brook"
    },
    {
      "name": "GREENFIELDS",
      "postcode": "6210",
      "SA2_Name": "Greenfields"
    },
    {
      "name": "GREENHILLS",
      "postcode": "6302",
      "SA2_Name": "York - Beverley"
    },
    {
      "name": "GREENMOUNT",
      "postcode": "6056",
      "SA2_Name": "Swan View - Greenmount - Midvale"
    },
    {
      "name": "GREENOUGH",
      "postcode": "6532",
      "SA2_Name": "Northampton - Mullewa - Greenough"
    },
    {
      "name": "GREENWOOD",
      "postcode": "6024",
      "SA2_Name": "Greenwood - Warwick"
    },
    {
      "name": "GREENWOODS VALLEY",
      "postcode": "6405",
      "SA2_Name": "Cunderdin"
    },
    {
      "name": "GREGORY",
      "postcode": "6535",
      "SA2_Name": "Northampton - Mullewa - Greenough"
    },
    {
      "name": "GREY",
      "postcode": "6521",
      "SA2_Name": "Gingin - Dandaragan"
    },
    {
      "name": "GREYS PLAIN",
      "postcode": "6701",
      "SA2_Name": "Carnarvon"
    },
    {
      "name": "GRIMWADE",
      "postcode": "6253",
      "SA2_Name": "Donnybrook - Balingup"
    },
    {
      "name": "GUILDERTON",
      "postcode": "6041",
      "SA2_Name": "Gingin - Dandaragan"
    },
    {
      "name": "GUILDFORD",
      "postcode": "6055",
      "SA2_Name": "Midland - Guildford"
    },
    {
      "name": "GUNDARING",
      "postcode": "6315",
      "SA2_Name": "Wagin"
    },
    {
      "name": "GUNYIDI",
      "postcode": "6513",
      "SA2_Name": "Morawa"
    },
    {
      "name": "GUTHA",
      "postcode": "6623",
      "SA2_Name": "Morawa"
    },
    {
      "name": "GWAMBYGINE",
      "postcode": "6302",
      "SA2_Name": "York - Beverley"
    },
    {
      "name": "GWELUP",
      "postcode": "6018",
      "SA2_Name": "Karrinyup - Gwelup - Carine"
    },
    {
      "name": "GWINDINUP",
      "postcode": "6237",
      "SA2_Name": "Capel"
    },
    {
      "name": "HACKETTS GULLY",
      "postcode": "6076",
      "SA2_Name": "Lesmurdie - Bickley - Carmel"
    },
    {
      "name": "HALLS CREEK",
      "postcode": "6770",
      "SA2_Name": "Halls Creek"
    },
    {
      "name": "HALLS HEAD",
      "postcode": "6210",
      "SA2_Name": "Halls Head - Erskine"
    },
    {
      "name": "HAMEL",
      "postcode": "6215",
      "SA2_Name": "Waroona"
    },
    {
      "name": "HAMELIN BAY",
      "postcode": "6288",
      "SA2_Name": "Augusta"
    },
    {
      "name": "HAMELIN POOL",
      "postcode": "6532",
      "SA2_Name": "Exmouth"
    },
    {
      "name": "HAMERSLEY",
      "postcode": "6022",
      "SA2_Name": "Balcatta - Hamersley"
    },
    {
      "name": "HAMERSLEY RANGE",
      "postcode": "6716",
      "SA2_Name": "Ashburton (WA)"
    },
    {
      "name": "HAMILTON HILL",
      "postcode": "6163",
      "SA2_Name": "Hamilton Hill"
    },
    {
      "name": "HAMMOND PARK",
      "postcode": "6164",
      "SA2_Name": "Success - Hammond Park"
    },
    {
      "name": "HANNANS",
      "postcode": "6430",
      "SA2_Name": "Kalgoorlie - North"
    },
    {
      "name": "HARRIS RIVER",
      "postcode": "6225",
      "SA2_Name": "Collie"
    },
    {
      "name": "HARRISDALE",
      "postcode": "6112",
      "SA2_Name": "Forrestdale - Harrisdale - Piara Waters"
    },
    {
      "name": "HARRISMITH",
      "postcode": "6361",
      "SA2_Name": "Kulin"
    },
    {
      "name": "HARVEY",
      "postcode": "6220",
      "SA2_Name": "Harvey"
    },
    {
      "name": "HASTINGS",
      "postcode": "6308",
      "SA2_Name": "Brookton"
    },
    {
      "name": "HATTER HILL",
      "postcode": "6356",
      "SA2_Name": "Kulin"
    },
    {
      "name": "HAY",
      "postcode": "6333",
      "SA2_Name": "Denmark"
    },
    {
      "name": "HAYNES",
      "postcode": "6112",
      "SA2_Name": "Armadale - Wungong - Brookdale"
    },
    {
      "name": "HAZELMERE",
      "postcode": "6055",
      "SA2_Name": "Hazelmere - Guildford"
    },
    {
      "name": "HAZELVALE",
      "postcode": "6333",
      "SA2_Name": "Denmark"
    },
    {
      "name": "HEATHRIDGE",
      "postcode": "6027",
      "SA2_Name": "Heathridge - Connolly"
    },
    {
      "name": "HELENA VALLEY",
      "postcode": "6056",
      "SA2_Name": "Helena Valley - Koongamia"
    },
    {
      "name": "HENDERSON",
      "postcode": "6166",
      "SA2_Name": "Henderson"
    },
    {
      "name": "HENLEY BROOK",
      "postcode": "6055",
      "SA2_Name": "Ellenbrook"
    },
    {
      "name": "HENTY",
      "postcode": "6236",
      "SA2_Name": "Dardanup"
    },
    {
      "name": "HERDSMAN",
      "postcode": "6017",
      "SA2_Name": "Herdsman"
    },
    {
      "name": "HERNE HILL",
      "postcode": "6056",
      "SA2_Name": "Middle Swan - Herne Hill"
    },
    {
      "name": "HERRON",
      "postcode": "6211",
      "SA2_Name": "Dawesville - Bouvard"
    },
    {
      "name": "HESTER",
      "postcode": "6255",
      "SA2_Name": "Bridgetown - Boyup Brook"
    },
    {
      "name": "HESTER BROOK",
      "postcode": "6255",
      "SA2_Name": "Bridgetown - Boyup Brook"
    },
    {
      "name": "HICKETY",
      "postcode": "6532",
      "SA2_Name": "Northampton - Mullewa - Greenough"
    },
    {
      "name": "HIGGINSVILLE",
      "postcode": "6443",
      "SA2_Name": "Kambalda - Coolgardie - Norseman"
    },
    {
      "name": "HIGH WYCOMBE",
      "postcode": "6057",
      "SA2_Name": "High Wycombe"
    },
    {
      "name": "HIGHBURY",
      "postcode": "6313",
      "SA2_Name": "Wagin"
    },
    {
      "name": "HIGHGATE",
      "postcode": "6003",
      "SA2_Name": "Perth City"
    },
    {
      "name": "HILBERT",
      "postcode": "6112",
      "SA2_Name": "Armadale - Wungong - Brookdale"
    },
    {
      "name": "HILL RIVER",
      "postcode": "6521",
      "SA2_Name": "Gingin - Dandaragan"
    },
    {
      "name": "HILLARYS",
      "postcode": "6025",
      "SA2_Name": "Hillarys"
    },
    {
      "name": "HILLMAN",
      "postcode": "6168",
      "SA2_Name": "Cooloongup"
    },
    {
      "name": "HILLSIDE",
      "postcode": "6312",
      "SA2_Name": "Narrogin"
    },
    {
      "name": "HILTON",
      "postcode": "6163",
      "SA2_Name": "Fremantle - South"
    },
    {
      "name": "HINDMARSH",
      "postcode": "6462",
      "SA2_Name": "Dowerin"
    },
    {
      "name": "HINES HILL",
      "postcode": "6413",
      "SA2_Name": "Merredin"
    },
    {
      "name": "HITHERGREEN",
      "postcode": "6280",
      "SA2_Name": "Busselton Region"
    },
    {
      "name": "HOCKING",
      "postcode": "6065",
      "SA2_Name": "Wanneroo"
    },
    {
      "name": "HODDYS WELL",
      "postcode": "6566",
      "SA2_Name": "Toodyay"
    },
    {
      "name": "HOFFMAN",
      "postcode": "6220",
      "SA2_Name": "Harvey"
    },
    {
      "name": "HOLLETON",
      "postcode": "6426",
      "SA2_Name": "Mukinbudin"
    },
    {
      "name": "HOLMWOOD",
      "postcode": "6522",
      "SA2_Name": "Morawa"
    },
    {
      "name": "HOLT ROCK",
      "postcode": "6355",
      "SA2_Name": "Kulin"
    },
    {
      "name": "HOLYOAKE",
      "postcode": "6213",
      "SA2_Name": "Murray"
    },
    {
      "name": "HOPE VALLEY",
      "postcode": "6165",
      "SA2_Name": "Hope Valley - Postans"
    },
    {
      "name": "HOPELAND",
      "postcode": "6125",
      "SA2_Name": "Serpentine - Jarrahdale"
    },
    {
      "name": "HOPETOUN",
      "postcode": "6348",
      "SA2_Name": "Esperance Region"
    },
    {
      "name": "HORROCKS",
      "postcode": "6535",
      "SA2_Name": "Northampton - Mullewa - Greenough"
    },
    {
      "name": "HOUTMAN ABROLHOS",
      "postcode": "6530",
      "SA2_Name": "Northampton - Mullewa - Greenough"
    },
    {
      "name": "HOVEA",
      "postcode": "6071",
      "SA2_Name": "Glen Forrest - Darlington"
    },
    {
      "name": "HOWATHARRA",
      "postcode": "6532",
      "SA2_Name": "Northampton - Mullewa - Greenough"
    },
    {
      "name": "HOWICK",
      "postcode": "6450",
      "SA2_Name": "Esperance Region"
    },
    {
      "name": "HULONGINE",
      "postcode": "6460",
      "SA2_Name": "Dowerin"
    },
    {
      "name": "HUNTINGDALE",
      "postcode": "6110",
      "SA2_Name": "Huntingdale - Southern River"
    },
    {
      "name": "HYDEN",
      "postcode": "6359",
      "SA2_Name": "Kulin"
    },
    {
      "name": "IKEWA",
      "postcode": "6522",
      "SA2_Name": "Morawa"
    },
    {
      "name": "ILUKA",
      "postcode": "6028",
      "SA2_Name": "Iluka - Burns Beach"
    },
    {
      "name": "INDEE",
      "postcode": "6721",
      "SA2_Name": "East Pilbara"
    },
    {
      "name": "INGGARDA",
      "postcode": "6701",
      "SA2_Name": "Exmouth"
    },
    {
      "name": "INGLEHOPE",
      "postcode": "6213",
      "SA2_Name": "Murray"
    },
    {
      "name": "INGLEWOOD",
      "postcode": "6052",
      "SA2_Name": "Mount Lawley - Inglewood"
    },
    {
      "name": "INKPEN",
      "postcode": "6302",
      "SA2_Name": "York - Beverley"
    },
    {
      "name": "INNALOO",
      "postcode": "6018",
      "SA2_Name": "Innaloo - Doubleview"
    },
    {
      "name": "INNAWANGA",
      "postcode": "6751",
      "SA2_Name": "Ashburton (WA)"
    },
    {
      "name": "IRISHTOWN",
      "postcode": "6401",
      "SA2_Name": "Northam"
    },
    {
      "name": "IRWIN",
      "postcode": "6525",
      "SA2_Name": "Irwin"
    },
    {
      "name": "ISRAELITE BAY",
      "postcode": "6452",
      "SA2_Name": "Esperance Region"
    },
    {
      "name": "ISSEKA",
      "postcode": "6535",
      "SA2_Name": "Northampton - Mullewa - Greenough"
    },
    {
      "name": "JACKITUP",
      "postcode": "6335",
      "SA2_Name": "Gnowangerup"
    },
    {
      "name": "JACUP",
      "postcode": "6337",
      "SA2_Name": "Gnowangerup"
    },
    {
      "name": "JALBARRAGUP",
      "postcode": "6275",
      "SA2_Name": "Pemberton"
    },
    {
      "name": "JALORAN",
      "postcode": "6315",
      "SA2_Name": "Wagin"
    },
    {
      "name": "JANDABUP",
      "postcode": "6077",
      "SA2_Name": "Tapping - Ashby - Sinagra"
    },
    {
      "name": "JANDAKOT",
      "postcode": "6164",
      "SA2_Name": "Jandakot"
    },
    {
      "name": "JANE BROOK",
      "postcode": "6056",
      "SA2_Name": "Stratton - Jane Brook"
    },
    {
      "name": "JARDEE",
      "postcode": "6258",
      "SA2_Name": "Manjimup"
    },
    {
      "name": "JARLMADANGAH BURRU",
      "postcode": "6728",
      "SA2_Name": "Derby - West Kimberley"
    },
    {
      "name": "JARRAHDALE",
      "postcode": "6124",
      "SA2_Name": "Serpentine - Jarrahdale"
    },
    {
      "name": "JARRAHWOOD",
      "postcode": "6275",
      "SA2_Name": "Busselton Region"
    },
    {
      "name": "JELCOBINE",
      "postcode": "6306",
      "SA2_Name": "Brookton"
    },
    {
      "name": "JENNACUBBINE",
      "postcode": "6401",
      "SA2_Name": "Dowerin"
    },
    {
      "name": "JENNAPULLIN",
      "postcode": "6401",
      "SA2_Name": "Northam"
    },
    {
      "name": "JERDACUTTUP",
      "postcode": "6346",
      "SA2_Name": "Esperance Region"
    },
    {
      "name": "JERRAMUNGUP",
      "postcode": "6337",
      "SA2_Name": "Gnowangerup"
    },
    {
      "name": "JIBBERDING",
      "postcode": "6612",
      "SA2_Name": "Moora"
    },
    {
      "name": "JIGALONG",
      "postcode": "6753",
      "SA2_Name": "East Pilbara"
    },
    {
      "name": "JILAKIN",
      "postcode": "6365",
      "SA2_Name": "Kulin"
    },
    {
      "name": "JINDALEE",
      "postcode": "6036",
      "SA2_Name": "Mindarie - Quinns Rocks - Jindalee"
    },
    {
      "name": "JINDONG",
      "postcode": "6280",
      "SA2_Name": "Busselton Region"
    },
    {
      "name": "JINGALUP",
      "postcode": "6395",
      "SA2_Name": "Kojonup"
    },
    {
      "name": "JITARNING",
      "postcode": "6365",
      "SA2_Name": "Kulin"
    },
    {
      "name": "JOLIMONT",
      "postcode": "6014",
      "SA2_Name": "Subiaco - Shenton Park"
    },
    {
      "name": "JOONDALUP",
      "postcode": "6027",
      "SA2_Name": "Joondalup - Edgewater"
    },
    {
      "name": "JOONDANNA",
      "postcode": "6060",
      "SA2_Name": "Tuart Hill - Joondanna"
    },
    {
      "name": "JULIMAR",
      "postcode": "6567",
      "SA2_Name": "Toodyay"
    },
    {
      "name": "JUNA DOWNS",
      "postcode": "6751",
      "SA2_Name": "Ashburton (WA)"
    },
    {
      "name": "JURIEN BAY",
      "postcode": "6516",
      "SA2_Name": "Gingin - Dandaragan"
    },
    {
      "name": "KADATHINNI",
      "postcode": "6519",
      "SA2_Name": "Morawa"
    },
    {
      "name": "KALAMUNDA",
      "postcode": "6076",
      "SA2_Name": "Kalamunda - Maida Vale - Gooseberry Hill"
    },
    {
      "name": "KALANNIE",
      "postcode": "6468",
      "SA2_Name": "Moora"
    },
    {
      "name": "KALBARRI",
      "postcode": "6536",
      "SA2_Name": "Northampton - Mullewa - Greenough"
    },
    {
      "name": "KALBARRI NATIONAL PARK",
      "postcode": "6536",
      "SA2_Name": "Northampton - Mullewa - Greenough"
    },
    {
      "name": "KALGAN",
      "postcode": "6330",
      "SA2_Name": "Albany Region"
    },
    {
      "name": "KALGOORLIE",
      "postcode": "6430",
      "SA2_Name": "Kalgoorlie"
    },
    {
      "name": "KALGUP",
      "postcode": "6280",
      "SA2_Name": "Busselton Region"
    },
    {
      "name": "KALLAROO",
      "postcode": "6025",
      "SA2_Name": "Mullaloo - Kallaroo"
    },
    {
      "name": "KALOORUP",
      "postcode": "6280",
      "SA2_Name": "Busselton Region"
    },
    {
      "name": "KALUMBURU",
      "postcode": "6740",
      "SA2_Name": "Kununurra"
    },
    {
      "name": "KAMBALDA EAST",
      "postcode": "6442",
      "SA2_Name": "Kambalda - Coolgardie - Norseman"
    },
    {
      "name": "KAMBALDA WEST",
      "postcode": "6442",
      "SA2_Name": "Kambalda - Coolgardie - Norseman"
    },
    {
      "name": "KANGAROO GULLY",
      "postcode": "6255",
      "SA2_Name": "Bridgetown - Boyup Brook"
    },
    {
      "name": "KANOWNA",
      "postcode": "6431",
      "SA2_Name": "Kambalda - Coolgardie - Norseman"
    },
    {
      "name": "KARAKIN",
      "postcode": "6044",
      "SA2_Name": "Gingin - Dandaragan"
    },
    {
      "name": "KARALUNDI",
      "postcode": "6642",
      "SA2_Name": "Meekatharra"
    },
    {
      "name": "KARAWARA",
      "postcode": "6152",
      "SA2_Name": "Manning - Waterford"
    },
    {
      "name": "KARDINYA",
      "postcode": "6163",
      "SA2_Name": "Murdoch - Kardinya"
    },
    {
      "name": "KARIJINI",
      "postcode": "6751",
      "SA2_Name": "Ashburton (WA)"
    },
    {
      "name": "KARLGARIN",
      "postcode": "6358",
      "SA2_Name": "Kulin"
    },
    {
      "name": "KARLKURLA",
      "postcode": "6430",
      "SA2_Name": "Kalgoorlie - North"
    },
    {
      "name": "KARLONING",
      "postcode": "6479",
      "SA2_Name": "Mukinbudin"
    },
    {
      "name": "KARLOO",
      "postcode": "6530",
      "SA2_Name": "Geraldton - East"
    },
    {
      "name": "KARNUP",
      "postcode": "6176",
      "SA2_Name": "Baldivis"
    },
    {
      "name": "KARRAGULLEN",
      "postcode": "6111",
      "SA2_Name": "Roleystone"
    },
    {
      "name": "KARRAKATTA",
      "postcode": "6010",
      "SA2_Name": "Swanbourne - Mount Claremont"
    },
    {
      "name": "KARRAKUP",
      "postcode": "6122",
      "SA2_Name": "Mundijong"
    },
    {
      "name": "KARRAMINDIE",
      "postcode": "6429",
      "SA2_Name": "Kambalda - Coolgardie - Norseman"
    },
    {
      "name": "KARRANADGIN",
      "postcode": "6460",
      "SA2_Name": "Dowerin"
    },
    {
      "name": "KARRATHA",
      "postcode": "6714",
      "SA2_Name": "Karratha"
    },
    {
      "name": "KARRATHA INDUSTRIAL ESTATE",
      "postcode": "6714",
      "SA2_Name": "Karratha"
    },
    {
      "name": "KARRIDALE",
      "postcode": "6288",
      "SA2_Name": "Augusta"
    },
    {
      "name": "KARRINYUP",
      "postcode": "6018",
      "SA2_Name": "Karrinyup - Gwelup - Carine"
    },
    {
      "name": "KARROUN HILL",
      "postcode": "6472",
      "SA2_Name": "Mukinbudin"
    },
    {
      "name": "KATANNING",
      "postcode": "6317",
      "SA2_Name": "Katanning"
    },
    {
      "name": "KATRINE",
      "postcode": "6566",
      "SA2_Name": "Northam"
    },
    {
      "name": "KAURING",
      "postcode": "6302",
      "SA2_Name": "York - Beverley"
    },
    {
      "name": "KEALY",
      "postcode": "6280",
      "SA2_Name": "Busselton"
    },
    {
      "name": "KEBARINGUP",
      "postcode": "6335",
      "SA2_Name": "Gnowangerup"
    },
    {
      "name": "KELLERBERRIN",
      "postcode": "6410",
      "SA2_Name": "Cunderdin"
    },
    {
      "name": "KELMSCOTT",
      "postcode": "6111",
      "SA2_Name": "Kelmscott"
    },
    {
      "name": "KENDENUP",
      "postcode": "6323",
      "SA2_Name": "Plantagenet"
    },
    {
      "name": "KENMARE",
      "postcode": "6316",
      "SA2_Name": "Katanning"
    },
    {
      "name": "KENNEDY RANGE",
      "postcode": "6701",
      "SA2_Name": "Exmouth"
    },
    {
      "name": "KENSINGTON",
      "postcode": "6151",
      "SA2_Name": "South Perth - Kensington"
    },
    {
      "name": "KENTDALE",
      "postcode": "6333",
      "SA2_Name": "Denmark"
    },
    {
      "name": "KENWICK",
      "postcode": "6107",
      "SA2_Name": "Beckenham - Kenwick - Langford"
    },
    {
      "name": "KERALUP",
      "postcode": "6182",
      "SA2_Name": "Baldivis"
    },
    {
      "name": "KEWDALE",
      "postcode": "6105",
      "SA2_Name": "Rivervale - Kewdale - Cloverdale"
    },
    {
      "name": "KEYSBROOK",
      "postcode": "6126",
      "SA2_Name": "Serpentine - Jarrahdale"
    },
    {
      "name": "KIARA",
      "postcode": "6054",
      "SA2_Name": "Lockridge - Kiara"
    },
    {
      "name": "KIMBOLTON",
      "postcode": "6728",
      "SA2_Name": "Derby - West Kimberley"
    },
    {
      "name": "KING LEOPOLD RANGES",
      "postcode": "6728",
      "SA2_Name": "Derby - West Kimberley"
    },
    {
      "name": "KING RIVER",
      "postcode": "6330",
      "SA2_Name": "McKail - Willyung"
    },
    {
      "name": "KINGS PARK",
      "postcode": "6005",
      "SA2_Name": "Kings Park (WA)"
    },
    {
      "name": "KINGSFORD",
      "postcode": "6701",
      "SA2_Name": "Carnarvon"
    },
    {
      "name": "KINGSLEY",
      "postcode": "6026",
      "SA2_Name": "Kingsley"
    },
    {
      "name": "KINGSTON",
      "postcode": "6256",
      "SA2_Name": "Bridgetown - Boyup Brook"
    },
    {
      "name": "KINROSS",
      "postcode": "6028",
      "SA2_Name": "Currambine - Kinross"
    },
    {
      "name": "KIRK ROCK",
      "postcode": "6370",
      "SA2_Name": "Kulin"
    },
    {
      "name": "KIRUP",
      "postcode": "6251",
      "SA2_Name": "Donnybrook - Balingup"
    },
    {
      "name": "KOJANEERUP SOUTH",
      "postcode": "6328",
      "SA2_Name": "Albany Region"
    },
    {
      "name": "KOJARENA",
      "postcode": "6532",
      "SA2_Name": "Northampton - Mullewa - Greenough"
    },
    {
      "name": "KOJONUP",
      "postcode": "6395",
      "SA2_Name": "Kojonup"
    },
    {
      "name": "KOKEBY",
      "postcode": "6304",
      "SA2_Name": "York - Beverley"
    },
    {
      "name": "KONDININ",
      "postcode": "6367",
      "SA2_Name": "Kulin"
    },
    {
      "name": "KONDUT",
      "postcode": "6605",
      "SA2_Name": "Dowerin"
    },
    {
      "name": "KONNONGORRING",
      "postcode": "6603",
      "SA2_Name": "Dowerin"
    },
    {
      "name": "KOOJAN",
      "postcode": "6510",
      "SA2_Name": "Moora"
    },
    {
      "name": "KOOKYNIE",
      "postcode": "6431",
      "SA2_Name": "Leinster - Leonora"
    },
    {
      "name": "KOOLANOOKA",
      "postcode": "6623",
      "SA2_Name": "Morawa"
    },
    {
      "name": "KOOLYANOBBING",
      "postcode": "6427",
      "SA2_Name": "Mukinbudin"
    },
    {
      "name": "KOOMBERKINE",
      "postcode": "6461",
      "SA2_Name": "Dowerin"
    },
    {
      "name": "KOONDOOLA",
      "postcode": "6064",
      "SA2_Name": "Alexander Heights - Koondoola"
    },
    {
      "name": "KOONGAMIA",
      "postcode": "6056",
      "SA2_Name": "Helena Valley - Koongamia"
    },
    {
      "name": "KOORDA",
      "postcode": "6475",
      "SA2_Name": "Dowerin"
    },
    {
      "name": "KORBEL",
      "postcode": "6415",
      "SA2_Name": "Merredin"
    },
    {
      "name": "KORDABUP",
      "postcode": "6333",
      "SA2_Name": "Denmark"
    },
    {
      "name": "KORRELOCKING",
      "postcode": "6485",
      "SA2_Name": "Dowerin"
    },
    {
      "name": "KRONKUP",
      "postcode": "6330",
      "SA2_Name": "Albany Region"
    },
    {
      "name": "KUDARDUP",
      "postcode": "6290",
      "SA2_Name": "Augusta"
    },
    {
      "name": "KUENDER",
      "postcode": "6353",
      "SA2_Name": "Kulin"
    },
    {
      "name": "KUKERIN",
      "postcode": "6352",
      "SA2_Name": "Kulin"
    },
    {
      "name": "KULIKUP",
      "postcode": "6244",
      "SA2_Name": "Bridgetown - Boyup Brook"
    },
    {
      "name": "KULIN",
      "postcode": "6365",
      "SA2_Name": "Kulin"
    },
    {
      "name": "KULIN WEST",
      "postcode": "6365",
      "SA2_Name": "Kulin"
    },
    {
      "name": "KULJA",
      "postcode": "6470",
      "SA2_Name": "Dowerin"
    },
    {
      "name": "KUMARINA",
      "postcode": "6642",
      "SA2_Name": "Meekatharra"
    },
    {
      "name": "KUNDAT DJARU",
      "postcode": "6770",
      "SA2_Name": "Halls Creek"
    },
    {
      "name": "KUNJIN",
      "postcode": "6375",
      "SA2_Name": "Brookton"
    },
    {
      "name": "KUNUNOPPIN",
      "postcode": "6489",
      "SA2_Name": "Mukinbudin"
    },
    {
      "name": "KUNUNURRA",
      "postcode": "6743",
      "SA2_Name": "Kununurra"
    },
    {
      "name": "KUPARTIYA",
      "postcode": "6765",
      "SA2_Name": "Halls Creek"
    },
    {
      "name": "KURNALPI",
      "postcode": "6431",
      "SA2_Name": "Kambalda - Coolgardie - Norseman"
    },
    {
      "name": "KURRENKUTTEN",
      "postcode": "6375",
      "SA2_Name": "Brookton"
    },
    {
      "name": "KWEDA",
      "postcode": "6306",
      "SA2_Name": "Brookton"
    },
    {
      "name": "KWELKAN",
      "postcode": "6490",
      "SA2_Name": "Mukinbudin"
    },
    {
      "name": "KWINANA BEACH",
      "postcode": "6167",
      "SA2_Name": "Kwinana Industrial"
    },
    {
      "name": "KWINANA TOWN CENTRE",
      "postcode": "6167",
      "SA2_Name": "Parmelia - Orelia"
    },
    {
      "name": "KWOLYIN",
      "postcode": "6385",
      "SA2_Name": "Merredin"
    },
    {
      "name": "LAGRANGE",
      "postcode": "6725",
      "SA2_Name": "Roebuck"
    },
    {
      "name": "LAKE ARGYLE",
      "postcode": "6743",
      "SA2_Name": "Kununurra"
    },
    {
      "name": "LAKE AUSTIN",
      "postcode": "6640",
      "SA2_Name": "Meekatharra"
    },
    {
      "name": "LAKE BIDDY",
      "postcode": "6355",
      "SA2_Name": "Kulin"
    },
    {
      "name": "LAKE BROWN",
      "postcode": "6479",
      "SA2_Name": "Mukinbudin"
    },
    {
      "name": "LAKE CAMM",
      "postcode": "6355",
      "SA2_Name": "Kulin"
    },
    {
      "name": "LAKE CARNEGIE",
      "postcode": "6646",
      "SA2_Name": "Meekatharra"
    },
    {
      "name": "LAKE CLIFTON",
      "postcode": "6215",
      "SA2_Name": "Waroona"
    },
    {
      "name": "LAKE DARLOT",
      "postcode": "6438",
      "SA2_Name": "Leinster - Leonora"
    },
    {
      "name": "LAKE DEBORAH",
      "postcode": "6484",
      "SA2_Name": "Mukinbudin"
    },
    {
      "name": "LAKE GRACE",
      "postcode": "6353",
      "SA2_Name": "Kulin"
    },
    {
      "name": "LAKE HINDS",
      "postcode": "6603",
      "SA2_Name": "Dowerin"
    },
    {
      "name": "LAKE JASPER",
      "postcode": "6260",
      "SA2_Name": "Pemberton"
    },
    {
      "name": "LAKE KING",
      "postcode": "6356",
      "SA2_Name": "Kulin"
    },
    {
      "name": "LAKE MARGARETTE",
      "postcode": "6475",
      "SA2_Name": "Dowerin"
    },
    {
      "name": "LAKE MUIR",
      "postcode": "6258",
      "SA2_Name": "Pemberton"
    },
    {
      "name": "LAKE NINAN",
      "postcode": "6603",
      "SA2_Name": "Dowerin"
    },
    {
      "name": "LAKE TOOLBRUNUP",
      "postcode": "6320",
      "SA2_Name": "Kojonup"
    },
    {
      "name": "LAKE WELLS",
      "postcode": "6440",
      "SA2_Name": "Leinster - Leonora"
    },
    {
      "name": "LAKELANDS",
      "postcode": "6180",
      "SA2_Name": "Mandurah - North"
    },
    {
      "name": "LAKEWOOD",
      "postcode": "6431",
      "SA2_Name": "Kambalda - Coolgardie - Norseman"
    },
    {
      "name": "LAMINGTON",
      "postcode": "6430",
      "SA2_Name": "Kalgoorlie - North"
    },
    {
      "name": "LANCELIN",
      "postcode": "6044",
      "SA2_Name": "Gingin - Dandaragan"
    },
    {
      "name": "LANDSDALE",
      "postcode": "6065",
      "SA2_Name": "Madeley - Darch - Landsdale"
    },
    {
      "name": "LANGE",
      "postcode": "6330",
      "SA2_Name": "Albany"
    },
    {
      "name": "LANGFORD",
      "postcode": "6147",
      "SA2_Name": "Beckenham - Kenwick - Langford"
    },
    {
      "name": "LATHAM",
      "postcode": "6616",
      "SA2_Name": "Morawa"
    },
    {
      "name": "LATHLAIN",
      "postcode": "6100",
      "SA2_Name": "Victoria Park - Lathlain - Burswood"
    },
    {
      "name": "LAVERTON",
      "postcode": "6440",
      "SA2_Name": "Leinster - Leonora"
    },
    {
      "name": "LEARMONTH",
      "postcode": "6707",
      "SA2_Name": "Exmouth"
    },
    {
      "name": "LEDA",
      "postcode": "6170",
      "SA2_Name": "Calista"
    },
    {
      "name": "LEDGE POINT",
      "postcode": "6043",
      "SA2_Name": "Gingin - Dandaragan"
    },
    {
      "name": "LEEDERVILLE",
      "postcode": "6007",
      "SA2_Name": "Mount Hawthorn - Leederville"
    },
    {
      "name": "LEEMAN",
      "postcode": "6514",
      "SA2_Name": "Morawa"
    },
    {
      "name": "LEEMING",
      "postcode": "6149",
      "SA2_Name": "Leeming"
    },
    {
      "name": "LEEUWIN",
      "postcode": "6290",
      "SA2_Name": "Augusta"
    },
    {
      "name": "LEINSTER",
      "postcode": "6437",
      "SA2_Name": "Leinster - Leonora"
    },
    {
      "name": "LENNARD BROOK",
      "postcode": "6503",
      "SA2_Name": "Gingin - Dandaragan"
    },
    {
      "name": "LEONORA",
      "postcode": "6438",
      "SA2_Name": "Leinster - Leonora"
    },
    {
      "name": "LESCHENAULT",
      "postcode": "6233",
      "SA2_Name": "Australind - Leschenault"
    },
    {
      "name": "LESLEY",
      "postcode": "6111",
      "SA2_Name": "Ashendon - Lesley"
    },
    {
      "name": "LESMURDIE",
      "postcode": "6076",
      "SA2_Name": "Lesmurdie - Bickley - Carmel"
    },
    {
      "name": "LEXIA",
      "postcode": "6079",
      "SA2_Name": "Wanneroo"
    },
    {
      "name": "LIME LAKE",
      "postcode": "6315",
      "SA2_Name": "Wagin"
    },
    {
      "name": "LINFARNE",
      "postcode": "6258",
      "SA2_Name": "Pemberton"
    },
    {
      "name": "LITTLE GROVE",
      "postcode": "6330",
      "SA2_Name": "Little Grove - Elleker"
    },
    {
      "name": "LITTLE ITALY",
      "postcode": "6355",
      "SA2_Name": "Kulin"
    },
    {
      "name": "LITTLE SANDY DESERT",
      "postcode": "6646",
      "SA2_Name": "Meekatharra"
    },
    {
      "name": "LOCKIER",
      "postcode": "6522",
      "SA2_Name": "Morawa"
    },
    {
      "name": "LOCKRIDGE",
      "postcode": "6054",
      "SA2_Name": "Lockridge - Kiara"
    },
    {
      "name": "LOCKYER",
      "postcode": "6330",
      "SA2_Name": "McKail - Willyung"
    },
    {
      "name": "LOL GRAY",
      "postcode": "6311",
      "SA2_Name": "Wagin"
    },
    {
      "name": "LONDONDERRY",
      "postcode": "6429",
      "SA2_Name": "Kambalda - Coolgardie - Norseman"
    },
    {
      "name": "LORT RIVER",
      "postcode": "6447",
      "SA2_Name": "Esperance Region"
    },
    {
      "name": "LOWDEN",
      "postcode": "6240",
      "SA2_Name": "Donnybrook - Balingup"
    },
    {
      "name": "LOWER CHITTERING",
      "postcode": "6084",
      "SA2_Name": "Chittering"
    },
    {
      "name": "LOWER HOTHAM",
      "postcode": "6390",
      "SA2_Name": "Murray"
    },
    {
      "name": "LOWER KING",
      "postcode": "6330",
      "SA2_Name": "Bayonet Head - Lower King"
    },
    {
      "name": "LOWLANDS",
      "postcode": "6330",
      "SA2_Name": "Albany Region"
    },
    {
      "name": "LUDLOW",
      "postcode": "6280",
      "SA2_Name": "Capel"
    },
    {
      "name": "LUMEAH",
      "postcode": "6395",
      "SA2_Name": "Kojonup"
    },
    {
      "name": "LYALLS MILL",
      "postcode": "6225",
      "SA2_Name": "Collie"
    },
    {
      "name": "LYNDON",
      "postcode": "6701",
      "SA2_Name": "Exmouth"
    },
    {
      "name": "LYNWOOD",
      "postcode": "6147",
      "SA2_Name": "Parkwood - Ferndale - Lynwood"
    },
    {
      "name": "MACLEOD",
      "postcode": "6701",
      "SA2_Name": "Exmouth"
    },
    {
      "name": "MADDINGTON",
      "postcode": "6109",
      "SA2_Name": "Maddington - Orange Grove - Martin"
    },
    {
      "name": "MADELEY",
      "postcode": "6065",
      "SA2_Name": "Madeley - Darch - Landsdale"
    },
    {
      "name": "MADORA BAY",
      "postcode": "6210",
      "SA2_Name": "Mandurah - North"
    },
    {
      "name": "MADURA",
      "postcode": "6443",
      "SA2_Name": "Kambalda - Coolgardie - Norseman"
    },
    {
      "name": "MAGENTA",
      "postcode": "6355",
      "SA2_Name": "Kulin"
    },
    {
      "name": "MAGITUP",
      "postcode": "6338",
      "SA2_Name": "Gnowangerup"
    },
    {
      "name": "MAHOGANY CREEK",
      "postcode": "6072",
      "SA2_Name": "Mundaring"
    },
    {
      "name": "MAHOMETS FLATS",
      "postcode": "6530",
      "SA2_Name": "Geraldton - South"
    },
    {
      "name": "MAIDA VALE",
      "postcode": "6057",
      "SA2_Name": "Kalamunda - Maida Vale - Gooseberry Hill"
    },
    {
      "name": "MAITLAND",
      "postcode": "6714",
      "SA2_Name": "Roebourne"
    },
    {
      "name": "MALABAINE",
      "postcode": "6401",
      "SA2_Name": "Northam"
    },
    {
      "name": "MALAGA",
      "postcode": "6090",
      "SA2_Name": "Malaga"
    },
    {
      "name": "MALEBELLING",
      "postcode": "6302",
      "SA2_Name": "York - Beverley"
    },
    {
      "name": "MALLEE HILL",
      "postcode": "6353",
      "SA2_Name": "Kulin"
    },
    {
      "name": "MALMALLING",
      "postcode": "6556",
      "SA2_Name": "Malmalling - Reservoir"
    },
    {
      "name": "MALYALLING",
      "postcode": "6370",
      "SA2_Name": "Kulin"
    },
    {
      "name": "MANDOGALUP",
      "postcode": "6167",
      "SA2_Name": "Casuarina - Wandi"
    },
    {
      "name": "MANDURAH",
      "postcode": "6210",
      "SA2_Name": "Mandurah"
    },
    {
      "name": "MANJIMUP",
      "postcode": "6258",
      "SA2_Name": "Manjimup"
    },
    {
      "name": "MANMANNING",
      "postcode": "6465",
      "SA2_Name": "Dowerin"
    },
    {
      "name": "MANNING",
      "postcode": "6152",
      "SA2_Name": "Manning - Waterford"
    },
    {
      "name": "MANYPEAKS",
      "postcode": "6328",
      "SA2_Name": "Albany Region"
    },
    {
      "name": "MARANGAROO",
      "postcode": "6064",
      "SA2_Name": "Marangaroo"
    },
    {
      "name": "MARANUP",
      "postcode": "6256",
      "SA2_Name": "Bridgetown - Boyup Brook"
    },
    {
      "name": "MARBELUP",
      "postcode": "6330",
      "SA2_Name": "Albany Region"
    },
    {
      "name": "MARBLE BAR",
      "postcode": "6760",
      "SA2_Name": "East Pilbara"
    },
    {
      "name": "MARCHAGEE",
      "postcode": "6515",
      "SA2_Name": "Morawa"
    },
    {
      "name": "MARDELLA",
      "postcode": "6125",
      "SA2_Name": "Mundijong"
    },
    {
      "name": "MARDIE",
      "postcode": "6714",
      "SA2_Name": "Roebourne"
    },
    {
      "name": "MARGARET RIVER",
      "postcode": "6285",
      "SA2_Name": "Margaret River"
    },
    {
      "name": "MARIGINIUP",
      "postcode": "6078",
      "SA2_Name": "Tapping - Ashby - Sinagra"
    },
    {
      "name": "MARMION",
      "postcode": "6020",
      "SA2_Name": "Sorrento - Marmion"
    },
    {
      "name": "MARNE",
      "postcode": "6608",
      "SA2_Name": "Moora"
    },
    {
      "name": "MARRACOONDA",
      "postcode": "6317",
      "SA2_Name": "Katanning"
    },
    {
      "name": "MARRADONG",
      "postcode": "6390",
      "SA2_Name": "Murray"
    },
    {
      "name": "MARRAH",
      "postcode": "6532",
      "SA2_Name": "Northampton - Mullewa - Greenough"
    },
    {
      "name": "MARRINUP",
      "postcode": "6213",
      "SA2_Name": "Murray"
    },
    {
      "name": "MARTIN",
      "postcode": "6110",
      "SA2_Name": "Maddington - Orange Grove - Martin"
    },
    {
      "name": "MARVEL LOCH",
      "postcode": "6426",
      "SA2_Name": "Mukinbudin"
    },
    {
      "name": "MARYBROOK",
      "postcode": "6280",
      "SA2_Name": "Busselton"
    },
    {
      "name": "MASSEY BAY",
      "postcode": "6701",
      "SA2_Name": "Carnarvon"
    },
    {
      "name": "MAYA",
      "postcode": "6614",
      "SA2_Name": "Morawa"
    },
    {
      "name": "MAYANUP",
      "postcode": "6244",
      "SA2_Name": "Bridgetown - Boyup Brook"
    },
    {
      "name": "MAYLANDS",
      "postcode": "6051",
      "SA2_Name": "Maylands"
    },
    {
      "name": "MCALINDEN",
      "postcode": "6225",
      "SA2_Name": "Bridgetown - Boyup Brook"
    },
    {
      "name": "MCBEATH",
      "postcode": "6770",
      "SA2_Name": "Halls Creek"
    },
    {
      "name": "MCKAIL",
      "postcode": "6330",
      "SA2_Name": "McKail - Willyung"
    },
    {
      "name": "MEADOW",
      "postcode": "6532",
      "SA2_Name": "Exmouth"
    },
    {
      "name": "MEADOW SPRINGS",
      "postcode": "6210",
      "SA2_Name": "Mandurah - North"
    },
    {
      "name": "MECKERING",
      "postcode": "6405",
      "SA2_Name": "Cunderdin"
    },
    {
      "name": "MEDA",
      "postcode": "6728",
      "SA2_Name": "Derby - West Kimberley"
    },
    {
      "name": "MEDINA",
      "postcode": "6167",
      "SA2_Name": "Calista"
    },
    {
      "name": "MEEKATHARRA",
      "postcode": "6642",
      "SA2_Name": "Meekatharra"
    },
    {
      "name": "MEEKING",
      "postcode": "6392",
      "SA2_Name": "Wagin"
    },
    {
      "name": "MEELON",
      "postcode": "6208",
      "SA2_Name": "Pinjarra"
    },
    {
      "name": "MEENAAR",
      "postcode": "6401",
      "SA2_Name": "Northam"
    },
    {
      "name": "MEERUP",
      "postcode": "6262",
      "SA2_Name": "Pemberton"
    },
    {
      "name": "MELALEUCA",
      "postcode": "6079",
      "SA2_Name": "Melaleuca - Lexia"
    },
    {
      "name": "MELVILLE",
      "postcode": "6156",
      "SA2_Name": "Melville"
    },
    {
      "name": "MENORA",
      "postcode": "6050",
      "SA2_Name": "Yokine - Coolbinia - Menora"
    },
    {
      "name": "MENZIES",
      "postcode": "6436",
      "SA2_Name": "Leinster - Leonora"
    },
    {
      "name": "MERILUP",
      "postcode": "6352",
      "SA2_Name": "Kulin"
    },
    {
      "name": "MERIVALE",
      "postcode": "6450",
      "SA2_Name": "Esperance Region"
    },
    {
      "name": "MERKANOOKA",
      "postcode": "6625",
      "SA2_Name": "Morawa"
    },
    {
      "name": "MERREDIN",
      "postcode": "6415",
      "SA2_Name": "Merredin"
    },
    {
      "name": "MERRIWA",
      "postcode": "6030",
      "SA2_Name": "Butler - Merriwa - Ridgewood"
    },
    {
      "name": "MERU",
      "postcode": "6530",
      "SA2_Name": "Geraldton - East"
    },
    {
      "name": "METRICUP",
      "postcode": "6280",
      "SA2_Name": "Busselton Region"
    },
    {
      "name": "METTLER",
      "postcode": "6328",
      "SA2_Name": "Albany Region"
    },
    {
      "name": "MIAMOON",
      "postcode": "6612",
      "SA2_Name": "Moora"
    },
    {
      "name": "MIDDLE SWAN",
      "postcode": "6056",
      "SA2_Name": "Middle Swan - Herne Hill"
    },
    {
      "name": "MIDDLESEX",
      "postcode": "6258",
      "SA2_Name": "Manjimup"
    },
    {
      "name": "MIDDLETON BEACH",
      "postcode": "6330",
      "SA2_Name": "Albany"
    },
    {
      "name": "MIDLAND",
      "postcode": "6056",
      "SA2_Name": "Midland - Guildford"
    },
    {
      "name": "MIDVALE",
      "postcode": "6056",
      "SA2_Name": "Swan View - Greenmount - Midvale"
    },
    {
      "name": "MILING",
      "postcode": "6575",
      "SA2_Name": "Moora"
    },
    {
      "name": "MILLARS WELL",
      "postcode": "6714",
      "SA2_Name": "Karratha"
    },
    {
      "name": "MILLBRIDGE",
      "postcode": "6232",
      "SA2_Name": "Eaton - Pelican Point"
    },
    {
      "name": "MILLBROOK",
      "postcode": "6330",
      "SA2_Name": "McKail - Willyung"
    },
    {
      "name": "MILLENDON",
      "postcode": "6056",
      "SA2_Name": "The Vines"
    },
    {
      "name": "MILLS LAKE",
      "postcode": "6336",
      "SA2_Name": "Gnowangerup"
    },
    {
      "name": "MILLSTREAM",
      "postcode": "6716",
      "SA2_Name": "Ashburton (WA)"
    },
    {
      "name": "MILO",
      "postcode": "6525",
      "SA2_Name": "Irwin"
    },
    {
      "name": "MILPARA",
      "postcode": "6330",
      "SA2_Name": "McKail - Willyung"
    },
    {
      "name": "MIMEGARRA",
      "postcode": "6507",
      "SA2_Name": "Gingin - Dandaragan"
    },
    {
      "name": "MINDARABIN",
      "postcode": "6336",
      "SA2_Name": "Gnowangerup"
    },
    {
      "name": "MINDARIE",
      "postcode": "6030",
      "SA2_Name": "Mindarie - Quinns Rocks - Jindalee"
    },
    {
      "name": "MINDARRA",
      "postcode": "6503",
      "SA2_Name": "Gingin - Dandaragan"
    },
    {
      "name": "MINDING",
      "postcode": "6315",
      "SA2_Name": "Wagin"
    },
    {
      "name": "MINGENEW",
      "postcode": "6522",
      "SA2_Name": "Morawa"
    },
    {
      "name": "MINIGIN",
      "postcode": "6312",
      "SA2_Name": "Narrogin"
    },
    {
      "name": "MINILYA",
      "postcode": "6701",
      "SA2_Name": "Exmouth"
    },
    {
      "name": "MINNENOOKA",
      "postcode": "6532",
      "SA2_Name": "Northampton - Mullewa - Greenough"
    },
    {
      "name": "MINNIVALE",
      "postcode": "6462",
      "SA2_Name": "Dowerin"
    },
    {
      "name": "MINYIRR",
      "postcode": "6725",
      "SA2_Name": "Broome"
    },
    {
      "name": "MIRA MAR",
      "postcode": "6330",
      "SA2_Name": "Albany"
    },
    {
      "name": "MIRRABOOKA",
      "postcode": "6061",
      "SA2_Name": "Balga - Mirrabooka"
    },
    {
      "name": "MITCHELL PLATEAU",
      "postcode": "6740",
      "SA2_Name": "Kununurra"
    },
    {
      "name": "MOBRUP",
      "postcode": "6395",
      "SA2_Name": "Kojonup"
    },
    {
      "name": "MOCARDY",
      "postcode": "6603",
      "SA2_Name": "Dowerin"
    },
    {
      "name": "MOGUMBER",
      "postcode": "6506",
      "SA2_Name": "Moora"
    },
    {
      "name": "MOKINE",
      "postcode": "6401",
      "SA2_Name": "Northam"
    },
    {
      "name": "MOKUP",
      "postcode": "6394",
      "SA2_Name": "Wagin"
    },
    {
      "name": "MOLLERIN",
      "postcode": "6475",
      "SA2_Name": "Dowerin"
    },
    {
      "name": "MOLLOY ISLAND",
      "postcode": "6290",
      "SA2_Name": "Augusta"
    },
    {
      "name": "MONJEBUP",
      "postcode": "6338",
      "SA2_Name": "Gnowangerup"
    },
    {
      "name": "MONJINGUP",
      "postcode": "6450",
      "SA2_Name": "Esperance"
    },
    {
      "name": "MONKEY MIA",
      "postcode": "6537",
      "SA2_Name": "Exmouth"
    },
    {
      "name": "MOODIARRUP",
      "postcode": "6393",
      "SA2_Name": "Wagin"
    },
    {
      "name": "MOOJEBING",
      "postcode": "6317",
      "SA2_Name": "Katanning"
    },
    {
      "name": "MOOLIABEENEE",
      "postcode": "6504",
      "SA2_Name": "Chittering"
    },
    {
      "name": "MOONDAH",
      "postcode": "6503",
      "SA2_Name": "Gingin - Dandaragan"
    },
    {
      "name": "MOONDYNE",
      "postcode": "6567",
      "SA2_Name": "Toodyay"
    },
    {
      "name": "MOONIES HILL",
      "postcode": "6320",
      "SA2_Name": "Kojonup"
    },
    {
      "name": "MOONYOONOOKA",
      "postcode": "6532",
      "SA2_Name": "Northampton - Mullewa - Greenough"
    },
    {
      "name": "MOORA",
      "postcode": "6510",
      "SA2_Name": "Moora"
    },
    {
      "name": "MOORE RIVER NATIONAL PARK",
      "postcode": "6503",
      "SA2_Name": "Gingin - Dandaragan"
    },
    {
      "name": "MOORIARY",
      "postcode": "6522",
      "SA2_Name": "Morawa"
    },
    {
      "name": "MOORINE ROCK",
      "postcode": "6425",
      "SA2_Name": "Mukinbudin"
    },
    {
      "name": "MORANGUP",
      "postcode": "6083",
      "SA2_Name": "Toodyay"
    },
    {
      "name": "MORAWA",
      "postcode": "6623",
      "SA2_Name": "Morawa"
    },
    {
      "name": "MORBINNING",
      "postcode": "6304",
      "SA2_Name": "York - Beverley"
    },
    {
      "name": "MORDALUP",
      "postcode": "6258",
      "SA2_Name": "Pemberton"
    },
    {
      "name": "MORESBY",
      "postcode": "6530",
      "SA2_Name": "Geraldton - North"
    },
    {
      "name": "MORGANTOWN",
      "postcode": "6701",
      "SA2_Name": "Carnarvon"
    },
    {
      "name": "MORLEY",
      "postcode": "6062",
      "SA2_Name": "Morley"
    },
    {
      "name": "MORNINGTON",
      "postcode": "6221",
      "SA2_Name": "Harvey"
    },
    {
      "name": "MOSMAN PARK",
      "postcode": "6012",
      "SA2_Name": "Mosman Park - Peppermint Grove"
    },
    {
      "name": "MOULYINNING",
      "postcode": "6351",
      "SA2_Name": "Kulin"
    },
    {
      "name": "MOUNT ADAMS",
      "postcode": "6525",
      "SA2_Name": "Irwin"
    },
    {
      "name": "MOUNT ANKETELL",
      "postcode": "6714",
      "SA2_Name": "Roebourne"
    },
    {
      "name": "MOUNT BARKER",
      "postcode": "6324",
      "SA2_Name": "Plantagenet"
    },
    {
      "name": "MOUNT BUDD",
      "postcode": "6522",
      "SA2_Name": "Morawa"
    },
    {
      "name": "MOUNT BURGES",
      "postcode": "6429",
      "SA2_Name": "Kambalda - Coolgardie - Norseman"
    },
    {
      "name": "MOUNT CAROLINE",
      "postcode": "6410",
      "SA2_Name": "Cunderdin"
    },
    {
      "name": "MOUNT CLAREMONT",
      "postcode": "6010",
      "SA2_Name": "Swanbourne - Mount Claremont"
    },
    {
      "name": "MOUNT CLARENCE",
      "postcode": "6330",
      "SA2_Name": "Albany"
    },
    {
      "name": "MOUNT COOKE",
      "postcode": "6390",
      "SA2_Name": "Brookton"
    },
    {
      "name": "MOUNT ELPHINSTONE",
      "postcode": "6330",
      "SA2_Name": "Little Grove - Elleker"
    },
    {
      "name": "MOUNT ERIN",
      "postcode": "6532",
      "SA2_Name": "Northampton - Mullewa - Greenough"
    },
    {
      "name": "MOUNT HAMPTON",
      "postcode": "6426",
      "SA2_Name": "Mukinbudin"
    },
    {
      "name": "MOUNT HARDEY",
      "postcode": "6302",
      "SA2_Name": "York - Beverley"
    },
    {
      "name": "MOUNT HARDMAN",
      "postcode": "6765",
      "SA2_Name": "Derby - West Kimberley"
    },
    {
      "name": "MOUNT HAWTHORN",
      "postcode": "6016",
      "SA2_Name": "Mount Hawthorn - Leederville"
    },
    {
      "name": "MOUNT HELENA",
      "postcode": "6082",
      "SA2_Name": "Mundaring"
    },
    {
      "name": "MOUNT HILL",
      "postcode": "6528",
      "SA2_Name": "Northampton - Mullewa - Greenough"
    },
    {
      "name": "MOUNT HOLLAND",
      "postcode": "6426",
      "SA2_Name": "Mukinbudin"
    },
    {
      "name": "MOUNT HORNER",
      "postcode": "6525",
      "SA2_Name": "Irwin"
    },
    {
      "name": "MOUNT JACKSON",
      "postcode": "6426",
      "SA2_Name": "Mukinbudin"
    },
    {
      "name": "MOUNT LAWLEY",
      "postcode": "6050",
      "SA2_Name": "Mount Lawley - Inglewood"
    },
    {
      "name": "MOUNT LINDESAY",
      "postcode": "6333",
      "SA2_Name": "Denmark"
    },
    {
      "name": "MOUNT MADDEN",
      "postcode": "6356",
      "SA2_Name": "Kulin"
    },
    {
      "name": "MOUNT MAGNET",
      "postcode": "6638",
      "SA2_Name": "Meekatharra"
    },
    {
      "name": "MOUNT MELVILLE",
      "postcode": "6330",
      "SA2_Name": "Albany"
    },
    {
      "name": "MOUNT NASURA",
      "postcode": "6112",
      "SA2_Name": "Mount Nasura - Mount Richon - Bedfordale"
    },
    {
      "name": "MOUNT NEY",
      "postcode": "6447",
      "SA2_Name": "Esperance Region"
    },
    {
      "name": "MOUNT OBSERVATION",
      "postcode": "6302",
      "SA2_Name": "York - Beverley"
    },
    {
      "name": "MOUNT PALMER",
      "postcode": "6426",
      "SA2_Name": "Mukinbudin"
    },
    {
      "name": "MOUNT PLEASANT",
      "postcode": "6153",
      "SA2_Name": "Booragoon"
    },
    {
      "name": "MOUNT RICHON",
      "postcode": "6112",
      "SA2_Name": "Mount Nasura - Mount Richon - Bedfordale"
    },
    {
      "name": "MOUNT ROMANCE",
      "postcode": "6333",
      "SA2_Name": "Denmark"
    },
    {
      "name": "MOUNT SHEILA",
      "postcode": "6751",
      "SA2_Name": "Ashburton (WA)"
    },
    {
      "name": "MOUNT SHERIDAN",
      "postcode": "6355",
      "SA2_Name": "Kulin"
    },
    {
      "name": "MOUNT STIRLING",
      "postcode": "6383",
      "SA2_Name": "Cunderdin"
    },
    {
      "name": "MOUNT TARCOOLA",
      "postcode": "6530",
      "SA2_Name": "Geraldton - South"
    },
    {
      "name": "MOUNT WALKER",
      "postcode": "6369",
      "SA2_Name": "Merredin"
    },
    {
      "name": "MOUNT WELLS",
      "postcode": "6390",
      "SA2_Name": "Murray"
    },
    {
      "name": "MOUROUBRA",
      "postcode": "6472",
      "SA2_Name": "Mukinbudin"
    },
    {
      "name": "MUCHEA",
      "postcode": "6501",
      "SA2_Name": "Chittering"
    },
    {
      "name": "MUCKENBURRA",
      "postcode": "6503",
      "SA2_Name": "Gingin - Dandaragan"
    },
    {
      "name": "MUELLER RANGES",
      "postcode": "6770",
      "SA2_Name": "Halls Creek"
    },
    {
      "name": "MUJA",
      "postcode": "6225",
      "SA2_Name": "Collie"
    },
    {
      "name": "MUKINBUDIN",
      "postcode": "6479",
      "SA2_Name": "Mukinbudin"
    },
    {
      "name": "MULATAGA",
      "postcode": "6714",
      "SA2_Name": "Karratha"
    },
    {
      "name": "MULGA DOWNS",
      "postcode": "6751",
      "SA2_Name": "Ashburton (WA)"
    },
    {
      "name": "MULLALOO",
      "postcode": "6027",
      "SA2_Name": "Mullaloo - Kallaroo"
    },
    {
      "name": "MULLALYUP",
      "postcode": "6252",
      "SA2_Name": "Donnybrook - Balingup"
    },
    {
      "name": "MULLEWA",
      "postcode": "6630",
      "SA2_Name": "Northampton - Mullewa - Greenough"
    },
    {
      "name": "MULLINGAR",
      "postcode": "6430",
      "SA2_Name": "Kalgoorlie - North"
    },
    {
      "name": "MULUCKINE",
      "postcode": "6401",
      "SA2_Name": "Northam"
    },
    {
      "name": "MUMBALLUP",
      "postcode": "6225",
      "SA2_Name": "Donnybrook - Balingup"
    },
    {
      "name": "MUMBERKINE",
      "postcode": "6401",
      "SA2_Name": "Dowerin"
    },
    {
      "name": "MUNDABULLANGANA",
      "postcode": "6721",
      "SA2_Name": "East Pilbara"
    },
    {
      "name": "MUNDARING",
      "postcode": "6073",
      "SA2_Name": "Mundaring"
    },
    {
      "name": "MUNDIJONG",
      "postcode": "6123",
      "SA2_Name": "Mundijong"
    },
    {
      "name": "MUNDRABILLA",
      "postcode": "6443",
      "SA2_Name": "Kambalda - Coolgardie - Norseman"
    },
    {
      "name": "MUNGALUP",
      "postcode": "6225",
      "SA2_Name": "Collie"
    },
    {
      "name": "MUNGLINUP",
      "postcode": "6450",
      "SA2_Name": "Esperance Region"
    },
    {
      "name": "MUNSTER",
      "postcode": "6166",
      "SA2_Name": "Coogee"
    },
    {
      "name": "MUNTADGIN",
      "postcode": "6420",
      "SA2_Name": "Merredin"
    },
    {
      "name": "MURADUP",
      "postcode": "6394",
      "SA2_Name": "Kojonup"
    },
    {
      "name": "MURCHISON",
      "postcode": "6630",
      "SA2_Name": "Meekatharra"
    },
    {
      "name": "MURDOCH",
      "postcode": "6150",
      "SA2_Name": "Murdoch - Kardinya"
    },
    {
      "name": "MURDONG",
      "postcode": "6317",
      "SA2_Name": "Katanning"
    },
    {
      "name": "MURESK",
      "postcode": "6401",
      "SA2_Name": "Northam"
    },
    {
      "name": "MYALUP",
      "postcode": "6220",
      "SA2_Name": "Harvey"
    },
    {
      "name": "MYARA",
      "postcode": "6207",
      "SA2_Name": "Murray"
    },
    {
      "name": "MYAREE",
      "postcode": "6154",
      "SA2_Name": "Melville"
    },
    {
      "name": "MYRUP",
      "postcode": "6450",
      "SA2_Name": "Esperance"
    },
    {
      "name": "NABAWA",
      "postcode": "6532",
      "SA2_Name": "Northampton - Mullewa - Greenough"
    },
    {
      "name": "NAIRIBIN",
      "postcode": "6350",
      "SA2_Name": "Kulin"
    },
    {
      "name": "NALKAIN",
      "postcode": "6485",
      "SA2_Name": "Dowerin"
    },
    {
      "name": "NALYERLUP",
      "postcode": "6338",
      "SA2_Name": "Gnowangerup"
    },
    {
      "name": "NAMBAN",
      "postcode": "6512",
      "SA2_Name": "Moora"
    },
    {
      "name": "NAMBEELUP",
      "postcode": "6207",
      "SA2_Name": "Pinjarra"
    },
    {
      "name": "NAMBUNG",
      "postcode": "6521",
      "SA2_Name": "Gingin - Dandaragan"
    },
    {
      "name": "NANARUP",
      "postcode": "6330",
      "SA2_Name": "Albany Region"
    },
    {
      "name": "NANGA",
      "postcode": "6537",
      "SA2_Name": "Exmouth"
    },
    {
      "name": "NANGA BROOK",
      "postcode": "6215",
      "SA2_Name": "Waroona"
    },
    {
      "name": "NANGEENAN",
      "postcode": "6414",
      "SA2_Name": "Merredin"
    },
    {
      "name": "NANGETTY",
      "postcode": "6522",
      "SA2_Name": "Morawa"
    },
    {
      "name": "NANNUP",
      "postcode": "6275",
      "SA2_Name": "Pemberton"
    },
    {
      "name": "NANSON",
      "postcode": "6532",
      "SA2_Name": "Northampton - Mullewa - Greenough"
    },
    {
      "name": "NANUTARRA",
      "postcode": "6751",
      "SA2_Name": "Ashburton (WA)"
    },
    {
      "name": "NAPIER",
      "postcode": "6330",
      "SA2_Name": "Albany Region"
    },
    {
      "name": "NARALING",
      "postcode": "6532",
      "SA2_Name": "Northampton - Mullewa - Greenough"
    },
    {
      "name": "NAREMBEEN",
      "postcode": "6369",
      "SA2_Name": "Merredin"
    },
    {
      "name": "NARNGULU",
      "postcode": "6532",
      "SA2_Name": "Geraldton - East"
    },
    {
      "name": "NARRA TARRA",
      "postcode": "6532",
      "SA2_Name": "Northampton - Mullewa - Greenough"
    },
    {
      "name": "NARRALOGGAN",
      "postcode": "6302",
      "SA2_Name": "York - Beverley"
    },
    {
      "name": "NARRIKUP",
      "postcode": "6326",
      "SA2_Name": "Plantagenet"
    },
    {
      "name": "NARROGIN",
      "postcode": "6312",
      "SA2_Name": "Narrogin"
    },
    {
      "name": "NARROGIN VALLEY",
      "postcode": "6312",
      "SA2_Name": "Narrogin"
    },
    {
      "name": "NATURALISTE",
      "postcode": "6281",
      "SA2_Name": "Busselton Region"
    },
    {
      "name": "NAVAL BASE",
      "postcode": "6165",
      "SA2_Name": "Kwinana Industrial"
    },
    {
      "name": "NEALE",
      "postcode": "6440",
      "SA2_Name": "Leinster - Leonora"
    },
    {
      "name": "NEDLANDS",
      "postcode": "6009",
      "SA2_Name": "Nedlands - Dalkeith - Crawley"
    },
    {
      "name": "NEEDILUP",
      "postcode": "6336",
      "SA2_Name": "Gnowangerup"
    },
    {
      "name": "NEENDALING",
      "postcode": "6353",
      "SA2_Name": "Kulin"
    },
    {
      "name": "NEERABUP",
      "postcode": "6031",
      "SA2_Name": "Carramar"
    },
    {
      "name": "NEERGABBY",
      "postcode": "6503",
      "SA2_Name": "Gingin - Dandaragan"
    },
    {
      "name": "NEMBUDDING",
      "postcode": "6485",
      "SA2_Name": "Dowerin"
    },
    {
      "name": "NERIDUP",
      "postcode": "6450",
      "SA2_Name": "Esperance Region"
    },
    {
      "name": "NERRAMYNE",
      "postcode": "6630",
      "SA2_Name": "Meekatharra"
    },
    {
      "name": "NERREN NERREN",
      "postcode": "6532",
      "SA2_Name": "Exmouth"
    },
    {
      "name": "NEW NORCIA",
      "postcode": "6509",
      "SA2_Name": "Moora"
    },
    {
      "name": "NEWCARLBEON",
      "postcode": "6475",
      "SA2_Name": "Dowerin"
    },
    {
      "name": "NEWDEGATE",
      "postcode": "6355",
      "SA2_Name": "Kulin"
    },
    {
      "name": "NEWLANDS",
      "postcode": "6251",
      "SA2_Name": "Donnybrook - Balingup"
    },
    {
      "name": "NEWMAN",
      "postcode": "6753",
      "SA2_Name": "Newman"
    },
    {
      "name": "NGAANYATJARRA-GILES",
      "postcode": "872",
      "SA2_Name": "Leinster - Leonora"
    },
    {
      "name": "NICKOL",
      "postcode": "6714",
      "SA2_Name": "Karratha"
    },
    {
      "name": "NILGEN",
      "postcode": "6044",
      "SA2_Name": "Gingin - Dandaragan"
    },
    {
      "name": "NILLUP",
      "postcode": "6288",
      "SA2_Name": "Augusta"
    },
    {
      "name": "NINGALOO",
      "postcode": "6701",
      "SA2_Name": "Exmouth"
    },
    {
      "name": "NIPPERING",
      "postcode": "6350",
      "SA2_Name": "Kulin"
    },
    {
      "name": "NIRIMBA",
      "postcode": "6208",
      "SA2_Name": "Pinjarra"
    },
    {
      "name": "NOGGERUP",
      "postcode": "6225",
      "SA2_Name": "Donnybrook - Balingup"
    },
    {
      "name": "NOKANING",
      "postcode": "6415",
      "SA2_Name": "Merredin"
    },
    {
      "name": "NOLBA",
      "postcode": "6532",
      "SA2_Name": "Northampton - Mullewa - Greenough"
    },
    {
      "name": "NOLLAMARA",
      "postcode": "6061",
      "SA2_Name": "Nollamara - Westminster"
    },
    {
      "name": "NOMANS LAKE",
      "postcode": "6312",
      "SA2_Name": "Wagin"
    },
    {
      "name": "NORANDA",
      "postcode": "6062",
      "SA2_Name": "Noranda"
    },
    {
      "name": "NORNALUP",
      "postcode": "6333",
      "SA2_Name": "Denmark"
    },
    {
      "name": "NORPA",
      "postcode": "6415",
      "SA2_Name": "Merredin"
    },
    {
      "name": "NORSEMAN",
      "postcode": "6443",
      "SA2_Name": "Kambalda - Coolgardie - Norseman"
    },
    {
      "name": "NORTH BAANDEE",
      "postcode": "6412",
      "SA2_Name": "Cunderdin"
    },
    {
      "name": "NORTH BANNISTER",
      "postcode": "6390",
      "SA2_Name": "Brookton"
    },
    {
      "name": "NORTH BEACH",
      "postcode": "6020",
      "SA2_Name": "Trigg - North Beach - Watermans Bay"
    },
    {
      "name": "NORTH BODALLIN",
      "postcode": "6424",
      "SA2_Name": "Mukinbudin"
    },
    {
      "name": "NORTH BOYANUP",
      "postcode": "6237",
      "SA2_Name": "Capel"
    },
    {
      "name": "NORTH BURNGUP",
      "postcode": "6353",
      "SA2_Name": "Kulin"
    },
    {
      "name": "NORTH CASCADE",
      "postcode": "6445",
      "SA2_Name": "Esperance Region"
    },
    {
      "name": "NORTH COOGEE",
      "postcode": "6163",
      "SA2_Name": "North Coogee"
    },
    {
      "name": "NORTH DANDALUP",
      "postcode": "6207",
      "SA2_Name": "Pinjarra"
    },
    {
      "name": "NORTH ERADU",
      "postcode": "6532",
      "SA2_Name": "Northampton - Mullewa - Greenough"
    },
    {
      "name": "NORTH FREMANTLE",
      "postcode": "6159",
      "SA2_Name": "Fremantle"
    },
    {
      "name": "NORTH GREENBUSHES",
      "postcode": "6254",
      "SA2_Name": "Bridgetown - Boyup Brook"
    },
    {
      "name": "NORTH JINDONG",
      "postcode": "6280",
      "SA2_Name": "Busselton Region"
    },
    {
      "name": "NORTH KELLERBERRIN",
      "postcode": "6410",
      "SA2_Name": "Cunderdin"
    },
    {
      "name": "NORTH KUKERIN",
      "postcode": "6352",
      "SA2_Name": "Kulin"
    },
    {
      "name": "NORTH KUNUNOPPIN",
      "postcode": "6489",
      "SA2_Name": "Mukinbudin"
    },
    {
      "name": "NORTH LAKE",
      "postcode": "6163",
      "SA2_Name": "Coolbellup"
    },
    {
      "name": "NORTH LAKE GRACE",
      "postcode": "6353",
      "SA2_Name": "Kulin"
    },
    {
      "name": "NORTH MOULYINNING",
      "postcode": "6351",
      "SA2_Name": "Kulin"
    },
    {
      "name": "NORTH PERTH",
      "postcode": "6006",
      "SA2_Name": "North Perth"
    },
    {
      "name": "NORTH PLANTATIONS",
      "postcode": "6701",
      "SA2_Name": "Carnarvon"
    },
    {
      "name": "NORTH STIRLINGS",
      "postcode": "6338",
      "SA2_Name": "Gnowangerup"
    },
    {
      "name": "NORTH TAMMIN",
      "postcode": "6409",
      "SA2_Name": "Cunderdin"
    },
    {
      "name": "NORTH TRAYNING",
      "postcode": "6488",
      "SA2_Name": "Mukinbudin"
    },
    {
      "name": "NORTH WALPOLE",
      "postcode": "6398",
      "SA2_Name": "Pemberton"
    },
    {
      "name": "NORTH WEST CAPE",
      "postcode": "6707",
      "SA2_Name": "Exmouth"
    },
    {
      "name": "NORTH WIALKI",
      "postcode": "6473",
      "SA2_Name": "Mukinbudin"
    },
    {
      "name": "NORTH YELBENI",
      "postcode": "6487",
      "SA2_Name": "Mukinbudin"
    },
    {
      "name": "NORTH YUNDERUP",
      "postcode": "6208",
      "SA2_Name": "Mandurah - East"
    },
    {
      "name": "NORTHAM",
      "postcode": "6401",
      "SA2_Name": "Northam"
    },
    {
      "name": "NORTHAMPTON",
      "postcode": "6535",
      "SA2_Name": "Northampton - Mullewa - Greenough"
    },
    {
      "name": "NORTHBRIDGE",
      "postcode": "6003",
      "SA2_Name": "Perth City"
    },
    {
      "name": "NORTHCLIFFE",
      "postcode": "6262",
      "SA2_Name": "Pemberton"
    },
    {
      "name": "NORTHERN GULLY",
      "postcode": "6532",
      "SA2_Name": "Northampton - Mullewa - Greenough"
    },
    {
      "name": "NOWERGUP",
      "postcode": "6032",
      "SA2_Name": "Carabooda - Pinjar"
    },
    {
      "name": "NUGADONG",
      "postcode": "6609",
      "SA2_Name": "Moora"
    },
    {
      "name": "NUKARNI",
      "postcode": "6480",
      "SA2_Name": "Merredin"
    },
    {
      "name": "NULLAGINE",
      "postcode": "6758",
      "SA2_Name": "East Pilbara"
    },
    {
      "name": "NULLAKI",
      "postcode": "6330",
      "SA2_Name": "Albany Region"
    },
    {
      "name": "NULSEN",
      "postcode": "6450",
      "SA2_Name": "Esperance"
    },
    {
      "name": "NUNGARIN",
      "postcode": "6490",
      "SA2_Name": "Mukinbudin"
    },
    {
      "name": "NUNIERRA",
      "postcode": "6630",
      "SA2_Name": "Northampton - Mullewa - Greenough"
    },
    {
      "name": "NUNILE",
      "postcode": "6566",
      "SA2_Name": "Toodyay"
    },
    {
      "name": "NYABING",
      "postcode": "6341",
      "SA2_Name": "Gnowangerup"
    },
    {
      "name": "OAKAJEE",
      "postcode": "6532",
      "SA2_Name": "Geraldton - North"
    },
    {
      "name": "OAKFORD",
      "postcode": "6121",
      "SA2_Name": "Mundijong"
    },
    {
      "name": "OAKLEY",
      "postcode": "6208",
      "SA2_Name": "Pinjarra"
    },
    {
      "name": "OCEAN BEACH",
      "postcode": "6333",
      "SA2_Name": "Denmark"
    },
    {
      "name": "OCEAN REEF",
      "postcode": "6027",
      "SA2_Name": "Ocean Reef"
    },
    {
      "name": "O'CONNOR",
      "postcode": "6163",
      "SA2_Name": "O'Connor (WA)"
    },
    {
      "name": "OGILVIE",
      "postcode": "6535",
      "SA2_Name": "Northampton - Mullewa - Greenough"
    },
    {
      "name": "OLD PLAINS",
      "postcode": "6569",
      "SA2_Name": "Moora"
    },
    {
      "name": "OLDBURY",
      "postcode": "6121",
      "SA2_Name": "Mundijong"
    },
    {
      "name": "ONGERUP",
      "postcode": "6336",
      "SA2_Name": "Gnowangerup"
    },
    {
      "name": "ONSLOW",
      "postcode": "6710",
      "SA2_Name": "Ashburton (WA)"
    },
    {
      "name": "OOMBULGURRI",
      "postcode": "6740",
      "SA2_Name": "Kununurra"
    },
    {
      "name": "ORA BANDA",
      "postcode": "6431",
      "SA2_Name": "Kambalda - Coolgardie - Norseman"
    },
    {
      "name": "ORANA",
      "postcode": "6330",
      "SA2_Name": "McKail - Willyung"
    },
    {
      "name": "ORANGE GROVE",
      "postcode": "6109",
      "SA2_Name": "Maddington - Orange Grove - Martin"
    },
    {
      "name": "ORANGE SPRINGS",
      "postcode": "6503",
      "SA2_Name": "Gingin - Dandaragan"
    },
    {
      "name": "ORCHID VALLEY",
      "postcode": "6394",
      "SA2_Name": "Kojonup"
    },
    {
      "name": "ORD RIVER",
      "postcode": "6770",
      "SA2_Name": "Halls Creek"
    },
    {
      "name": "ORELIA",
      "postcode": "6167",
      "SA2_Name": "Parmelia - Orelia"
    },
    {
      "name": "OSBORNE PARK",
      "postcode": "6017",
      "SA2_Name": "Stirling - Osborne Park"
    },
    {
      "name": "OSMINGTON",
      "postcode": "6285",
      "SA2_Name": "Augusta"
    },
    {
      "name": "PADBURY",
      "postcode": "6025",
      "SA2_Name": "Padbury"
    },
    {
      "name": "PALGARUP",
      "postcode": "6258",
      "SA2_Name": "Pemberton"
    },
    {
      "name": "PALLINUP",
      "postcode": "6335",
      "SA2_Name": "Gnowangerup"
    },
    {
      "name": "PALMDALE",
      "postcode": "6328",
      "SA2_Name": "Albany Region"
    },
    {
      "name": "PALMER",
      "postcode": "6225",
      "SA2_Name": "Collie"
    },
    {
      "name": "PALMYRA",
      "postcode": "6157",
      "SA2_Name": "Bicton - Palmyra"
    },
    {
      "name": "PANNAWONICA",
      "postcode": "6716",
      "SA2_Name": "Ashburton (WA)"
    },
    {
      "name": "PANTAPIN",
      "postcode": "6384",
      "SA2_Name": "Cunderdin"
    },
    {
      "name": "PARABURDOO",
      "postcode": "6754",
      "SA2_Name": "Ashburton (WA)"
    },
    {
      "name": "PARADISE",
      "postcode": "6236",
      "SA2_Name": "Dardanup"
    },
    {
      "name": "PARDOO",
      "postcode": "6721",
      "SA2_Name": "East Pilbara"
    },
    {
      "name": "PARKER RANGE",
      "postcode": "6426",
      "SA2_Name": "Mukinbudin"
    },
    {
      "name": "PARKERVILLE",
      "postcode": "6081",
      "SA2_Name": "Mundaring"
    },
    {
      "name": "PARKESTON",
      "postcode": "6434",
      "SA2_Name": "Kalgoorlie"
    },
    {
      "name": "PARKFIELD",
      "postcode": "6233",
      "SA2_Name": "Harvey"
    },
    {
      "name": "PARKLANDS",
      "postcode": "6180",
      "SA2_Name": "Mandurah - North"
    },
    {
      "name": "PARKWOOD",
      "postcode": "6147",
      "SA2_Name": "Parkwood - Ferndale - Lynwood"
    },
    {
      "name": "PARMELIA",
      "postcode": "6167",
      "SA2_Name": "Parmelia - Orelia"
    },
    {
      "name": "PARRYVILLE",
      "postcode": "6333",
      "SA2_Name": "Denmark"
    },
    {
      "name": "PAULLS VALLEY",
      "postcode": "6076",
      "SA2_Name": "Lesmurdie - Bickley - Carmel"
    },
    {
      "name": "PAYNEDALE",
      "postcode": "6239",
      "SA2_Name": "Donnybrook - Balingup"
    },
    {
      "name": "PAYNES FIND",
      "postcode": "6612",
      "SA2_Name": "Meekatharra"
    },
    {
      "name": "PAYNESVILLE",
      "postcode": "6638",
      "SA2_Name": "Meekatharra"
    },
    {
      "name": "PEACEFUL BAY",
      "postcode": "6333",
      "SA2_Name": "Denmark"
    },
    {
      "name": "PEAK HILL",
      "postcode": "6642",
      "SA2_Name": "Meekatharra"
    },
    {
      "name": "PEARSALL",
      "postcode": "6065",
      "SA2_Name": "Wanneroo"
    },
    {
      "name": "PEEDAMULLA",
      "postcode": "6710",
      "SA2_Name": "Ashburton (WA)"
    },
    {
      "name": "PEERABEELUP",
      "postcode": "6260",
      "SA2_Name": "Pemberton"
    },
    {
      "name": "PEGS CREEK",
      "postcode": "6714",
      "SA2_Name": "Karratha"
    },
    {
      "name": "PELICAN POINT",
      "postcode": "6230",
      "SA2_Name": "Eaton - Pelican Point"
    },
    {
      "name": "PEMBERTON",
      "postcode": "6260",
      "SA2_Name": "Pemberton"
    },
    {
      "name": "PEPPERMINT GROVE",
      "postcode": "6011",
      "SA2_Name": "Mosman Park - Peppermint Grove"
    },
    {
      "name": "PEPPERMINT GROVE BEACH",
      "postcode": "6271",
      "SA2_Name": "Capel"
    },
    {
      "name": "PERENJORI",
      "postcode": "6620",
      "SA2_Name": "Morawa"
    },
    {
      "name": "PERILLUP",
      "postcode": "6324",
      "SA2_Name": "Plantagenet"
    },
    {
      "name": "PERON",
      "postcode": "6168",
      "SA2_Name": "Rockingham"
    },
    {
      "name": "PERTH",
      "postcode": "6000",
      "SA2_Name": "Perth City"
    },
    {
      "name": "PERTH AIRPORT",
      "postcode": "6105",
      "SA2_Name": "Perth Airport"
    },
    {
      "name": "PERUP",
      "postcode": "6258",
      "SA2_Name": "Pemberton"
    },
    {
      "name": "PETRUDOR",
      "postcode": "6468",
      "SA2_Name": "Moora"
    },
    {
      "name": "PIARA WATERS",
      "postcode": "6112",
      "SA2_Name": "Forrestdale - Harrisdale - Piara Waters"
    },
    {
      "name": "PIAWANING",
      "postcode": "6572",
      "SA2_Name": "Moora"
    },
    {
      "name": "PICCADILLY",
      "postcode": "6430",
      "SA2_Name": "Kalgoorlie - North"
    },
    {
      "name": "PICKERING BROOK",
      "postcode": "6076",
      "SA2_Name": "Lesmurdie - Bickley - Carmel"
    },
    {
      "name": "PICTON",
      "postcode": "6229",
      "SA2_Name": "East Bunbury - Glen Iris"
    },
    {
      "name": "PICTON EAST",
      "postcode": "6229",
      "SA2_Name": "Dardanup"
    },
    {
      "name": "PIESSE BROOK",
      "postcode": "6076",
      "SA2_Name": "Lesmurdie - Bickley - Carmel"
    },
    {
      "name": "PIESSEVILLE",
      "postcode": "6315",
      "SA2_Name": "Wagin"
    },
    {
      "name": "PINDAR",
      "postcode": "6631",
      "SA2_Name": "Northampton - Mullewa - Greenough"
    },
    {
      "name": "PINGARING",
      "postcode": "6357",
      "SA2_Name": "Kulin"
    },
    {
      "name": "PINGELLY",
      "postcode": "6308",
      "SA2_Name": "Brookton"
    },
    {
      "name": "PINGRUP",
      "postcode": "6343",
      "SA2_Name": "Gnowangerup"
    },
    {
      "name": "PINJAR",
      "postcode": "6078",
      "SA2_Name": "Carabooda - Pinjar"
    },
    {
      "name": "PINJARRA",
      "postcode": "6208",
      "SA2_Name": "Pinjarra"
    },
    {
      "name": "PINK LAKE",
      "postcode": "6450",
      "SA2_Name": "Esperance"
    },
    {
      "name": "PINTHARUKA",
      "postcode": "6623",
      "SA2_Name": "Morawa"
    },
    {
      "name": "PINWERNYING",
      "postcode": "6317",
      "SA2_Name": "Katanning"
    },
    {
      "name": "PIPPINGARRA",
      "postcode": "6722",
      "SA2_Name": "East Pilbara"
    },
    {
      "name": "PITHARA",
      "postcode": "6608",
      "SA2_Name": "Moora"
    },
    {
      "name": "PLUMRIDGE LAKES",
      "postcode": "6431",
      "SA2_Name": "Leinster - Leonora"
    },
    {
      "name": "POINT GREY",
      "postcode": "6208",
      "SA2_Name": "Pinjarra"
    },
    {
      "name": "POINT SAMSON",
      "postcode": "6720",
      "SA2_Name": "Roebourne"
    },
    {
      "name": "POPANYINNING",
      "postcode": "6309",
      "SA2_Name": "Wagin"
    },
    {
      "name": "PORONGURUP",
      "postcode": "6324",
      "SA2_Name": "Plantagenet"
    },
    {
      "name": "PORT ALBANY",
      "postcode": "6330",
      "SA2_Name": "Albany"
    },
    {
      "name": "PORT DENISON",
      "postcode": "6525",
      "SA2_Name": "Irwin"
    },
    {
      "name": "PORT HEDLAND",
      "postcode": "6721",
      "SA2_Name": "Port Hedland"
    },
    {
      "name": "PORT KENNEDY",
      "postcode": "6172",
      "SA2_Name": "Port Kennedy"
    },
    {
      "name": "POSTANS",
      "postcode": "6167",
      "SA2_Name": "Hope Valley - Postans"
    },
    {
      "name": "PRESTON BEACH",
      "postcode": "6215",
      "SA2_Name": "Waroona"
    },
    {
      "name": "PRESTON SETTLEMENT",
      "postcode": "6225",
      "SA2_Name": "Collie"
    },
    {
      "name": "PREVELLY",
      "postcode": "6285",
      "SA2_Name": "Margaret River"
    },
    {
      "name": "PRINCE REGENT RIVER",
      "postcode": "6740",
      "SA2_Name": "Kununurra"
    },
    {
      "name": "PUMPHREYS BRIDGE",
      "postcode": "6308",
      "SA2_Name": "Brookton"
    },
    {
      "name": "PURNULULU",
      "postcode": "6770",
      "SA2_Name": "Halls Creek"
    },
    {
      "name": "QUAIRADING",
      "postcode": "6383",
      "SA2_Name": "Cunderdin"
    },
    {
      "name": "QUALEUP",
      "postcode": "6394",
      "SA2_Name": "Kojonup"
    },
    {
      "name": "QUEDJINUP",
      "postcode": "6281",
      "SA2_Name": "Busselton Region"
    },
    {
      "name": "QUEENS PARK",
      "postcode": "6107",
      "SA2_Name": "Cannington - Queens Park"
    },
    {
      "name": "QUEENWOOD",
      "postcode": "6239",
      "SA2_Name": "Donnybrook - Balingup"
    },
    {
      "name": "QUELAGETTING",
      "postcode": "6405",
      "SA2_Name": "Cunderdin"
    },
    {
      "name": "QUELLINGTON",
      "postcode": "6302",
      "SA2_Name": "York - Beverley"
    },
    {
      "name": "QUINDALUP",
      "postcode": "6281",
      "SA2_Name": "Busselton Region"
    },
    {
      "name": "QUINDANNING",
      "postcode": "6391",
      "SA2_Name": "Murray"
    },
    {
      "name": "QUINNINUP",
      "postcode": "6258",
      "SA2_Name": "Pemberton"
    },
    {
      "name": "QUINNS ROCKS",
      "postcode": "6030",
      "SA2_Name": "Mindarie - Quinns Rocks - Jindalee"
    },
    {
      "name": "RANFORD",
      "postcode": "6390",
      "SA2_Name": "Murray"
    },
    {
      "name": "RANGEWAY",
      "postcode": "6530",
      "SA2_Name": "Geraldton - East"
    },
    {
      "name": "RAVENSTHORPE",
      "postcode": "6346",
      "SA2_Name": "Esperance Region"
    },
    {
      "name": "RAVENSWOOD",
      "postcode": "6208",
      "SA2_Name": "Pinjarra"
    },
    {
      "name": "RAWLINNA",
      "postcode": "6434",
      "SA2_Name": "Kambalda - Coolgardie - Norseman"
    },
    {
      "name": "RED GULLY",
      "postcode": "6503",
      "SA2_Name": "Gingin - Dandaragan"
    },
    {
      "name": "RED HILL",
      "postcode": "6056",
      "SA2_Name": "Stratton - Jane Brook"
    },
    {
      "name": "REDBANK",
      "postcode": "6721",
      "SA2_Name": "Port Hedland"
    },
    {
      "name": "REDCLIFFE",
      "postcode": "6104",
      "SA2_Name": "Belmont - Ascot - Redcliffe"
    },
    {
      "name": "REDGATE",
      "postcode": "6286",
      "SA2_Name": "Augusta"
    },
    {
      "name": "REDMOND",
      "postcode": "6327",
      "SA2_Name": "Albany Region"
    },
    {
      "name": "REDMOND WEST",
      "postcode": "6327",
      "SA2_Name": "Albany Region"
    },
    {
      "name": "REEDY",
      "postcode": "6640",
      "SA2_Name": "Meekatharra"
    },
    {
      "name": "REGANS FORD",
      "postcode": "6507",
      "SA2_Name": "Gingin - Dandaragan"
    },
    {
      "name": "REINSCOURT",
      "postcode": "6280",
      "SA2_Name": "Busselton"
    },
    {
      "name": "REMLAP",
      "postcode": "6472",
      "SA2_Name": "Mukinbudin"
    },
    {
      "name": "RESERVOIR",
      "postcode": "6076",
      "SA2_Name": "Malmalling - Reservoir"
    },
    {
      "name": "RIDGEWOOD",
      "postcode": "6030",
      "SA2_Name": "Butler - Merriwa - Ridgewood"
    },
    {
      "name": "RINGBARK",
      "postcode": "6258",
      "SA2_Name": "Manjimup"
    },
    {
      "name": "RIVERTON",
      "postcode": "6148",
      "SA2_Name": "Riverton - Shelley - Rossmoyne"
    },
    {
      "name": "RIVERVALE",
      "postcode": "6103",
      "SA2_Name": "Rivervale - Kewdale - Cloverdale"
    },
    {
      "name": "ROBINSON",
      "postcode": "6330",
      "SA2_Name": "Little Grove - Elleker"
    },
    {
      "name": "ROCKINGHAM",
      "postcode": "6168",
      "SA2_Name": "Rockingham"
    },
    {
      "name": "ROCKLEA",
      "postcode": "6751",
      "SA2_Name": "Ashburton (WA)"
    },
    {
      "name": "ROCKWELL",
      "postcode": "6532",
      "SA2_Name": "Northampton - Mullewa - Greenough"
    },
    {
      "name": "ROCKY GULLY",
      "postcode": "6397",
      "SA2_Name": "Plantagenet"
    },
    {
      "name": "ROEBOURNE",
      "postcode": "6718",
      "SA2_Name": "Roebourne"
    },
    {
      "name": "ROEBUCK",
      "postcode": "6725",
      "SA2_Name": "Roebuck"
    },
    {
      "name": "ROELANDS",
      "postcode": "6226",
      "SA2_Name": "Harvey"
    },
    {
      "name": "ROLEYSTONE",
      "postcode": "6111",
      "SA2_Name": "Roleystone"
    },
    {
      "name": "ROSA BROOK",
      "postcode": "6285",
      "SA2_Name": "Augusta"
    },
    {
      "name": "ROSA GLEN",
      "postcode": "6285",
      "SA2_Name": "Augusta"
    },
    {
      "name": "ROSSMORE",
      "postcode": "6401",
      "SA2_Name": "Dowerin"
    },
    {
      "name": "ROSSMOYNE",
      "postcode": "6148",
      "SA2_Name": "Riverton - Shelley - Rossmoyne"
    },
    {
      "name": "ROTHSAY",
      "postcode": "6620",
      "SA2_Name": "Morawa"
    },
    {
      "name": "ROTTNEST ISLAND",
      "postcode": "6161",
      "SA2_Name": "Fremantle"
    },
    {
      "name": "RUABON",
      "postcode": "6280",
      "SA2_Name": "Busselton Region"
    },
    {
      "name": "RUDDS GULLY",
      "postcode": "6532",
      "SA2_Name": "Geraldton - East"
    },
    {
      "name": "RYANSBROOK",
      "postcode": "6395",
      "SA2_Name": "Kojonup"
    },
    {
      "name": "SABINA RIVER",
      "postcode": "6280",
      "SA2_Name": "Busselton Region"
    },
    {
      "name": "SAFETY BAY",
      "postcode": "6169",
      "SA2_Name": "Safety Bay - Shoalwater"
    },
    {
      "name": "SALMON GUMS",
      "postcode": "6445",
      "SA2_Name": "Esperance Region"
    },
    {
      "name": "SALTER POINT",
      "postcode": "6152",
      "SA2_Name": "Manning - Waterford"
    },
    {
      "name": "SAMSON",
      "postcode": "6163",
      "SA2_Name": "Fremantle - South"
    },
    {
      "name": "SAN REMO",
      "postcode": "6210",
      "SA2_Name": "Mandurah - North"
    },
    {
      "name": "SANDPATCH",
      "postcode": "6330",
      "SA2_Name": "Little Grove - Elleker"
    },
    {
      "name": "SANDSPRINGS",
      "postcode": "6532",
      "SA2_Name": "Northampton - Mullewa - Greenough"
    },
    {
      "name": "SANDSTONE",
      "postcode": "6639",
      "SA2_Name": "Meekatharra"
    },
    {
      "name": "SANDY GULLY",
      "postcode": "6535",
      "SA2_Name": "Northampton - Mullewa - Greenough"
    },
    {
      "name": "SAWYERS VALLEY",
      "postcode": "6074",
      "SA2_Name": "Mundaring"
    },
    {
      "name": "SCADDAN",
      "postcode": "6447",
      "SA2_Name": "Esperance Region"
    },
    {
      "name": "SCARBOROUGH",
      "postcode": "6019",
      "SA2_Name": "Scarborough"
    },
    {
      "name": "SCHROEDER",
      "postcode": "6285",
      "SA2_Name": "Augusta"
    },
    {
      "name": "SCOTSDALE",
      "postcode": "6333",
      "SA2_Name": "Denmark"
    },
    {
      "name": "SCOTT RIVER",
      "postcode": "6288",
      "SA2_Name": "Augusta"
    },
    {
      "name": "SCOTT RIVER EAST",
      "postcode": "6275",
      "SA2_Name": "Pemberton"
    },
    {
      "name": "SCOTTS BROOK",
      "postcode": "6244",
      "SA2_Name": "Bridgetown - Boyup Brook"
    },
    {
      "name": "SEABIRD",
      "postcode": "6042",
      "SA2_Name": "Gingin - Dandaragan"
    },
    {
      "name": "SECRET HARBOUR",
      "postcode": "6173",
      "SA2_Name": "Singleton - Golden Bay - Secret Harbour"
    },
    {
      "name": "SEPPINGS",
      "postcode": "6330",
      "SA2_Name": "Albany"
    },
    {
      "name": "SERPENTINE",
      "postcode": "6125",
      "SA2_Name": "Serpentine - Jarrahdale"
    },
    {
      "name": "SEVILLE GROVE",
      "postcode": "6112",
      "SA2_Name": "Seville Grove"
    },
    {
      "name": "SHACKLETON",
      "postcode": "6386",
      "SA2_Name": "Merredin"
    },
    {
      "name": "SHADFORTH",
      "postcode": "6333",
      "SA2_Name": "Denmark"
    },
    {
      "name": "SHANNON",
      "postcode": "6262",
      "SA2_Name": "Pemberton"
    },
    {
      "name": "SHARK BAY",
      "postcode": "6537",
      "SA2_Name": "Exmouth"
    },
    {
      "name": "SHELLEY",
      "postcode": "6148",
      "SA2_Name": "Riverton - Shelley - Rossmoyne"
    },
    {
      "name": "SHENTON PARK",
      "postcode": "6008",
      "SA2_Name": "Subiaco - Shenton Park"
    },
    {
      "name": "SHERLOCK",
      "postcode": "6714",
      "SA2_Name": "Roebourne"
    },
    {
      "name": "SHOALWATER",
      "postcode": "6169",
      "SA2_Name": "Safety Bay - Shoalwater"
    },
    {
      "name": "SHOTTS",
      "postcode": "6225",
      "SA2_Name": "Collie"
    },
    {
      "name": "SIESTA PARK",
      "postcode": "6280",
      "SA2_Name": "Busselton"
    },
    {
      "name": "SILVER SANDS",
      "postcode": "6210",
      "SA2_Name": "Mandurah"
    },
    {
      "name": "SINAGRA",
      "postcode": "6065",
      "SA2_Name": "Wanneroo"
    },
    {
      "name": "SINCLAIR",
      "postcode": "6450",
      "SA2_Name": "Esperance"
    },
    {
      "name": "SINGLETON",
      "postcode": "6175",
      "SA2_Name": "Singleton - Golden Bay - Secret Harbour"
    },
    {
      "name": "SIR SAMUEL",
      "postcode": "6437",
      "SA2_Name": "Leinster - Leonora"
    },
    {
      "name": "SKELETON ROCK",
      "postcode": "6426",
      "SA2_Name": "Mukinbudin"
    },
    {
      "name": "SMITH BROOK",
      "postcode": "6258",
      "SA2_Name": "Pemberton"
    },
    {
      "name": "SOLUS",
      "postcode": "6207",
      "SA2_Name": "Murray"
    },
    {
      "name": "SOMERVILLE",
      "postcode": "6430",
      "SA2_Name": "Kalgoorlie"
    },
    {
      "name": "SORRENTO",
      "postcode": "6020",
      "SA2_Name": "Sorrento - Marmion"
    },
    {
      "name": "SOUTH BODALLIN",
      "postcode": "6424",
      "SA2_Name": "Mukinbudin"
    },
    {
      "name": "SOUTH BOULDER",
      "postcode": "6432",
      "SA2_Name": "Boulder"
    },
    {
      "name": "SOUTH BUNBURY",
      "postcode": "6230",
      "SA2_Name": "South Bunbury - Bunbury"
    },
    {
      "name": "SOUTH BURRACOPPIN",
      "postcode": "6421",
      "SA2_Name": "Merredin"
    },
    {
      "name": "SOUTH CARNARVON",
      "postcode": "6701",
      "SA2_Name": "Carnarvon"
    },
    {
      "name": "SOUTH DATATINE",
      "postcode": "6317",
      "SA2_Name": "Katanning"
    },
    {
      "name": "SOUTH DOODLAKINE",
      "postcode": "6411",
      "SA2_Name": "Cunderdin"
    },
    {
      "name": "SOUTH FREMANTLE",
      "postcode": "6162",
      "SA2_Name": "Fremantle - South"
    },
    {
      "name": "SOUTH GLENCOE",
      "postcode": "6317",
      "SA2_Name": "Katanning"
    },
    {
      "name": "SOUTH GREENOUGH",
      "postcode": "6528",
      "SA2_Name": "Northampton - Mullewa - Greenough"
    },
    {
      "name": "SOUTH GUILDFORD",
      "postcode": "6055",
      "SA2_Name": "Hazelmere - Guildford"
    },
    {
      "name": "SOUTH HEDLAND",
      "postcode": "6722",
      "SA2_Name": "South Hedland"
    },
    {
      "name": "SOUTH KALGOORLIE",
      "postcode": "6430",
      "SA2_Name": "Kalgoorlie"
    },
    {
      "name": "SOUTH KUKERIN",
      "postcode": "6352",
      "SA2_Name": "Kulin"
    },
    {
      "name": "SOUTH KUMMININ",
      "postcode": "6368",
      "SA2_Name": "Merredin"
    },
    {
      "name": "SOUTH KUNUNOPPIN",
      "postcode": "6489",
      "SA2_Name": "Mukinbudin"
    },
    {
      "name": "SOUTH LAKE",
      "postcode": "6164",
      "SA2_Name": "South Lake - Cockburn Central"
    },
    {
      "name": "SOUTH LAKE GRACE",
      "postcode": "6353",
      "SA2_Name": "Kulin"
    },
    {
      "name": "SOUTH MURCHISON",
      "postcode": "6635",
      "SA2_Name": "Meekatharra"
    },
    {
      "name": "SOUTH NEWDEGATE",
      "postcode": "6355",
      "SA2_Name": "Kulin"
    },
    {
      "name": "SOUTH PERTH",
      "postcode": "6151",
      "SA2_Name": "South Perth - Kensington"
    },
    {
      "name": "SOUTH PLANTATIONS",
      "postcode": "6701",
      "SA2_Name": "Carnarvon"
    },
    {
      "name": "SOUTH QUAIRADING",
      "postcode": "6383",
      "SA2_Name": "Cunderdin"
    },
    {
      "name": "SOUTH STIRLING",
      "postcode": "6324",
      "SA2_Name": "Albany Region"
    },
    {
      "name": "SOUTH TAMMIN",
      "postcode": "6409",
      "SA2_Name": "Cunderdin"
    },
    {
      "name": "SOUTH TRAYNING",
      "postcode": "6488",
      "SA2_Name": "Mukinbudin"
    },
    {
      "name": "SOUTH YELBENI",
      "postcode": "6487",
      "SA2_Name": "Mukinbudin"
    },
    {
      "name": "SOUTH YILGARN",
      "postcode": "6426",
      "SA2_Name": "Mukinbudin"
    },
    {
      "name": "SOUTH YUNA",
      "postcode": "6532",
      "SA2_Name": "Northampton - Mullewa - Greenough"
    },
    {
      "name": "SOUTH YUNDERUP",
      "postcode": "6208",
      "SA2_Name": "Mandurah - East"
    },
    {
      "name": "SOUTHAMPTON",
      "postcode": "6253",
      "SA2_Name": "Donnybrook - Balingup"
    },
    {
      "name": "SOUTHERN BROOK",
      "postcode": "6401",
      "SA2_Name": "Northam"
    },
    {
      "name": "SOUTHERN CROSS",
      "postcode": "6426",
      "SA2_Name": "Mukinbudin"
    },
    {
      "name": "SOUTHERN RIVER",
      "postcode": "6110",
      "SA2_Name": "Huntingdale - Southern River"
    },
    {
      "name": "SPALDING",
      "postcode": "6530",
      "SA2_Name": "Geraldton"
    },
    {
      "name": "SPEARWOOD",
      "postcode": "6163",
      "SA2_Name": "Spearwood"
    },
    {
      "name": "SPENCER PARK",
      "postcode": "6330",
      "SA2_Name": "Albany"
    },
    {
      "name": "SPENCERS BROOK",
      "postcode": "6401",
      "SA2_Name": "Northam"
    },
    {
      "name": "SPRINGFIELD",
      "postcode": "6525",
      "SA2_Name": "Irwin"
    },
    {
      "name": "SPRINGS",
      "postcode": "6308",
      "SA2_Name": "Brookton"
    },
    {
      "name": "ST GEORGE RANGES",
      "postcode": "6728",
      "SA2_Name": "Derby - West Kimberley"
    },
    {
      "name": "ST JAMES",
      "postcode": "6102",
      "SA2_Name": "Bentley - Wilson - St James"
    },
    {
      "name": "ST RONANS",
      "postcode": "6302",
      "SA2_Name": "York - Beverley"
    },
    {
      "name": "STAKE HILL",
      "postcode": "6181",
      "SA2_Name": "Mandurah - North"
    },
    {
      "name": "STIRLING",
      "postcode": "6021",
      "SA2_Name": "Stirling - Osborne Park"
    },
    {
      "name": "STIRLING ESTATE",
      "postcode": "6271",
      "SA2_Name": "Capel"
    },
    {
      "name": "STIRLING RANGE NATIONAL PARK",
      "postcode": "6338",
      "SA2_Name": "Stirling Range National Park"
    },
    {
      "name": "STONEVILLE",
      "postcode": "6081",
      "SA2_Name": "Mundaring"
    },
    {
      "name": "STOVE HILL",
      "postcode": "6714",
      "SA2_Name": "Karratha"
    },
    {
      "name": "STRATHALBYN",
      "postcode": "6530",
      "SA2_Name": "Geraldton - East"
    },
    {
      "name": "STRATHAM",
      "postcode": "6237",
      "SA2_Name": "Gelorup - Stratham"
    },
    {
      "name": "STRATHERNE",
      "postcode": "6309",
      "SA2_Name": "Wagin"
    },
    {
      "name": "STRATTON",
      "postcode": "6056",
      "SA2_Name": "Stratton - Jane Brook"
    },
    {
      "name": "STRELLEY",
      "postcode": "6721",
      "SA2_Name": "East Pilbara"
    },
    {
      "name": "STURT CREEK",
      "postcode": "6770",
      "SA2_Name": "Halls Creek"
    },
    {
      "name": "SUBIACO",
      "postcode": "6008",
      "SA2_Name": "Subiaco - Shenton Park"
    },
    {
      "name": "SUCCESS",
      "postcode": "6164",
      "SA2_Name": "Success - Hammond Park"
    },
    {
      "name": "SUNNYSIDE",
      "postcode": "6256",
      "SA2_Name": "Bridgetown - Boyup Brook"
    },
    {
      "name": "SUNSET BEACH",
      "postcode": "6530",
      "SA2_Name": "Geraldton - North"
    },
    {
      "name": "SWAN VIEW",
      "postcode": "6056",
      "SA2_Name": "Swan View - Greenmount - Midvale"
    },
    {
      "name": "SWANBOURNE",
      "postcode": "6010",
      "SA2_Name": "Swanbourne - Mount Claremont"
    },
    {
      "name": "TAKALARUP",
      "postcode": "6324",
      "SA2_Name": "Plantagenet"
    },
    {
      "name": "TALANDJI",
      "postcode": "6710",
      "SA2_Name": "Ashburton (WA)"
    },
    {
      "name": "TALBOT",
      "postcode": "6302",
      "SA2_Name": "York - Beverley"
    },
    {
      "name": "TALBOT WEST",
      "postcode": "6302",
      "SA2_Name": "York - Beverley"
    },
    {
      "name": "TALGOMINE",
      "postcode": "6490",
      "SA2_Name": "Mukinbudin"
    },
    {
      "name": "TALISKER",
      "postcode": "6701",
      "SA2_Name": "Exmouth"
    },
    {
      "name": "TAMALA",
      "postcode": "6532",
      "SA2_Name": "Exmouth"
    },
    {
      "name": "TAMALA PARK",
      "postcode": "6030",
      "SA2_Name": "Clarkson"
    },
    {
      "name": "TAMBELLUP",
      "postcode": "6320",
      "SA2_Name": "Kojonup"
    },
    {
      "name": "TAMMIN",
      "postcode": "6409",
      "SA2_Name": "Cunderdin"
    },
    {
      "name": "TAMPU",
      "postcode": "6472",
      "SA2_Name": "Mukinbudin"
    },
    {
      "name": "TANAMI",
      "postcode": "6770",
      "SA2_Name": "Halls Creek"
    },
    {
      "name": "TANDEGIN",
      "postcode": "6415",
      "SA2_Name": "Merredin"
    },
    {
      "name": "TAPPING",
      "postcode": "6065",
      "SA2_Name": "Tapping - Ashby - Sinagra"
    },
    {
      "name": "TARCOOLA BEACH",
      "postcode": "6530",
      "SA2_Name": "Geraldton - South"
    },
    {
      "name": "TARDUN",
      "postcode": "6628",
      "SA2_Name": "Northampton - Mullewa - Greenough"
    },
    {
      "name": "TARIN ROCK",
      "postcode": "6353",
      "SA2_Name": "Kulin"
    },
    {
      "name": "TEESDALE",
      "postcode": "6213",
      "SA2_Name": "Murray"
    },
    {
      "name": "TELFER",
      "postcode": "6762",
      "SA2_Name": "East Pilbara"
    },
    {
      "name": "TENINDEWA",
      "postcode": "6632",
      "SA2_Name": "Northampton - Mullewa - Greenough"
    },
    {
      "name": "TENTERDEN",
      "postcode": "6322",
      "SA2_Name": "Kojonup"
    },
    {
      "name": "THE LAKES",
      "postcode": "6556",
      "SA2_Name": "Chidlow"
    },
    {
      "name": "THE PLAINS",
      "postcode": "6237",
      "SA2_Name": "Capel"
    },
    {
      "name": "THE SPECTACLES",
      "postcode": "6167",
      "SA2_Name": "Hope Valley - Postans"
    },
    {
      "name": "THE VINES",
      "postcode": "6069",
      "SA2_Name": "The Vines"
    },
    {
      "name": "THOMSON BROOK",
      "postcode": "6239",
      "SA2_Name": "Donnybrook - Balingup"
    },
    {
      "name": "THORNLIE",
      "postcode": "6108",
      "SA2_Name": "Thornlie"
    },
    {
      "name": "THREE SPRINGS",
      "postcode": "6519",
      "SA2_Name": "Morawa"
    },
    {
      "name": "THROSSELL",
      "postcode": "6401",
      "SA2_Name": "Northam"
    },
    {
      "name": "TIBRADDEN",
      "postcode": "6532",
      "SA2_Name": "Northampton - Mullewa - Greenough"
    },
    {
      "name": "TINCURRIN",
      "postcode": "6361",
      "SA2_Name": "Kulin"
    },
    {
      "name": "TINGLEDALE",
      "postcode": "6333",
      "SA2_Name": "Denmark"
    },
    {
      "name": "TOM PRICE",
      "postcode": "6751",
      "SA2_Name": "Ashburton (WA)"
    },
    {
      "name": "TONEBRIDGE",
      "postcode": "6244",
      "SA2_Name": "Bridgetown - Boyup Brook"
    },
    {
      "name": "TOODYAY",
      "postcode": "6566",
      "SA2_Name": "Toodyay"
    },
    {
      "name": "TOOLIBIN",
      "postcode": "6312",
      "SA2_Name": "Kulin"
    },
    {
      "name": "TOOLONGA",
      "postcode": "6532",
      "SA2_Name": "Exmouth"
    },
    {
      "name": "TOOMPUP",
      "postcode": "6336",
      "SA2_Name": "Gnowangerup"
    },
    {
      "name": "TORBAY",
      "postcode": "6330",
      "SA2_Name": "Albany Region"
    },
    {
      "name": "TORNDIRRUP",
      "postcode": "6330",
      "SA2_Name": "Little Grove - Elleker"
    },
    {
      "name": "TOWNSENDALE",
      "postcode": "6311",
      "SA2_Name": "Wagin"
    },
    {
      "name": "TRAFALGAR",
      "postcode": "6431",
      "SA2_Name": "Kambalda - Coolgardie - Norseman"
    },
    {
      "name": "TRAYNING",
      "postcode": "6488",
      "SA2_Name": "Mukinbudin"
    },
    {
      "name": "TREEBY",
      "postcode": "6164",
      "SA2_Name": "Banjup"
    },
    {
      "name": "TREETON",
      "postcode": "6284",
      "SA2_Name": "Augusta"
    },
    {
      "name": "TRENT",
      "postcode": "6333",
      "SA2_Name": "Denmark"
    },
    {
      "name": "TRIGG",
      "postcode": "6029",
      "SA2_Name": "Trigg - North Beach - Watermans Bay"
    },
    {
      "name": "TRIGWELL",
      "postcode": "6244",
      "SA2_Name": "Wagin"
    },
    {
      "name": "TUART HILL",
      "postcode": "6060",
      "SA2_Name": "Tuart Hill - Joondanna"
    },
    {
      "name": "TURKEY HILL",
      "postcode": "6426",
      "SA2_Name": "Mukinbudin"
    },
    {
      "name": "TUTUNUP",
      "postcode": "6280",
      "SA2_Name": "Busselton Region"
    },
    {
      "name": "TWO ROCKS",
      "postcode": "6037",
      "SA2_Name": "Two Rocks"
    },
    {
      "name": "UCARTY",
      "postcode": "6462",
      "SA2_Name": "Dowerin"
    },
    {
      "name": "UCARTY WEST",
      "postcode": "6460",
      "SA2_Name": "Dowerin"
    },
    {
      "name": "UDUC",
      "postcode": "6220",
      "SA2_Name": "Harvey"
    },
    {
      "name": "ULARRING",
      "postcode": "6436",
      "SA2_Name": "Leinster - Leonora"
    },
    {
      "name": "UPPER CAPEL",
      "postcode": "6239",
      "SA2_Name": "Donnybrook - Balingup"
    },
    {
      "name": "UPPER MURRAY",
      "postcode": "6390",
      "SA2_Name": "Murray"
    },
    {
      "name": "UPPER SWAN",
      "postcode": "6069",
      "SA2_Name": "The Vines"
    },
    {
      "name": "UPPER WARREN",
      "postcode": "6258",
      "SA2_Name": "Pemberton"
    },
    {
      "name": "USELESS LOOP",
      "postcode": "6537",
      "SA2_Name": "Exmouth"
    },
    {
      "name": "USHER",
      "postcode": "6230",
      "SA2_Name": "Withers - Usher"
    },
    {
      "name": "UTAKARRA",
      "postcode": "6530",
      "SA2_Name": "Geraldton - East"
    },
    {
      "name": "VALENTINE",
      "postcode": "6532",
      "SA2_Name": "Northampton - Mullewa - Greenough"
    },
    {
      "name": "VANCOUVER PENINSULA",
      "postcode": "6330",
      "SA2_Name": "Little Grove - Elleker"
    },
    {
      "name": "VARLEY",
      "postcode": "6355",
      "SA2_Name": "Kulin"
    },
    {
      "name": "VASSE",
      "postcode": "6280",
      "SA2_Name": "Busselton"
    },
    {
      "name": "VICTORIA PARK",
      "postcode": "6100",
      "SA2_Name": "Victoria Park - Lathlain - Burswood"
    },
    {
      "name": "VICTORIA ROCK",
      "postcode": "6429",
      "SA2_Name": "Kambalda - Coolgardie - Norseman"
    },
    {
      "name": "VICTORY HEIGHTS",
      "postcode": "6432",
      "SA2_Name": "Boulder"
    },
    {
      "name": "VITTORIA",
      "postcode": "6230",
      "SA2_Name": "East Bunbury - Glen Iris"
    },
    {
      "name": "VIVEASH",
      "postcode": "6056",
      "SA2_Name": "Middle Swan - Herne Hill"
    },
    {
      "name": "WADDERIN",
      "postcode": "6369",
      "SA2_Name": "Merredin"
    },
    {
      "name": "WADDINGTON",
      "postcode": "6509",
      "SA2_Name": "Moora"
    },
    {
      "name": "WADDY FOREST",
      "postcode": "6515",
      "SA2_Name": "Morawa"
    },
    {
      "name": "WAEEL",
      "postcode": "6407",
      "SA2_Name": "Cunderdin"
    },
    {
      "name": "WAGERUP",
      "postcode": "6215",
      "SA2_Name": "Waroona"
    },
    {
      "name": "WAGGRAKINE",
      "postcode": "6530",
      "SA2_Name": "Geraldton - North"
    },
    {
      "name": "WAGIN",
      "postcode": "6315",
      "SA2_Name": "Wagin"
    },
    {
      "name": "WAIKIKI",
      "postcode": "6169",
      "SA2_Name": "Waikiki"
    },
    {
      "name": "WALEBING",
      "postcode": "6510",
      "SA2_Name": "Moora"
    },
    {
      "name": "WALGOOLAN",
      "postcode": "6422",
      "SA2_Name": "Mukinbudin"
    },
    {
      "name": "WALKAWAY",
      "postcode": "6528",
      "SA2_Name": "Northampton - Mullewa - Greenough"
    },
    {
      "name": "WALLAREENYA",
      "postcode": "6721",
      "SA2_Name": "East Pilbara"
    },
    {
      "name": "WALLAROO",
      "postcode": "6429",
      "SA2_Name": "Kambalda - Coolgardie - Norseman"
    },
    {
      "name": "WALLISTON",
      "postcode": "6076",
      "SA2_Name": "Lesmurdie - Bickley - Carmel"
    },
    {
      "name": "WALMSLEY",
      "postcode": "6330",
      "SA2_Name": "Bayonet Head - Lower King"
    },
    {
      "name": "WALPOLE",
      "postcode": "6398",
      "SA2_Name": "Pemberton"
    },
    {
      "name": "WALSALL",
      "postcode": "6280",
      "SA2_Name": "Busselton Region"
    },
    {
      "name": "WALYORMOURING",
      "postcode": "6460",
      "SA2_Name": "Dowerin"
    },
    {
      "name": "WALYUNGA NATIONAL PARK",
      "postcode": "6084",
      "SA2_Name": "Walyunga National Park"
    },
    {
      "name": "WALYURIN",
      "postcode": "6363",
      "SA2_Name": "Kulin"
    },
    {
      "name": "WAMENUSKING",
      "postcode": "6383",
      "SA2_Name": "Cunderdin"
    },
    {
      "name": "WANDANA",
      "postcode": "6532",
      "SA2_Name": "Northampton - Mullewa - Greenough"
    },
    {
      "name": "WANDERING",
      "postcode": "6308",
      "SA2_Name": "Brookton"
    },
    {
      "name": "WANDI",
      "postcode": "6167",
      "SA2_Name": "Casuarina - Wandi"
    },
    {
      "name": "WANDILLUP",
      "postcode": "6256",
      "SA2_Name": "Bridgetown - Boyup Brook"
    },
    {
      "name": "WANDINA",
      "postcode": "6530",
      "SA2_Name": "Geraldton - South"
    },
    {
      "name": "WANERIE",
      "postcode": "6503",
      "SA2_Name": "Gingin - Dandaragan"
    },
    {
      "name": "WANGARA",
      "postcode": "6065",
      "SA2_Name": "Madeley - Darch - Landsdale"
    },
    {
      "name": "WANNAMAL",
      "postcode": "6505",
      "SA2_Name": "Chittering"
    },
    {
      "name": "WANNANUP",
      "postcode": "6210",
      "SA2_Name": "Falcon - Wannanup"
    },
    {
      "name": "WANNEROO",
      "postcode": "6065",
      "SA2_Name": "Wanneroo"
    },
    {
      "name": "WANSBROUGH",
      "postcode": "6320",
      "SA2_Name": "Kojonup"
    },
    {
      "name": "WARAWARRUP",
      "postcode": "6220",
      "SA2_Name": "Harvey"
    },
    {
      "name": "WARBURTON",
      "postcode": "6431",
      "SA2_Name": "Leinster - Leonora"
    },
    {
      "name": "WARDERING",
      "postcode": "6311",
      "SA2_Name": "Wagin"
    },
    {
      "name": "WARDING EAST",
      "postcode": "6405",
      "SA2_Name": "Cunderdin"
    },
    {
      "name": "WARMUN",
      "postcode": "6743",
      "SA2_Name": "Halls Creek"
    },
    {
      "name": "WARNBRO",
      "postcode": "6169",
      "SA2_Name": "Warnbro"
    },
    {
      "name": "WARNER GLEN",
      "postcode": "6288",
      "SA2_Name": "Augusta"
    },
    {
      "name": "WAROONA",
      "postcode": "6215",
      "SA2_Name": "Waroona"
    },
    {
      "name": "WARRACHUPPIN",
      "postcode": "6423",
      "SA2_Name": "Mukinbudin"
    },
    {
      "name": "WARRADARGE",
      "postcode": "6518",
      "SA2_Name": "Morawa"
    },
    {
      "name": "WARRALAKIN",
      "postcode": "6421",
      "SA2_Name": "Mukinbudin"
    },
    {
      "name": "WARRENUP",
      "postcode": "6330",
      "SA2_Name": "McKail - Willyung"
    },
    {
      "name": "WARWICK",
      "postcode": "6024",
      "SA2_Name": "Greenwood - Warwick"
    },
    {
      "name": "WATERBANK",
      "postcode": "6725",
      "SA2_Name": "Roebuck"
    },
    {
      "name": "WATERCARRIN",
      "postcode": "6407",
      "SA2_Name": "Cunderdin"
    },
    {
      "name": "WATERFORD",
      "postcode": "6152",
      "SA2_Name": "Manning - Waterford"
    },
    {
      "name": "WATERLOO",
      "postcode": "6228",
      "SA2_Name": "Dardanup"
    },
    {
      "name": "WATERMANS BAY",
      "postcode": "6020",
      "SA2_Name": "Trigg - North Beach - Watermans Bay"
    },
    {
      "name": "WATHEROO",
      "postcode": "6513",
      "SA2_Name": "Moora"
    },
    {
      "name": "WATTENING",
      "postcode": "6568",
      "SA2_Name": "Toodyay"
    },
    {
      "name": "WATTLE GROVE",
      "postcode": "6107",
      "SA2_Name": "Forrestfield - Wattle Grove"
    },
    {
      "name": "WATTLEUP",
      "postcode": "6166",
      "SA2_Name": "Beeliar - Wattleup"
    },
    {
      "name": "WATTONING",
      "postcode": "6479",
      "SA2_Name": "Mukinbudin"
    },
    {
      "name": "WEBBERTON",
      "postcode": "6530",
      "SA2_Name": "Geraldton"
    },
    {
      "name": "WEDGE ISLAND",
      "postcode": "6044",
      "SA2_Name": "Gingin - Dandaragan"
    },
    {
      "name": "WEDGECARRUP",
      "postcode": "6315",
      "SA2_Name": "Wagin"
    },
    {
      "name": "WEDGEFIELD",
      "postcode": "6721",
      "SA2_Name": "Port Hedland"
    },
    {
      "name": "WELBUNGIN",
      "postcode": "6477",
      "SA2_Name": "Mukinbudin"
    },
    {
      "name": "WELD RANGE",
      "postcode": "6640",
      "SA2_Name": "Meekatharra"
    },
    {
      "name": "WELLARD",
      "postcode": "6170",
      "SA2_Name": "Bertram - Wellard (West)"
    },
    {
      "name": "WELLESLEY",
      "postcode": "6233",
      "SA2_Name": "Harvey"
    },
    {
      "name": "WELLINGTON FOREST",
      "postcode": "6236",
      "SA2_Name": "Dardanup"
    },
    {
      "name": "WELLINGTON MILL",
      "postcode": "6236",
      "SA2_Name": "Dardanup"
    },
    {
      "name": "WELLSTEAD",
      "postcode": "6328",
      "SA2_Name": "Albany Region"
    },
    {
      "name": "WELSHPOOL",
      "postcode": "6106",
      "SA2_Name": "Welshpool"
    },
    {
      "name": "WEMBLEY",
      "postcode": "6014",
      "SA2_Name": "Wembley - West Leederville - Glendalough"
    },
    {
      "name": "WEMBLEY DOWNS",
      "postcode": "6019",
      "SA2_Name": "Wembley Downs - Churchlands - Woodlands"
    },
    {
      "name": "WEST BALLIDU",
      "postcode": "6606",
      "SA2_Name": "Dowerin"
    },
    {
      "name": "WEST BEACH",
      "postcode": "6450",
      "SA2_Name": "Esperance"
    },
    {
      "name": "WEST BINNU",
      "postcode": "6532",
      "SA2_Name": "Northampton - Mullewa - Greenough"
    },
    {
      "name": "WEST BUSSELTON",
      "postcode": "6280",
      "SA2_Name": "Busselton"
    },
    {
      "name": "WEST CAPE HOWE",
      "postcode": "6330",
      "SA2_Name": "Albany Region"
    },
    {
      "name": "WEST CASUARINAS",
      "postcode": "6630",
      "SA2_Name": "Northampton - Mullewa - Greenough"
    },
    {
      "name": "WEST COOLUP",
      "postcode": "6214",
      "SA2_Name": "Pinjarra"
    },
    {
      "name": "WEST END",
      "postcode": "6530",
      "SA2_Name": "Geraldton"
    },
    {
      "name": "WEST FITZGERALD",
      "postcode": "6337",
      "SA2_Name": "Gnowangerup"
    },
    {
      "name": "WEST HOLLETON",
      "postcode": "6369",
      "SA2_Name": "Merredin"
    },
    {
      "name": "WEST KALGOORLIE",
      "postcode": "6430",
      "SA2_Name": "Kalgoorlie"
    },
    {
      "name": "WEST LAMINGTON",
      "postcode": "6430",
      "SA2_Name": "Kalgoorlie - North"
    },
    {
      "name": "WEST LEEDERVILLE",
      "postcode": "6007",
      "SA2_Name": "Wembley - West Leederville - Glendalough"
    },
    {
      "name": "WEST LYONS RIVER",
      "postcode": "6705",
      "SA2_Name": "Exmouth"
    },
    {
      "name": "WEST PERTH",
      "postcode": "6005",
      "SA2_Name": "Perth City"
    },
    {
      "name": "WEST PINGELLY",
      "postcode": "6308",
      "SA2_Name": "Brookton"
    },
    {
      "name": "WEST PINJARRA",
      "postcode": "6208",
      "SA2_Name": "Pinjarra"
    },
    {
      "name": "WEST POPANYINNING",
      "postcode": "6309",
      "SA2_Name": "Wagin"
    },
    {
      "name": "WEST RIVER",
      "postcode": "6346",
      "SA2_Name": "Esperance Region"
    },
    {
      "name": "WEST SWAN",
      "postcode": "6055",
      "SA2_Name": "Beechboro"
    },
    {
      "name": "WEST TOODYAY",
      "postcode": "6566",
      "SA2_Name": "Toodyay"
    },
    {
      "name": "WESTDALE",
      "postcode": "6304",
      "SA2_Name": "York - Beverley"
    },
    {
      "name": "WESTMINSTER",
      "postcode": "6061",
      "SA2_Name": "Nollamara - Westminster"
    },
    {
      "name": "WESTONIA",
      "postcode": "6423",
      "SA2_Name": "Mukinbudin"
    },
    {
      "name": "WESTWOOD",
      "postcode": "6316",
      "SA2_Name": "Katanning"
    },
    {
      "name": "WHIM CREEK",
      "postcode": "6718",
      "SA2_Name": "Roebourne"
    },
    {
      "name": "WHITBY",
      "postcode": "6123",
      "SA2_Name": "Mundijong"
    },
    {
      "name": "WHITE GUM VALLEY",
      "postcode": "6162",
      "SA2_Name": "Fremantle"
    },
    {
      "name": "WHITE PEAK",
      "postcode": "6532",
      "SA2_Name": "Geraldton - North"
    },
    {
      "name": "WHITEMAN",
      "postcode": "6068",
      "SA2_Name": "Beechboro"
    },
    {
      "name": "WHITTAKER",
      "postcode": "6207",
      "SA2_Name": "Murray"
    },
    {
      "name": "WIALKI",
      "postcode": "6473",
      "SA2_Name": "Mukinbudin"
    },
    {
      "name": "WICHERINA",
      "postcode": "6532",
      "SA2_Name": "Northampton - Mullewa - Greenough"
    },
    {
      "name": "WICHERINA SOUTH",
      "postcode": "6532",
      "SA2_Name": "Northampton - Mullewa - Greenough"
    },
    {
      "name": "WICKEPIN",
      "postcode": "6370",
      "SA2_Name": "Kulin"
    },
    {
      "name": "WICKHAM",
      "postcode": "6720",
      "SA2_Name": "Roebourne"
    },
    {
      "name": "WIDGIEMOOLTHA",
      "postcode": "6443",
      "SA2_Name": "Kambalda - Coolgardie - Norseman"
    },
    {
      "name": "WIJILAWARRIM",
      "postcode": "6743",
      "SA2_Name": "Kununurra"
    },
    {
      "name": "WILBERFORCE",
      "postcode": "6302",
      "SA2_Name": "York - Beverley"
    },
    {
      "name": "WILBINGA",
      "postcode": "6041",
      "SA2_Name": "Gingin - Dandaragan"
    },
    {
      "name": "WILGA",
      "postcode": "6243",
      "SA2_Name": "Bridgetown - Boyup Brook"
    },
    {
      "name": "WILGA WEST",
      "postcode": "6243",
      "SA2_Name": "Donnybrook - Balingup"
    },
    {
      "name": "WILGARRUP",
      "postcode": "6258",
      "SA2_Name": "Pemberton"
    },
    {
      "name": "WILGOYNE",
      "postcode": "6479",
      "SA2_Name": "Mukinbudin"
    },
    {
      "name": "WILLAGEE",
      "postcode": "6156",
      "SA2_Name": "Willagee"
    },
    {
      "name": "WILLARE",
      "postcode": "6728",
      "SA2_Name": "Derby - West Kimberley"
    },
    {
      "name": "WILLETTON",
      "postcode": "6155",
      "SA2_Name": "Willetton"
    },
    {
      "name": "WILLIAM BAY",
      "postcode": "6333",
      "SA2_Name": "Denmark"
    },
    {
      "name": "WILLIAMS",
      "postcode": "6391",
      "SA2_Name": "Wagin"
    },
    {
      "name": "WILLIAMSTOWN",
      "postcode": "6430",
      "SA2_Name": "Kalgoorlie"
    },
    {
      "name": "WILLYUNG",
      "postcode": "6330",
      "SA2_Name": "McKail - Willyung"
    },
    {
      "name": "WILSON",
      "postcode": "6107",
      "SA2_Name": "Bentley - Wilson - St James"
    },
    {
      "name": "WILUNA",
      "postcode": "6646",
      "SA2_Name": "Meekatharra"
    },
    {
      "name": "WILYABRUP",
      "postcode": "6280",
      "SA2_Name": "Busselton Region"
    },
    {
      "name": "WINDABOUT",
      "postcode": "6450",
      "SA2_Name": "Esperance"
    },
    {
      "name": "WINDY HARBOUR",
      "postcode": "6262",
      "SA2_Name": "Pemberton"
    },
    {
      "name": "WINNEJUP",
      "postcode": "6255",
      "SA2_Name": "Bridgetown - Boyup Brook"
    },
    {
      "name": "WINTHROP",
      "postcode": "6150",
      "SA2_Name": "Winthrop"
    },
    {
      "name": "WITCHCLIFFE",
      "postcode": "6286",
      "SA2_Name": "Augusta"
    },
    {
      "name": "WITHERS",
      "postcode": "6230",
      "SA2_Name": "Withers - Usher"
    },
    {
      "name": "WITTENOOM",
      "postcode": "6751",
      "SA2_Name": "Ashburton (WA)"
    },
    {
      "name": "WITTENOOM HILLS",
      "postcode": "6447",
      "SA2_Name": "Esperance Region"
    },
    {
      "name": "WOGOLIN",
      "postcode": "6370",
      "SA2_Name": "Kulin"
    },
    {
      "name": "WOKALUP",
      "postcode": "6221",
      "SA2_Name": "Harvey"
    },
    {
      "name": "WOMARDEN",
      "postcode": "6519",
      "SA2_Name": "Morawa"
    },
    {
      "name": "WONGAMINE",
      "postcode": "6401",
      "SA2_Name": "Dowerin"
    },
    {
      "name": "WONGAN HILLS",
      "postcode": "6603",
      "SA2_Name": "Dowerin"
    },
    {
      "name": "WONGOONDY",
      "postcode": "6630",
      "SA2_Name": "Northampton - Mullewa - Greenough"
    },
    {
      "name": "WONNERUP",
      "postcode": "6280",
      "SA2_Name": "Busselton"
    },
    {
      "name": "WONTHELLA",
      "postcode": "6530",
      "SA2_Name": "Geraldton"
    },
    {
      "name": "WOODANILLING",
      "postcode": "6316",
      "SA2_Name": "Katanning"
    },
    {
      "name": "WOODBRIDGE",
      "postcode": "6056",
      "SA2_Name": "Midland - Guildford"
    },
    {
      "name": "WOODLANDS",
      "postcode": "6018",
      "SA2_Name": "Wembley Downs - Churchlands - Woodlands"
    },
    {
      "name": "WOODLEIGH",
      "postcode": "6701",
      "SA2_Name": "Exmouth"
    },
    {
      "name": "WOODRIDGE",
      "postcode": "6041",
      "SA2_Name": "Gingin - Dandaragan"
    },
    {
      "name": "WOODVALE",
      "postcode": "6026",
      "SA2_Name": "Woodvale"
    },
    {
      "name": "WOOGENELLUP",
      "postcode": "6324",
      "SA2_Name": "Plantagenet"
    },
    {
      "name": "WOOLGORONG",
      "postcode": "6630",
      "SA2_Name": "Meekatharra"
    },
    {
      "name": "WOOLOCUTTY",
      "postcode": "6369",
      "SA2_Name": "Merredin"
    },
    {
      "name": "WOORAMEL",
      "postcode": "6701",
      "SA2_Name": "Exmouth"
    },
    {
      "name": "WOOROLOO",
      "postcode": "6558",
      "SA2_Name": "Chidlow"
    },
    {
      "name": "WOORREE",
      "postcode": "6530",
      "SA2_Name": "Geraldton - East"
    },
    {
      "name": "WOOTTATING",
      "postcode": "6562",
      "SA2_Name": "Northam"
    },
    {
      "name": "WORSLEY",
      "postcode": "6225",
      "SA2_Name": "Collie"
    },
    {
      "name": "WUBIN",
      "postcode": "6612",
      "SA2_Name": "Moora"
    },
    {
      "name": "WUNDOWIE",
      "postcode": "6560",
      "SA2_Name": "Northam"
    },
    {
      "name": "WUNGONG",
      "postcode": "6112",
      "SA2_Name": "Armadale - Wungong - Brookdale"
    },
    {
      "name": "WURAMING",
      "postcode": "6390",
      "SA2_Name": "Murray"
    },
    {
      "name": "WYALKATCHEM",
      "postcode": "6485",
      "SA2_Name": "Dowerin"
    },
    {
      "name": "WYENING",
      "postcode": "6568",
      "SA2_Name": "Moora"
    },
    {
      "name": "WYNDHAM",
      "postcode": "6740",
      "SA2_Name": "Kununurra"
    },
    {
      "name": "WYOLA WEST",
      "postcode": "6407",
      "SA2_Name": "Cunderdin"
    },
    {
      "name": "XANTIPPE",
      "postcode": "6609",
      "SA2_Name": "Moora"
    },
    {
      "name": "YABBERUP",
      "postcode": "6239",
      "SA2_Name": "Donnybrook - Balingup"
    },
    {
      "name": "YAKAMIA",
      "postcode": "6330",
      "SA2_Name": "Albany"
    },
    {
      "name": "YALARDY",
      "postcode": "6701",
      "SA2_Name": "Exmouth"
    },
    {
      "name": "YALGOO",
      "postcode": "6635",
      "SA2_Name": "Meekatharra"
    },
    {
      "name": "YALLABATHARRA",
      "postcode": "6535",
      "SA2_Name": "Northampton - Mullewa - Greenough"
    },
    {
      "name": "YALLINGUP",
      "postcode": "6282",
      "SA2_Name": "Busselton Region"
    },
    {
      "name": "YALLINGUP SIDING",
      "postcode": "6282",
      "SA2_Name": "Busselton Region"
    },
    {
      "name": "YALYALUP",
      "postcode": "6280",
      "SA2_Name": "Busselton"
    },
    {
      "name": "YANCHEP",
      "postcode": "6035",
      "SA2_Name": "Yanchep"
    },
    {
      "name": "YANDANOOKA",
      "postcode": "6522",
      "SA2_Name": "Morawa"
    },
    {
      "name": "YANDOO CREEK",
      "postcode": "6701",
      "SA2_Name": "Exmouth"
    },
    {
      "name": "YANGEBUP",
      "postcode": "6164",
      "SA2_Name": "Yangebup"
    },
    {
      "name": "YANMAH",
      "postcode": "6258",
      "SA2_Name": "Pemberton"
    },
    {
      "name": "YANNARIE",
      "postcode": "6710",
      "SA2_Name": "Ashburton (WA)"
    },
    {
      "name": "YARAWINDAH",
      "postcode": "6509",
      "SA2_Name": "Moora"
    },
    {
      "name": "YARDARINO",
      "postcode": "6525",
      "SA2_Name": "Irwin"
    },
    {
      "name": "YARLOOP",
      "postcode": "6218",
      "SA2_Name": "Harvey"
    },
    {
      "name": "YARRAGADEE",
      "postcode": "6522",
      "SA2_Name": "Morawa"
    },
    {
      "name": "YATHROO",
      "postcode": "6507",
      "SA2_Name": "Gingin - Dandaragan"
    },
    {
      "name": "YEAGARUP",
      "postcode": "6260",
      "SA2_Name": "Pemberton"
    },
    {
      "name": "YEAL",
      "postcode": "6503",
      "SA2_Name": "Gingin - Dandaragan"
    },
    {
      "name": "YEALERING",
      "postcode": "6372",
      "SA2_Name": "Kulin"
    },
    {
      "name": "YELBENI",
      "postcode": "6487",
      "SA2_Name": "Mukinbudin"
    },
    {
      "name": "YELLOWDINE",
      "postcode": "6426",
      "SA2_Name": "Mukinbudin"
    },
    {
      "name": "YELVERTON",
      "postcode": "6280",
      "SA2_Name": "Busselton Region"
    },
    {
      "name": "YERECOIN",
      "postcode": "6571",
      "SA2_Name": "Moora"
    },
    {
      "name": "YETNA",
      "postcode": "6532",
      "SA2_Name": "Northampton - Mullewa - Greenough"
    },
    {
      "name": "YILKARI",
      "postcode": "6430",
      "SA2_Name": "Kambalda - Coolgardie - Norseman"
    },
    {
      "name": "YILLIMINNING",
      "postcode": "6312",
      "SA2_Name": "Wagin"
    },
    {
      "name": "YOGANUP",
      "postcode": "6275",
      "SA2_Name": "Busselton Region"
    },
    {
      "name": "YOKINE",
      "postcode": "6060",
      "SA2_Name": "Yokine - Coolbinia - Menora"
    },
    {
      "name": "YOONGARILLUP",
      "postcode": "6280",
      "SA2_Name": "Busselton Region"
    },
    {
      "name": "YORK",
      "postcode": "6302",
      "SA2_Name": "York - Beverley"
    },
    {
      "name": "YORNANING",
      "postcode": "6311",
      "SA2_Name": "Wagin"
    },
    {
      "name": "YORNUP",
      "postcode": "6256",
      "SA2_Name": "Bridgetown - Boyup Brook"
    },
    {
      "name": "YOTING",
      "postcode": "6383",
      "SA2_Name": "Cunderdin"
    },
    {
      "name": "YOUNDEGIN",
      "postcode": "6407",
      "SA2_Name": "Cunderdin"
    },
    {
      "name": "YOUNGS SIDING",
      "postcode": "6330",
      "SA2_Name": "Albany Region"
    },
    {
      "name": "YOURDAMUNG LAKE",
      "postcode": "6225",
      "SA2_Name": "Collie"
    },
    {
      "name": "YUNA",
      "postcode": "6532",
      "SA2_Name": "Northampton - Mullewa - Greenough"
    },
    {
      "name": "ZANTHUS",
      "postcode": "6434",
      "SA2_Name": "Kambalda - Coolgardie - Norseman"
    },
    {
      "name": "ZUYTDORP",
      "postcode": "6536",
      "SA2_Name": "Northampton - Mullewa - Greenough"
    }
  ]
}